{
  "type": "FeatureCollection",
  "features": [
    {
      "type": "Feature",
      "properties": {
        "scalerank": 1,
        "featurecla": "Coastline",
        "min_zoom": 1
      },
      "bbox": [
        -67.242428,
        17.946553,
        -65.591004,
        18.520601
      ],
      "geometry": {
        "type": "LineString",
        "coordinates": [
          [
            -66.282434,
            18.514762
          ],
          [
            -65.771303,
            18.426679
          ],
          [
            -65.591004,
            18.228035
          ],
          [
            -65.847164,
            17.975906
          ],
          [
            -66.599934,
            17.981823
          ],
          [
            -67.184162,
            17.946553
          ],
          [
            -67.242428,
            18.374486
          ],
          [
            -67.100679,
            18.520601
          ],
          [
            -66.282434,
            18.514762
          ]
        ]
      }
    },
    {
      "type": "Feature",
      "properties": {
        "scalerank": 1,
        "featurecla": "Coastline",
        "min_zoom": 1
      },
      "bbox": [
        -78.337719,
        17.701116,
        -76.199659,
        18.524218
      ],
      "geometry": {
        "type": "LineString",
        "coordinates": [
          [
            -77.569601,
            18.490525
          ],
          [
            -76.896619,
            18.400867
          ],
          [
            -76.365359,
            18.160701
          ],
          [
            -76.199659,
            17.886867
          ],
          [
            -76.902561,
            17.868238
          ],
          [
            -77.206341,
            17.701116
          ],
          [
            -77.766023,
            17.861597
          ],
          [
            -78.337719,
            18.225968
          ],
          [
            -78.217727,
            18.454533
          ],
          [
            -77.797365,
            18.524218
          ],
          [
            -77.569601,
            18.490525
          ]
        ]
      }
    },
    {
      "type": "Feature",
      "properties": {
        "scalerank": 0,
        "featurecla": "Coastline",
        "min_zoom": 0
      },
      "bbox": [
        -77.353361,
        -53.856454,
        -34.729993,
        12.437303
      ],
      "geometry": {
        "type": "LineString",
        "coordinates": [
          [
            -77.353361,
            8.670505
          ],
          [
            -76.836674,
            8.638749
          ],
          [
            -76.086384,
            9.336821
          ],
          [
            -75.6746,
            9.443248
          ],
          [
            -75.664704,
            9.774003
          ],
          [
            -75.480426,
            10.61899
          ],
          [
            -74.906895,
            11.083045
          ],
          [
            -74.276753,
            11.102036
          ],
          [
            -74.197223,
            11.310473
          ],
          [
            -73.414764,
            11.227015
          ],
          [
            -72.627835,
            11.731972
          ],
          [
            -72.238195,
            11.95555
          ],
          [
            -71.75409,
            12.437303
          ],
          [
            -71.399822,
            12.376041
          ],
          [
            -71.137461,
            12.112982
          ],
          [
            -71.331584,
            11.776284
          ],
          [
            -71.360006,
            11.539994
          ],
          [
            -71.94705,
            11.423282
          ],
          [
            -71.620868,
            10.96946
          ],
          [
            -71.633064,
            10.446494
          ],
          [
            -72.074174,
            9.865651
          ],
          [
            -71.695644,
            9.072263
          ],
          [
            -71.264559,
            9.13722
          ],
          [
            -71.039999,
            9.859993
          ],
          [
            -71.350084,
            10.211935
          ],
          [
            -71.400623,
            10.968969
          ],
          [
            -70.155299,
            11.375482
          ],
          [
            -70.293843,
            11.846822
          ],
          [
            -69.943245,
            12.162307
          ],
          [
            -69.5843,
            11.459611
          ],
          [
            -68.882999,
            11.443385
          ],
          [
            -68.233271,
            10.885744
          ],
          [
            -68.194127,
            10.554653
          ],
          [
            -67.296249,
            10.545868
          ],
          [
            -66.227864,
            10.648627
          ],
          [
            -65.655238,
            10.200799
          ],
          [
            -64.890452,
            10.077215
          ],
          [
            -64.329479,
            10.389599
          ],
          [
            -64.318007,
            10.641418
          ],
          [
            -63.079322,
            10.701724
          ],
          [
            -61.880946,
            10.715625
          ],
          [
            -62.730119,
            10.420269
          ],
          [
            -62.388512,
            9.948204
          ],
          [
            -61.588767,
            9.873067
          ],
          [
            -60.830597,
            9.38134
          ],
          [
            -60.671252,
            8.580174
          ],
          [
            -60.150096,
            8.602757
          ],
          [
            -59.758285,
            8.367035
          ],
          [
            -59.101684,
            7.999202
          ],
          [
            -58.482962,
            7.347691
          ],
          [
            -58.454876,
            6.832787
          ],
          [
            -58.078103,
            6.809094
          ],
          [
            -57.542219,
            6.321268
          ],
          [
            -57.147436,
            5.97315
          ],
          [
            -55.949318,
            5.772878
          ],
          [
            -55.84178,
            5.953125
          ],
          [
            -55.03325,
            6.025291
          ],
          [
            -53.958045,
            5.756548
          ],
          [
            -53.618453,
            5.646529
          ],
          [
            -52.882141,
            5.409851
          ],
          [
            -51.823343,
            4.565768
          ],
          [
            -51.657797,
            4.156232
          ],
          [
            -51.29999,
            4.120007
          ],
          [
            -51.069771,
            3.650398
          ],
          [
            -50.508875,
            1.901564
          ],
          [
            -49.974076,
            1.736483
          ],
          [
            -49.947101,
            1.04619
          ],
          [
            -50.699251,
            0.222984
          ],
          [
            -50.388211,
            -0.078445
          ],
          [
            -48.620567,
            -0.235489
          ],
          [
            -48.584497,
            -1.237805
          ],
          [
            -47.824956,
            -0.581618
          ],
          [
            -46.566584,
            -0.941028
          ],
          [
            -44.905703,
            -1.55174
          ],
          [
            -44.417619,
            -2.13775
          ],
          [
            -44.581589,
            -2.691308
          ],
          [
            -43.418791,
            -2.38311
          ],
          [
            -41.472657,
            -2.912018
          ],
          [
            -39.978665,
            -2.873054
          ],
          [
            -38.500383,
            -3.700652
          ],
          [
            -37.223252,
            -4.820946
          ],
          [
            -36.452937,
            -5.109404
          ],
          [
            -35.597796,
            -5.149504
          ],
          [
            -35.235389,
            -5.464937
          ],
          [
            -34.89603,
            -6.738193
          ],
          [
            -34.729993,
            -7.343221
          ],
          [
            -35.128212,
            -8.996401
          ],
          [
            -35.636967,
            -9.649282
          ],
          [
            -37.046519,
            -11.040721
          ],
          [
            -37.683612,
            -12.171195
          ],
          [
            -38.423877,
            -13.038119
          ],
          [
            -38.673887,
            -13.057652
          ],
          [
            -38.953276,
            -13.79337
          ],
          [
            -38.882298,
            -15.667054
          ],
          [
            -39.161092,
            -17.208407
          ],
          [
            -39.267339,
            -17.867746
          ],
          [
            -39.583521,
            -18.262296
          ],
          [
            -39.760823,
            -19.599113
          ],
          [
            -40.774741,
            -20.904512
          ],
          [
            -40.944756,
            -21.937317
          ],
          [
            -41.754164,
            -22.370676
          ],
          [
            -41.988284,
            -22.97007
          ],
          [
            -43.074704,
            -22.967693
          ],
          [
            -44.647812,
            -23.351959
          ],
          [
            -45.352136,
            -23.796842
          ],
          [
            -46.472093,
            -24.088969
          ],
          [
            -47.648972,
            -24.885199
          ],
          [
            -48.495458,
            -25.877025
          ],
          [
            -48.641005,
            -26.623646
          ],
          [
            -48.474736,
            -27.175912
          ],
          [
            -48.66152,
            -28.186135
          ],
          [
            -48.888457,
            -28.674115
          ],
          [
            -49.587329,
            -29.224469
          ],
          [
            -50.696874,
            -30.984465
          ],
          [
            -51.576226,
            -31.777698
          ],
          [
            -52.256081,
            -32.24537
          ],
          [
            -52.7121,
            -33.196578
          ],
          [
            -53.373662,
            -33.768378
          ],
          [
            -53.806426,
            -34.396815
          ],
          [
            -54.935866,
            -34.952647
          ],
          [
            -55.67409,
            -34.752659
          ],
          [
            -56.215297,
            -34.859836
          ],
          [
            -57.139685,
            -34.430456
          ],
          [
            -57.817861,
            -34.462547
          ],
          [
            -58.427074,
            -33.909454
          ],
          [
            -58.495442,
            -34.43149
          ],
          [
            -57.22583,
            -35.288027
          ],
          [
            -57.362359,
            -35.97739
          ],
          [
            -56.737487,
            -36.413126
          ],
          [
            -56.788285,
            -36.901572
          ],
          [
            -57.749157,
            -38.183871
          ],
          [
            -59.231857,
            -38.720169
          ],
          [
            -61.237445,
            -38.928425
          ],
          [
            -62.335957,
            -38.827707
          ],
          [
            -62.125763,
            -39.424105
          ],
          [
            -62.330531,
            -40.172586
          ],
          [
            -62.145994,
            -40.676897
          ],
          [
            -62.745803,
            -41.028761
          ],
          [
            -63.770495,
            -41.166789
          ],
          [
            -64.73209,
            -40.802677
          ],
          [
            -65.118035,
            -41.064315
          ],
          [
            -64.978561,
            -42.058001
          ],
          [
            -64.303408,
            -42.359016
          ],
          [
            -63.755948,
            -42.043687
          ],
          [
            -63.458059,
            -42.563138
          ],
          [
            -64.378804,
            -42.873558
          ],
          [
            -65.181804,
            -43.495381
          ],
          [
            -65.328823,
            -44.501366
          ],
          [
            -65.565269,
            -45.036786
          ],
          [
            -66.509966,
            -45.039628
          ],
          [
            -67.293794,
            -45.551896
          ],
          [
            -67.580546,
            -46.301773
          ],
          [
            -66.597066,
            -47.033873
          ],
          [
            -65.641027,
            -47.236135
          ],
          [
            -65.985088,
            -48.133289
          ],
          [
            -67.166179,
            -48.697337
          ],
          [
            -67.816088,
            -49.869669
          ],
          [
            -68.728745,
            -50.264167
          ],
          [
            -69.138539,
            -50.73251
          ],
          [
            -68.815561,
            -51.771103
          ],
          [
            -68.149995,
            -52.349983
          ],
          [
            -68.571545,
            -52.299443
          ],
          [
            -69.461284,
            -52.29195
          ],
          [
            -69.94278,
            -52.53793
          ],
          [
            -70.845102,
            -52.8992
          ],
          [
            -71.006332,
            -53.833251
          ],
          [
            -71.429795,
            -53.856454
          ],
          [
            -72.557943,
            -53.531409
          ],
          [
            -73.702757,
            -52.835069
          ],
          [
            -74.946763,
            -52.262753
          ]
        ]
      }
    },
    {
      "type": "Feature",
      "properties": {
        "scalerank": 0,
        "featurecla": "Coastline",
        "min_zoom": 0
      },
      "bbox": [
        -81.410943,
        -52.262753,
        -70.091246,
        7.223771
      ],
      "geometry": {
        "type": "LineString",
        "coordinates": [
          [
            -77.881571,
            7.223771
          ],
          [
            -77.476661,
            6.691116
          ],
          [
            -77.318815,
            5.845354
          ],
          [
            -77.533221,
            5.582812
          ],
          [
            -77.307601,
            4.667984
          ],
          [
            -77.496272,
            4.087606
          ],
          [
            -77.12769,
            3.849636
          ],
          [
            -77.510431,
            3.325017
          ],
          [
            -77.931543,
            2.696606
          ],
          [
            -78.42761,
            2.629556
          ],
          [
            -78.662118,
            2.267355
          ],
          [
            -78.617831,
            1.766404
          ],
          [
            -78.990935,
            1.69137
          ],
          [
            -78.855259,
            1.380924
          ],
          [
            -79.542762,
            0.982938
          ],
          [
            -80.09061,
            0.768429
          ],
          [
            -80.020898,
            0.36034
          ],
          [
            -80.399325,
            -0.283703
          ],
          [
            -80.58337,
            -0.906663
          ],
          [
            -80.933659,
            -1.057455
          ],
          [
            -80.764806,
            -1.965048
          ],
          [
            -80.967765,
            -2.246943
          ],
          [
            -80.368784,
            -2.685159
          ],
          [
            -79.986559,
            -2.220794
          ],
          [
            -79.770293,
            -2.657512
          ],
          [
            -80.302561,
            -3.404856
          ],
          [
            -81.09967,
            -4.036394
          ],
          [
            -81.410943,
            -4.736765
          ],
          [
            -80.926347,
            -5.690557
          ],
          [
            -81.249996,
            -6.136834
          ],
          [
            -80.537482,
            -6.541668
          ],
          [
            -79.760578,
            -7.194341
          ],
          [
            -79.44592,
            -7.930833
          ],
          [
            -79.036953,
            -8.386568
          ],
          [
            -78.092153,
            -10.377712
          ],
          [
            -77.106192,
            -12.222716
          ],
          [
            -76.259242,
            -13.535039
          ],
          [
            -76.423469,
            -13.823187
          ],
          [
            -76.009205,
            -14.649286
          ],
          [
            -75.237883,
            -15.265683
          ],
          [
            -73.44453,
            -16.359363
          ],
          [
            -71.462041,
            -17.363488
          ],
          [
            -71.37525,
            -17.773747
          ],
          [
            -70.372572,
            -18.347975
          ],
          [
            -70.16442,
            -19.756468
          ],
          [
            -70.091246,
            -21.393319
          ],
          [
            -70.403966,
            -23.628997
          ],
          [
            -70.724954,
            -25.705924
          ],
          [
            -70.905124,
            -27.64038
          ],
          [
            -71.489894,
            -28.861442
          ],
          [
            -71.370083,
            -30.095682
          ],
          [
            -71.668721,
            -30.920645
          ],
          [
            -71.43845,
            -32.418899
          ],
          [
            -71.861732,
            -33.909093
          ],
          [
            -72.553137,
            -35.50884
          ],
          [
            -73.166717,
            -37.12378
          ],
          [
            -73.588061,
            -37.156285
          ],
          [
            -73.505559,
            -38.282883
          ],
          [
            -73.217593,
            -39.258689
          ],
          [
            -73.677099,
            -39.942213
          ],
          [
            -74.017957,
            -41.794813
          ],
          [
            -74.331943,
            -43.224958
          ],
          [
            -73.701336,
            -43.365776
          ],
          [
            -73.3889,
            -42.117532
          ],
          [
            -72.717804,
            -42.383356
          ],
          [
            -73.240356,
            -44.454961
          ],
          [
            -74.351709,
            -44.103044
          ],
          [
            -74.692154,
            -45.763976
          ],
          [
            -75.644395,
            -46.647643
          ],
          [
            -74.126581,
            -46.939253
          ],
          [
            -75.18277,
            -47.711919
          ],
          [
            -75.608015,
            -48.673773
          ],
          [
            -75.479754,
            -50.378372
          ],
          [
            -74.976632,
            -51.043396
          ],
          [
            -75.260026,
            -51.629355
          ],
          [
            -74.946763,
            -52.262753
          ]
        ]
      }
    },
    {
      "type": "Feature",
      "properties": {
        "scalerank": 0,
        "featurecla": "Coastline",
        "min_zoom": 0
      },
      "bbox": [
        -168.11056,
        7.220541,
        -55.683391,
        71.92052
      ],
      "geometry": {
        "type": "LineString",
        "coordinates": [
          [
            -77.881571,
            7.223771
          ],
          [
            -78.214936,
            7.512255
          ],
          [
            -78.429161,
            8.052041
          ],
          [
            -78.182096,
            8.319182
          ],
          [
            -78.435465,
            8.387705
          ],
          [
            -78.622121,
            8.718124
          ],
          [
            -79.120307,
            8.996092
          ],
          [
            -79.557877,
            8.932375
          ],
          [
            -79.760578,
            8.584515
          ],
          [
            -80.164481,
            8.333316
          ],
          [
            -80.382659,
            8.298409
          ],
          [
            -80.480689,
            8.090308
          ],
          [
            -80.00369,
            7.547524
          ],
          [
            -80.276671,
            7.419754
          ],
          [
            -80.421158,
            7.271572
          ],
          [
            -80.886401,
            7.220541
          ],
          [
            -81.059543,
            7.817921
          ],
          [
            -81.189716,
            7.647906
          ],
          [
            -81.519515,
            7.70661
          ],
          [
            -81.721311,
            8.108963
          ],
          [
            -82.131441,
            8.175393
          ],
          [
            -82.390934,
            8.292362
          ],
          [
            -82.605495,
            8.291613
          ],
          [
            -82.820081,
            8.290864
          ],
          [
            -82.850958,
            8.073823
          ],
          [
            -82.965783,
            8.225054
          ],
          [
            -83.508437,
            8.446927
          ],
          [
            -83.711474,
            8.656836
          ],
          [
            -83.596313,
            8.830443
          ],
          [
            -83.632642,
            9.051386
          ],
          [
            -83.909886,
            9.290803
          ],
          [
            -84.303402,
            9.487354
          ],
          [
            -84.647644,
            9.615537
          ],
          [
            -84.713351,
            9.908052
          ],
          [
            -84.97566,
            10.086723
          ],
          [
            -84.911375,
            9.795992
          ],
          [
            -85.110923,
            9.55704
          ],
          [
            -85.339488,
            9.834542
          ],
          [
            -85.660787,
            9.933347
          ],
          [
            -85.797445,
            10.134886
          ],
          [
            -85.791709,
            10.439337
          ],
          [
            -85.659314,
            10.754331
          ],
          [
            -85.80052,
            10.824792
          ],
          [
            -85.941725,
            10.895278
          ],
          [
            -85.71254,
            11.088445
          ],
          [
            -86.058488,
            11.403439
          ],
          [
            -86.52585,
            11.806877
          ],
          [
            -86.745992,
            12.143962
          ],
          [
            -87.167516,
            12.458258
          ],
          [
            -87.668493,
            12.90991
          ],
          [
            -87.557467,
            13.064552
          ],
          [
            -87.392386,
            12.914018
          ],
          [
            -87.316654,
            12.984686
          ],
          [
            -87.489409,
            13.297535
          ],
          [
            -87.64126,
            13.341021
          ],
          [
            -87.793111,
            13.38448
          ],
          [
            -87.904112,
            13.149017
          ],
          [
            -88.483302,
            13.163951
          ],
          [
            -88.843228,
            13.259759
          ],
          [
            -89.256743,
            13.458533
          ],
          [
            -89.812394,
            13.520622
          ],
          [
            -90.095555,
            13.735338
          ],
          [
            -90.608624,
            13.909771
          ],
          [
            -91.23241,
            13.927832
          ],
          [
            -91.689747,
            14.126218
          ],
          [
            -92.22775,
            14.538829
          ],
          [
            -93.359464,
            15.61543
          ],
          [
            -93.875169,
            15.94019
          ],
          [
            -94.691656,
            16.200975
          ],
          [
            -95.250227,
            16.128318
          ],
          [
            -96.053382,
            15.752088
          ],
          [
            -96.557434,
            15.653515
          ],
          [
            -97.263592,
            15.917065
          ],
          [
            -98.01303,
            16.107312
          ],
          [
            -98.947676,
            16.566043
          ],
          [
            -99.697397,
            16.706164
          ],
          [
            -100.829499,
            17.171071
          ],
          [
            -101.666089,
            17.649026
          ],
          [
            -101.918528,
            17.91609
          ],
          [
            -102.478132,
            17.975751
          ],
          [
            -103.50099,
            18.292295
          ],
          [
            -103.917527,
            18.748572
          ],
          [
            -104.99201,
            19.316134
          ],
          [
            -105.493038,
            19.946767
          ],
          [
            -105.731396,
            20.434102
          ],
          [
            -105.397773,
            20.531719
          ],
          [
            -105.500661,
            20.816895
          ],
          [
            -105.270752,
            21.076285
          ],
          [
            -105.265817,
            21.422104
          ],
          [
            -105.603161,
            21.871146
          ],
          [
            -105.693414,
            22.26908
          ],
          [
            -106.028716,
            22.773752
          ],
          [
            -106.90998,
            23.7678
          ],
          [
            -107.915449,
            24.548915
          ],
          [
            -108.401905,
            25.172314
          ],
          [
            -109.260199,
            25.580609
          ],
          [
            -109.444089,
            25.824884
          ],
          [
            -109.291644,
            26.442934
          ],
          [
            -109.801458,
            26.676176
          ],
          [
            -110.391732,
            27.162115
          ],
          [
            -110.641019,
            27.859876
          ],
          [
            -111.178919,
            27.941241
          ],
          [
            -111.759607,
            28.467953
          ],
          [
            -112.228235,
            28.954409
          ],
          [
            -112.271824,
            29.266844
          ],
          [
            -112.809594,
            30.021114
          ],
          [
            -113.163811,
            30.786881
          ],
          [
            -113.148669,
            31.170966
          ],
          [
            -113.871881,
            31.567608
          ],
          [
            -114.205737,
            31.524045
          ],
          [
            -114.776451,
            31.799532
          ],
          [
            -114.9367,
            31.393485
          ],
          [
            -114.771232,
            30.913617
          ],
          [
            -114.673899,
            30.162681
          ],
          [
            -114.330974,
            29.750432
          ],
          [
            -113.588875,
            29.061611
          ],
          [
            -113.424053,
            28.826174
          ],
          [
            -113.271969,
            28.754783
          ],
          [
            -113.140039,
            28.411289
          ],
          [
            -112.962298,
            28.42519
          ],
          [
            -112.761587,
            27.780217
          ],
          [
            -112.457911,
            27.525814
          ],
          [
            -112.244952,
            27.171753
          ],
          [
            -111.616489,
            26.662817
          ],
          [
            -111.284675,
            25.73259
          ],
          [
            -110.987819,
            25.294632
          ],
          [
            -110.710007,
            24.826004
          ],
          [
            -110.655049,
            24.298595
          ],
          [
            -110.172856,
            24.265548
          ],
          [
            -109.771847,
            23.811183
          ],
          [
            -109.409104,
            23.364672
          ],
          [
            -109.433392,
            23.185588
          ],
          [
            -109.854219,
            22.818272
          ],
          [
            -110.031392,
            22.823078
          ],
          [
            -110.295071,
            23.430973
          ],
          [
            -110.949501,
            24.000964
          ],
          [
            -111.670568,
            24.484423
          ],
          [
            -112.182036,
            24.738413
          ],
          [
            -112.148989,
            25.470125
          ],
          [
            -112.300711,
            26.012004
          ],
          [
            -112.777297,
            26.32196
          ],
          [
            -113.464671,
            26.768186
          ],
          [
            -113.59673,
            26.63946
          ],
          [
            -113.848937,
            26.900064
          ],
          [
            -114.465747,
            27.14209
          ],
          [
            -115.055142,
            27.722727
          ],
          [
            -114.982253,
            27.7982
          ],
          [
            -114.570366,
            27.741485
          ],
          [
            -114.199329,
            28.115003
          ],
          [
            -114.162018,
            28.566112
          ],
          [
            -114.931842,
            29.279479
          ],
          [
            -115.518654,
            29.556362
          ],
          [
            -115.887365,
            30.180794
          ],
          [
            -116.25835,
            30.836464
          ],
          [
            -116.721526,
            31.635744
          ],
          [
            -117.127755,
            32.535327
          ],
          [
            -117.295938,
            33.046225
          ],
          [
            -117.944,
            33.621236
          ],
          [
            -118.410602,
            33.740909
          ],
          [
            -118.519895,
            34.027782
          ],
          [
            -119.081,
            34.078
          ],
          [
            -119.438841,
            34.348477
          ],
          [
            -120.367789,
            34.447097
          ],
          [
            -120.622864,
            34.60856
          ],
          [
            -120.74433,
            35.156872
          ],
          [
            -121.714581,
            36.161514
          ],
          [
            -122.547476,
            37.551765
          ],
          [
            -122.512,
            37.783379
          ],
          [
            -122.953187,
            38.113695
          ],
          [
            -123.727197,
            38.951654
          ],
          [
            -123.865173,
            39.766979
          ],
          [
            -124.39806,
            40.313199
          ],
          [
            -124.178849,
            41.142037
          ],
          [
            -124.213705,
            41.999633
          ],
          [
            -124.53284,
            42.76599
          ],
          [
            -124.14214,
            43.70838
          ],
          [
            -124.020535,
            44.615895
          ],
          [
            -123.89893,
            45.52341
          ],
          [
            -124.079635,
            46.86475
          ],
          [
            -124.39567,
            47.72017
          ],
          [
            -124.68721,
            48.184433
          ],
          [
            -124.566101,
            48.379715
          ],
          [
            -123.12,
            48.04
          ],
          [
            -122.58737,
            47.095989
          ],
          [
            -122.339995,
            47.360004
          ],
          [
            -122.500011,
            48.180005
          ],
          [
            -122.84,
            49
          ],
          [
            -122.97421,
            49.002538
          ],
          [
            -124.910251,
            49.984572
          ],
          [
            -125.6246,
            50.416561
          ],
          [
            -127.435601,
            50.830593
          ],
          [
            -127.99275,
            51.715836
          ],
          [
            -127.85033,
            52.329623
          ],
          [
            -129.129787,
            52.755385
          ],
          [
            -129.305228,
            53.561589
          ],
          [
            -130.514974,
            54.287565
          ],
          [
            -130.536109,
            54.802753
          ],
          [
            -131.085817,
            55.178906
          ],
          [
            -131.967211,
            55.497776
          ],
          [
            -132.25001,
            56.369996
          ],
          [
            -133.539182,
            57.178887
          ],
          [
            -134.078064,
            58.123068
          ],
          [
            -135.038212,
            58.187715
          ],
          [
            -136.628063,
            58.212209
          ],
          [
            -137.800007,
            58.499995
          ],
          [
            -139.867788,
            59.537762
          ],
          [
            -140.825275,
            59.727517
          ],
          [
            -142.574444,
            60.084447
          ],
          [
            -143.958882,
            59.99918
          ],
          [
            -145.925558,
            60.45861
          ],
          [
            -147.114374,
            60.884656
          ],
          [
            -148.224306,
            60.672989
          ],
          [
            -148.018066,
            59.978329
          ],
          [
            -148.570823,
            59.914173
          ],
          [
            -149.727858,
            59.705658
          ],
          [
            -150.608243,
            59.368211
          ],
          [
            -151.716393,
            59.155821
          ],
          [
            -151.859433,
            59.744984
          ],
          [
            -151.409719,
            60.725803
          ],
          [
            -150.346941,
            61.033588
          ],
          [
            -150.621111,
            61.284451
          ],
          [
            -151.895839,
            60.727198
          ],
          [
            -152.57833,
            60.061657
          ],
          [
            -154.019172,
            59.350279
          ],
          [
            -153.287511,
            58.864728
          ],
          [
            -154.232492,
            58.146374
          ],
          [
            -155.307491,
            57.727795
          ],
          [
            -156.308335,
            57.422774
          ],
          [
            -156.556097,
            56.979985
          ],
          [
            -158.117217,
            56.463608
          ],
          [
            -158.433321,
            55.994154
          ],
          [
            -159.603327,
            55.566686
          ],
          [
            -160.28972,
            55.643581
          ],
          [
            -161.223048,
            55.364735
          ],
          [
            -162.237766,
            55.024187
          ],
          [
            -163.069447,
            54.689737
          ],
          [
            -164.785569,
            54.404173
          ],
          [
            -164.942226,
            54.572225
          ],
          [
            -163.84834,
            55.039431
          ],
          [
            -162.870001,
            55.348043
          ],
          [
            -161.804175,
            55.894986
          ],
          [
            -160.563605,
            56.008055
          ],
          [
            -160.07056,
            56.418055
          ],
          [
            -158.684443,
            57.016675
          ],
          [
            -158.461097,
            57.216947
          ],
          [
            -157.72277,
            57.570001
          ],
          [
            -157.550274,
            58.328326
          ],
          [
            -157.041675,
            58.918885
          ],
          [
            -158.194731,
            58.615802
          ],
          [
            -158.517218,
            58.787781
          ],
          [
            -159.058606,
            58.424186
          ],
          [
            -159.711667,
            58.93139
          ],
          [
            -159.981289,
            58.572549
          ],
          [
            -160.355271,
            59.071123
          ],
          [
            -161.355003,
            58.670838
          ],
          [
            -161.968894,
            58.671665
          ],
          [
            -162.054987,
            59.266951
          ],
          [
            -161.874171,
            59.633621
          ],
          [
            -162.518059,
            59.989724
          ],
          [
            -163.818341,
            59.798056
          ],
          [
            -164.662218,
            60.267484
          ],
          [
            -165.346388,
            60.507496
          ],
          [
            -165.350832,
            61.073895
          ],
          [
            -166.121379,
            61.500019
          ],
          [
            -165.734452,
            62.074997
          ],
          [
            -164.919179,
            62.633076
          ],
          [
            -164.562508,
            63.146378
          ],
          [
            -163.753332,
            63.219449
          ],
          [
            -163.067224,
            63.059459
          ],
          [
            -162.260555,
            63.541962
          ],
          [
            -161.53445,
            63.455817
          ],
          [
            -160.772507,
            63.766108
          ],
          [
            -160.958335,
            64.222799
          ],
          [
            -161.518068,
            64.402788
          ],
          [
            -160.777778,
            64.788604
          ],
          [
            -161.391926,
            64.777235
          ],
          [
            -162.45305,
            64.559445
          ],
          [
            -162.757786,
            64.338605
          ],
          [
            -163.546394,
            64.55916
          ],
          [
            -164.96083,
            64.446945
          ],
          [
            -166.425288,
            64.686672
          ],
          [
            -166.845004,
            65.088896
          ],
          [
            -168.11056,
            65.669997
          ],
          [
            -166.705271,
            66.088318
          ],
          [
            -164.47471,
            66.57666
          ],
          [
            -163.652512,
            66.57666
          ],
          [
            -163.788602,
            66.077207
          ],
          [
            -161.677774,
            66.11612
          ],
          [
            -162.489715,
            66.735565
          ],
          [
            -163.719717,
            67.116395
          ],
          [
            -164.430991,
            67.616338
          ],
          [
            -165.390287,
            68.042772
          ],
          [
            -166.764441,
            68.358877
          ],
          [
            -166.204707,
            68.883031
          ],
          [
            -164.430811,
            68.915535
          ],
          [
            -163.168614,
            69.371115
          ],
          [
            -162.930566,
            69.858062
          ],
          [
            -161.908897,
            70.33333
          ],
          [
            -160.934797,
            70.44769
          ],
          [
            -159.039176,
            70.891642
          ],
          [
            -158.119723,
            70.824721
          ],
          [
            -156.580825,
            71.357764
          ],
          [
            -155.06779,
            71.147776
          ],
          [
            -154.344165,
            70.696409
          ],
          [
            -153.900006,
            70.889989
          ],
          [
            -152.210006,
            70.829992
          ],
          [
            -152.270002,
            70.600006
          ],
          [
            -150.739992,
            70.430017
          ],
          [
            -149.720003,
            70.53001
          ],
          [
            -147.613362,
            70.214035
          ],
          [
            -145.689991,
            70.12001
          ],
          [
            -144.920012,
            69.989992
          ],
          [
            -143.589447,
            70.152514
          ],
          [
            -142.072511,
            69.851964
          ],
          [
            -140.985988,
            69.711998
          ],
          [
            -139.120521,
            69.471005
          ],
          [
            -137.546353,
            68.990001
          ],
          [
            -136.503575,
            68.898017
          ],
          [
            -135.625747,
            69.315123
          ],
          [
            -134.414632,
            69.62743
          ],
          [
            -132.929245,
            69.505344
          ],
          [
            -131.431352,
            69.944517
          ],
          [
            -129.794708,
            70.1937
          ],
          [
            -129.107721,
            69.779255
          ],
          [
            -128.361565,
            70.012859
          ],
          [
            -128.138168,
            70.483838
          ],
          [
            -127.447125,
            70.377203
          ],
          [
            -125.756324,
            69.480565
          ],
          [
            -124.424829,
            70.158405
          ],
          [
            -124.289669,
            69.399692
          ],
          [
            -123.061088,
            69.563713
          ],
          [
            -122.683488,
            69.85553
          ],
          [
            -121.47227,
            69.797781
          ],
          [
            -119.94288,
            69.377859
          ],
          [
            -117.602687,
            69.011292
          ],
          [
            -116.22644,
            68.841483
          ],
          [
            -115.246888,
            68.905924
          ],
          [
            -113.897952,
            68.3989
          ],
          [
            -115.304894,
            67.902626
          ],
          [
            -113.497279,
            67.688168
          ],
          [
            -110.798012,
            67.806094
          ],
          [
            -109.946178,
            67.981045
          ],
          [
            -108.880196,
            67.381443
          ],
          [
            -107.792381,
            67.887329
          ],
          [
            -108.812991,
            68.311645
          ],
          [
            -108.167216,
            68.653949
          ],
          [
            -106.950004,
            68.699993
          ],
          [
            -106.150001,
            68.799987
          ],
          [
            -105.342815,
            68.561216
          ],
          [
            -104.337915,
            68.018019
          ],
          [
            -103.221162,
            68.097756
          ],
          [
            -101.454344,
            67.646879
          ],
          [
            -99.901959,
            67.805629
          ],
          [
            -98.44321,
            67.781651
          ],
          [
            -98.558604,
            68.403939
          ],
          [
            -97.669485,
            68.578657
          ],
          [
            -96.119916,
            68.239401
          ],
          [
            -96.125884,
            67.293386
          ],
          [
            -95.489437,
            68.090702
          ],
          [
            -94.68499,
            68.06383
          ],
          [
            -94.232821,
            69.069014
          ],
          [
            -95.304074,
            69.685721
          ],
          [
            -96.471315,
            70.089779
          ],
          [
            -96.391139,
            71.194828
          ],
          [
            -95.208808,
            71.92052
          ],
          [
            -93.889974,
            71.760168
          ],
          [
            -92.878175,
            71.318696
          ],
          [
            -91.519654,
            70.191271
          ],
          [
            -92.406912,
            69.699984
          ],
          [
            -90.547103,
            69.49767
          ],
          [
            -90.551496,
            68.474994
          ],
          [
            -89.215143,
            69.258719
          ],
          [
            -88.019661,
            68.615089
          ],
          [
            -88.317498,
            67.873377
          ],
          [
            -87.350167,
            67.198741
          ],
          [
            -86.30607,
            67.921462
          ],
          [
            -85.576631,
            68.784561
          ],
          [
            -85.521984,
            69.882091
          ],
          [
            -84.100804,
            69.805404
          ],
          [
            -82.622574,
            69.658255
          ],
          [
            -81.280434,
            69.162032
          ],
          [
            -81.220205,
            68.66568
          ],
          [
            -81.964371,
            68.132534
          ],
          [
            -81.259272,
            67.597166
          ],
          [
            -81.386525,
            67.110788
          ],
          [
            -83.344571,
            66.411554
          ],
          [
            -84.735417,
            66.2573
          ],
          [
            -85.769436,
            66.558315
          ],
          [
            -86.067609,
            66.056253
          ],
          [
            -87.031426,
            65.212971
          ],
          [
            -87.323243,
            64.775633
          ],
          [
            -88.482966,
            64.098982
          ],
          [
            -89.914429,
            64.032733
          ],
          [
            -90.703993,
            63.610174
          ],
          [
            -90.770035,
            62.960214
          ],
          [
            -91.933427,
            62.83508
          ],
          [
            -93.15697,
            62.02469
          ],
          [
            -94.241529,
            60.89866
          ],
          [
            -94.629309,
            60.110207
          ],
          [
            -94.684603,
            58.948805
          ],
          [
            -93.215028,
            58.782123
          ],
          [
            -92.764616,
            57.84572
          ],
          [
            -92.297022,
            57.087084
          ],
          [
            -90.897676,
            57.284669
          ],
          [
            -89.039521,
            56.851724
          ],
          [
            -88.039789,
            56.471618
          ],
          [
            -87.324199,
            55.999114
          ],
          [
            -86.071201,
            55.723834
          ],
          [
            -85.011808,
            55.30262
          ],
          [
            -83.360539,
            55.244897
          ],
          [
            -82.272854,
            55.148314
          ],
          [
            -82.436203,
            54.282268
          ],
          [
            -82.125033,
            53.277033
          ],
          [
            -81.400736,
            52.15785
          ],
          [
            -79.912894,
            51.208399
          ],
          [
            -79.143019,
            51.533935
          ],
          [
            -78.601915,
            52.562063
          ],
          [
            -79.124209,
            54.14145
          ],
          [
            -79.829566,
            54.667723
          ],
          [
            -78.228734,
            55.136454
          ],
          [
            -77.095599,
            55.837419
          ],
          [
            -76.541369,
            56.534224
          ],
          [
            -76.623199,
            57.202633
          ],
          [
            -77.302253,
            58.05209
          ],
          [
            -78.516881,
            58.804576
          ],
          [
            -77.336747,
            59.852626
          ],
          [
            -77.772715,
            60.757894
          ],
          [
            -78.106881,
            62.319659
          ],
          [
            -77.41067,
            62.550549
          ],
          [
            -75.696201,
            62.278395
          ],
          [
            -74.668202,
            62.181114
          ],
          [
            -73.83988,
            62.443786
          ],
          [
            -72.908542,
            62.105073
          ],
          [
            -71.677092,
            61.525366
          ],
          [
            -71.3737,
            61.137199
          ],
          [
            -69.590424,
            61.061415
          ],
          [
            -69.620319,
            60.221234
          ],
          [
            -69.287884,
            58.957358
          ],
          [
            -68.374555,
            58.801062
          ],
          [
            -67.649767,
            58.212054
          ],
          [
            -66.201768,
            58.767318
          ],
          [
            -65.245185,
            59.870713
          ],
          [
            -64.58352,
            60.335594
          ],
          [
            -63.804756,
            59.442574
          ],
          [
            -62.502355,
            58.167096
          ],
          [
            -61.396557,
            56.967427
          ],
          [
            -61.798651,
            56.339455
          ],
          [
            -60.468526,
            55.775485
          ],
          [
            -59.569614,
            55.204073
          ],
          [
            -57.975086,
            54.945484
          ],
          [
            -57.333213,
            54.626485
          ],
          [
            -56.936881,
            53.780335
          ],
          [
            -56.158117,
            53.647475
          ],
          [
            -55.756307,
            53.270366
          ],
          [
            -55.683391,
            52.146636
          ],
          [
            -56.409161,
            51.77069
          ],
          [
            -57.126921,
            51.419704
          ],
          [
            -58.774831,
            51.064299
          ],
          [
            -60.0331,
            50.242773
          ],
          [
            -61.723669,
            50.080458
          ],
          [
            -63.862505,
            50.290987
          ],
          [
            -65.363317,
            50.29817
          ],
          [
            -66.399042,
            50.228976
          ],
          [
            -67.236304,
            49.511552
          ],
          [
            -68.511136,
            49.068375
          ],
          [
            -69.953632,
            47.74489
          ],
          [
            -71.104569,
            46.821716
          ],
          [
            -70.255215,
            46.986073
          ],
          [
            -68.64999,
            48.299998
          ],
          [
            -66.552444,
            49.133074
          ],
          [
            -65.056256,
            49.232783
          ],
          [
            -64.170987,
            48.742503
          ],
          [
            -65.115451,
            48.070865
          ],
          [
            -64.798546,
            46.992972
          ],
          [
            -64.472183,
            46.238496
          ],
          [
            -63.173296,
            45.739017
          ],
          [
            -61.52071,
            45.883763
          ],
          [
            -60.518135,
            47.007932
          ],
          [
            -60.448604,
            46.282653
          ],
          [
            -59.802882,
            45.920402
          ],
          [
            -61.039886,
            45.265248
          ],
          [
            -63.254712,
            44.670142
          ],
          [
            -64.246564,
            44.265515
          ],
          [
            -65.364067,
            43.545249
          ],
          [
            -66.1234,
            43.618682
          ],
          [
            -66.161718,
            44.465116
          ],
          [
            -64.425494,
            45.292042
          ],
          [
            -66.026042,
            45.259305
          ],
          [
            -67.137421,
            45.137504
          ],
          [
            -66.96466,
            44.8097
          ],
          [
            -68.03252,
            44.3252
          ],
          [
            -69.06,
            43.98
          ],
          [
            -70.11617,
            43.68405
          ],
          [
            -70.645476,
            43.090238
          ],
          [
            -70.814897,
            42.865291
          ],
          [
            -70.825,
            42.334987
          ],
          [
            -70.494994,
            41.804994
          ],
          [
            -70.080006,
            41.780008
          ],
          [
            -70.184987,
            42.144999
          ],
          [
            -69.884979,
            41.922816
          ],
          [
            -69.965026,
            41.637175
          ],
          [
            -70.639998,
            41.474988
          ],
          [
            -71.120382,
            41.494444
          ],
          [
            -71.853826,
            41.319985
          ],
          [
            -72.294987,
            41.269988
          ],
          [
            -72.876425,
            41.220637
          ],
          [
            -73.71,
            40.931102
          ],
          [
            -72.241244,
            41.11948
          ],
          [
            -71.945009,
            40.930008
          ],
          [
            -73.345001,
            40.630001
          ],
          [
            -73.98199,
            40.628011
          ],
          [
            -73.952325,
            40.75075
          ],
          [
            -74.256702,
            40.473499
          ],
          [
            -73.96244,
            40.42763
          ],
          [
            -74.178387,
            39.709256
          ],
          [
            -74.906042,
            38.939536
          ],
          [
            -74.980405,
            39.196393
          ],
          [
            -75.20003,
            39.248457
          ],
          [
            -75.528046,
            39.498494
          ],
          [
            -75.319997,
            38.959999
          ],
          [
            -75.071835,
            38.782032
          ],
          [
            -75.05673,
            38.40412
          ],
          [
            -75.377461,
            38.015509
          ],
          [
            -75.940243,
            37.216902
          ],
          [
            -76.031271,
            37.256589
          ],
          [
            -75.72205,
            37.93705
          ],
          [
            -76.23287,
            38.319215
          ],
          [
            -76.35,
            39.15
          ],
          [
            -76.542725,
            38.717615
          ],
          [
            -76.32933,
            38.08326
          ],
          [
            -76.989998,
            38.239992
          ],
          [
            -76.30162,
            37.917945
          ],
          [
            -76.25874,
            36.9664
          ],
          [
            -75.9718,
            36.89726
          ],
          [
            -75.868051,
            36.551258
          ],
          [
            -75.727491,
            35.55075
          ],
          [
            -76.363189,
            34.808547
          ],
          [
            -77.397635,
            34.51201
          ],
          [
            -78.05496,
            33.92547
          ],
          [
            -78.554347,
            33.861344
          ],
          [
            -79.06067,
            33.49395
          ],
          [
            -79.20357,
            33.15839
          ],
          [
            -80.301325,
            32.509355
          ],
          [
            -80.86498,
            32.0333
          ],
          [
            -81.33629,
            31.44049
          ],
          [
            -81.490421,
            30.729985
          ],
          [
            -81.31371,
            30.03552
          ],
          [
            -80.979987,
            29.180002
          ],
          [
            -80.535585,
            28.47213
          ],
          [
            -80.529989,
            28.039994
          ],
          [
            -80.056539,
            26.88
          ],
          [
            -80.088015,
            26.205765
          ],
          [
            -80.13156,
            25.816775
          ],
          [
            -80.38103,
            25.20616
          ],
          [
            -80.680005,
            25.079994
          ],
          [
            -81.17212,
            25.201253
          ],
          [
            -81.329991,
            25.639986
          ],
          [
            -81.709994,
            25.869997
          ],
          [
            -82.240013,
            26.729997
          ],
          [
            -82.70515,
            27.49504
          ],
          [
            -82.85526,
            27.88624
          ],
          [
            -82.650014,
            28.549989
          ],
          [
            -82.93,
            29.1
          ],
          [
            -83.70959,
            29.93656
          ],
          [
            -84.1,
            30.09
          ],
          [
            -85.10882,
            29.63615
          ],
          [
            -85.28784,
            29.68612
          ],
          [
            -85.7731,
            30.15261
          ],
          [
            -86.399992,
            30.400005
          ],
          [
            -87.530362,
            30.274328
          ],
          [
            -88.417828,
            30.384916
          ],
          [
            -89.18049,
            30.31598
          ],
          [
            -89.593831,
            30.159994
          ],
          [
            -89.413735,
            29.89419
          ],
          [
            -89.43,
            29.48864
          ],
          [
            -89.21767,
            29.29108
          ],
          [
            -89.40823,
            29.15961
          ],
          [
            -89.77928,
            29.30714
          ],
          [
            -90.15463,
            29.11743
          ],
          [
            -90.880225,
            29.148535
          ],
          [
            -91.626785,
            29.677
          ],
          [
            -92.49906,
            29.5523
          ],
          [
            -93.22637,
            29.78375
          ],
          [
            -93.84842,
            29.71363
          ],
          [
            -94.690003,
            29.48001
          ],
          [
            -95.600257,
            28.738634
          ],
          [
            -96.594047,
            28.307471
          ],
          [
            -97.140008,
            27.830007
          ],
          [
            -97.369994,
            27.380009
          ],
          [
            -97.379994,
            26.689999
          ],
          [
            -97.329997,
            26.210003
          ],
          [
            -97.140008,
            25.869997
          ],
          [
            -97.528072,
            24.992144
          ],
          [
            -97.702946,
            24.272343
          ],
          [
            -97.776042,
            22.93258
          ],
          [
            -97.872367,
            22.444212
          ],
          [
            -97.699044,
            21.898689
          ],
          [
            -97.38896,
            21.411019
          ],
          [
            -97.189333,
            20.635433
          ],
          [
            -96.525576,
            19.890931
          ],
          [
            -96.292127,
            19.320397
          ],
          [
            -95.900885,
            18.828024
          ],
          [
            -94.839063,
            18.562717
          ],
          [
            -94.42573,
            18.144371
          ],
          [
            -93.548651,
            18.423837
          ],
          [
            -92.786114,
            18.524839
          ],
          [
            -92.037348,
            18.704595
          ],
          [
            -91.407903,
            18.876083
          ],
          [
            -90.77187,
            19.28412
          ],
          [
            -90.53359,
            19.867418
          ],
          [
            -90.451476,
            20.707522
          ],
          [
            -90.278618,
            20.999855
          ],
          [
            -89.601321,
            21.261726
          ],
          [
            -88.543866,
            21.493675
          ],
          [
            -87.658417,
            21.458846
          ],
          [
            -87.05189,
            21.543543
          ],
          [
            -86.811982,
            21.331515
          ],
          [
            -86.845908,
            20.849865
          ],
          [
            -87.383291,
            20.255405
          ],
          [
            -87.621054,
            19.646553
          ],
          [
            -87.43675,
            19.472403
          ],
          [
            -87.58656,
            19.04013
          ],
          [
            -87.837191,
            18.259816
          ],
          [
            -88.090664,
            18.516648
          ],
          [
            -88.300031,
            18.499982
          ],
          [
            -88.296336,
            18.353273
          ],
          [
            -88.106813,
            18.348674
          ],
          [
            -88.123479,
            18.076675
          ],
          [
            -88.285355,
            17.644143
          ],
          [
            -88.197867,
            17.489475
          ],
          [
            -88.302641,
            17.131694
          ],
          [
            -88.239518,
            17.036066
          ],
          [
            -88.355428,
            16.530774
          ],
          [
            -88.551825,
            16.265467
          ],
          [
            -88.732434,
            16.233661
          ],
          [
            -88.930613,
            15.887273
          ],
          [
            -88.604586,
            15.70638
          ],
          [
            -88.518364,
            15.855389
          ],
          [
            -88.189986,
            15.719997
          ],
          [
            -88.121153,
            15.688655
          ],
          [
            -87.901813,
            15.864458
          ],
          [
            -87.61568,
            15.878799
          ],
          [
            -87.522921,
            15.797279
          ],
          [
            -87.367762,
            15.84694
          ],
          [
            -86.903191,
            15.756713
          ],
          [
            -86.440946,
            15.782835
          ],
          [
            -86.119234,
            15.893449
          ],
          [
            -86.001954,
            16.005406
          ],
          [
            -85.683317,
            15.953652
          ],
          [
            -85.444004,
            15.885749
          ],
          [
            -85.182444,
            15.909158
          ],
          [
            -84.983722,
            15.995923
          ],
          [
            -84.52698,
            15.857224
          ],
          [
            -84.368256,
            15.835158
          ],
          [
            -84.063055,
            15.648244
          ],
          [
            -83.773977,
            15.424072
          ],
          [
            -83.410381,
            15.270903
          ],
          [
            -83.147219,
            14.995829
          ],
          [
            -83.233234,
            14.899866
          ],
          [
            -83.284162,
            14.676624
          ],
          [
            -83.182126,
            14.310703
          ],
          [
            -83.4125,
            13.970078
          ],
          [
            -83.519832,
            13.567699
          ],
          [
            -83.552207,
            13.127054
          ],
          [
            -83.498515,
            12.869292
          ],
          [
            -83.473323,
            12.419087
          ],
          [
            -83.626104,
            12.32085
          ],
          [
            -83.719613,
            11.893124
          ],
          [
            -83.650858,
            11.629032
          ],
          [
            -83.85547,
            11.373311
          ],
          [
            -83.808936,
            11.103044
          ],
          [
            -83.655612,
            10.938764
          ],
          [
            -83.590009,
            10.785001
          ],
          [
            -83.40232,
            10.395438
          ],
          [
            -83.015677,
            9.992982
          ],
          [
            -82.546196,
            9.566161
          ]
        ]
      }
    },
    {
      "type": "Feature",
      "properties": {
        "scalerank": 0,
        "featurecla": "Coastline",
        "min_zoom": 0
      },
      "bbox": [
        -82.546196,
        8.670505,
        -77.353361,
        9.61161
      ],
      "geometry": {
        "type": "LineString",
        "coordinates": [
          [
            -82.546196,
            9.566161
          ],
          [
            -82.187123,
            9.207449
          ],
          [
            -82.207586,
            8.995575
          ],
          [
            -81.808567,
            8.950617
          ],
          [
            -81.714154,
            9.031955
          ],
          [
            -81.439287,
            8.786234
          ],
          [
            -80.947302,
            8.858504
          ],
          [
            -80.521901,
            9.111072
          ],
          [
            -79.9146,
            9.312765
          ],
          [
            -79.573303,
            9.61161
          ],
          [
            -79.021192,
            9.552931
          ],
          [
            -79.05845,
            9.454565
          ],
          [
            -78.500888,
            9.420459
          ],
          [
            -78.055928,
            9.24773
          ],
          [
            -77.729514,
            8.946844
          ],
          [
            -77.353361,
            8.670505
          ]
        ]
      }
    },
    {
      "type": "Feature",
      "properties": {
        "scalerank": 0,
        "featurecla": "Coastline",
        "min_zoom": 0
      },
      "bbox": [
        -74.458034,
        17.598564,
        -68.317943,
        19.915684
      ],
      "geometry": {
        "type": "LineString",
        "coordinates": [
          [
            -71.712361,
            19.714456
          ],
          [
            -71.587304,
            19.884911
          ],
          [
            -71.380004,
            19.904987
          ],
          [
            -70.806706,
            19.880286
          ],
          [
            -70.214365,
            19.622885
          ],
          [
            -69.950815,
            19.648
          ],
          [
            -69.76925,
            19.293267
          ],
          [
            -69.222126,
            19.313214
          ],
          [
            -69.254346,
            19.015196
          ],
          [
            -68.809412,
            18.9791
          ],
          [
            -68.317943,
            18.612198
          ],
          [
            -68.689316,
            18.205142
          ],
          [
            -69.164946,
            18.422648
          ],
          [
            -69.623988,
            18.380713
          ],
          [
            -69.952934,
            18.428307
          ],
          [
            -70.133233,
            18.245915
          ],
          [
            -70.517137,
            18.184291
          ],
          [
            -70.669298,
            18.426886
          ],
          [
            -70.99995,
            18.283329
          ],
          [
            -71.40021,
            17.598564
          ],
          [
            -71.657662,
            17.757573
          ],
          [
            -71.708305,
            18.044997
          ],
          [
            -72.372476,
            18.214961
          ],
          [
            -72.844411,
            18.145611
          ],
          [
            -73.454555,
            18.217906
          ],
          [
            -73.922433,
            18.030993
          ],
          [
            -74.458034,
            18.34255
          ],
          [
            -74.369925,
            18.664908
          ],
          [
            -73.449542,
            18.526053
          ],
          [
            -72.694937,
            18.445799
          ],
          [
            -72.334882,
            18.668422
          ],
          [
            -72.79165,
            19.101625
          ],
          [
            -72.784105,
            19.483591
          ],
          [
            -73.415022,
            19.639551
          ],
          [
            -73.189791,
            19.915684
          ],
          [
            -72.579673,
            19.871501
          ],
          [
            -71.712361,
            19.714456
          ]
        ]
      }
    },
    {
      "type": "Feature",
      "properties": {
        "scalerank": 0,
        "featurecla": "Coastline",
        "min_zoom": 1
      },
      "bbox": [
        -61.95,
        10,
        -60.895,
        10.89
      ],
      "geometry": {
        "type": "LineString",
        "coordinates": [
          [
            -61.68,
            10.76
          ],
          [
            -61.105,
            10.89
          ],
          [
            -60.895,
            10.855
          ],
          [
            -60.935,
            10.11
          ],
          [
            -61.77,
            10
          ],
          [
            -61.95,
            10.09
          ],
          [
            -61.66,
            10.365
          ],
          [
            -61.68,
            10.76
          ]
        ]
      }
    }
  ]
}
