{
  "type": "FeatureCollection",
  "features": [
    {
      "type": "Feature",
      "id": "BRA",
      "properties": {
        "name": "Brazil",
        "code": "BRA",
        "source": "Natural Earth 1:110m"
      },
      "geometry": {
        "type": "Polygon",
        "coordinates": [
          [
            [
              -53.373662,
              -33.768378
            ],
            [
              -53.650544,
              -33.202004
            ],
            [
              -53.209589,
              -32.727666
            ],
            [
              -53.787952,
              -32.047243
            ],
            [
              -54.572452,
              -31.494511
            ],
            [
              -55.60151,
              -30.853879
            ],
            [
              -55.973245,
              -30.883076
            ],
            [
              -56.976026,
              -30.109686
            ],
            [
              -57.625133,
              -30.216295
            ],
            [
              -56.2909,
              -28.852761
            ],
            [
              -55.162286,
              -27.881915
            ],
            [
              -54.490725,
              -27.474757
            ],
            [
              -53.648735,
              -26.923473
            ],
            [
              -53.628349,
              -26.124865
            ],
            [
              -54.13005,
              -25.547639
            ],
            [
              -54.625291,
              -25.739255
            ],
            [
              -54.428946,
              -25.162185
            ],
            [
              -54.293476,
              -24.5708
            ],
            [
              -54.29296,
              -24.021014
            ],
            [
              -54.652834,
              -23.839578
            ],
            [
              -55.027902,
              -24.001274
            ],
            [
              -55.400747,
              -23.956935
            ],
            [
              -55.517639,
              -23.571998
            ],
            [
              -55.610683,
              -22.655619
            ],
            [
              -55.797958,
              -22.35693
            ],
            [
              -56.473317,
              -22.0863
            ],
            [
              -56.88151,
              -22.282154
            ],
            [
              -57.937156,
              -22.090176
            ],
            [
              -57.870674,
              -20.732688
            ],
            [
              -58.166392,
              -20.176701
            ],
            [
              -57.853802,
              -19.969995
            ],
            [
              -57.949997,
              -19.400004
            ],
            [
              -57.676009,
              -18.96184
            ],
            [
              -57.498371,
              -18.174188
            ],
            [
              -57.734558,
              -17.552468
            ],
            [
              -58.280804,
              -17.27171
            ],
            [
              -58.388058,
              -16.877109
            ],
            [
              -58.24122,
              -16.299573
            ],
            [
              -60.15839,
              -16.258284
            ],
            [
              -60.542966,
              -15.09391
            ],
            [
              -60.251149,
              -15.077219
            ],
            [
              -60.264326,
              -14.645979
            ],
            [
              -60.459198,
              -14.354007
            ],
            [
              -60.503304,
              -13.775955
            ],
            [
              -61.084121,
              -13.479384
            ],
            [
              -61.713204,
              -13.489202
            ],
            [
              -62.127081,
              -13.198781
            ],
            [
              -62.80306,
              -13.000653
            ],
            [
              -63.196499,
              -12.627033
            ],
            [
              -64.316353,
              -12.461978
            ],
            [
              -65.402281,
              -11.56627
            ],
            [
              -65.321899,
              -10.895872
            ],
            [
              -65.444837,
              -10.511451
            ],
            [
              -65.338435,
              -9.761988
            ],
            [
              -66.646908,
              -9.931331
            ],
            [
              -67.173801,
              -10.306812
            ],
            [
              -68.048192,
              -10.712059
            ],
            [
              -68.271254,
              -11.014521
            ],
            [
              -68.786158,
              -11.03638
            ],
            [
              -69.529678,
              -10.951734
            ],
            [
              -70.093752,
              -11.123972
            ],
            [
              -70.548686,
              -11.009147
            ],
            [
              -70.481894,
              -9.490118
            ],
            [
              -71.302412,
              -10.079436
            ],
            [
              -72.184891,
              -10.053598
            ],
            [
              -72.563033,
              -9.520194
            ],
            [
              -73.226713,
              -9.462213
            ],
            [
              -73.015383,
              -9.032833
            ],
            [
              -73.571059,
              -8.424447
            ],
            [
              -73.987235,
              -7.52383
            ],
            [
              -73.723401,
              -7.340999
            ],
            [
              -73.724487,
              -6.918595
            ],
            [
              -73.120027,
              -6.629931
            ],
            [
              -73.219711,
              -6.089189
            ],
            [
              -72.964507,
              -5.741251
            ],
            [
              -72.891928,
              -5.274561
            ],
            [
              -71.748406,
              -4.593983
            ],
            [
              -70.928843,
              -4.401591
            ],
            [
              -70.794769,
              -4.251265
            ],
            [
              -69.893635,
              -4.298187
            ],
            [
              -69.444102,
              -1.556287
            ],
            [
              -69.420486,
              -1.122619
            ],
            [
              -69.577065,
              -0.549992
            ],
            [
              -70.020656,
              -0.185156
            ],
            [
              -70.015566,
              0.541414
            ],
            [
              -69.452396,
              0.706159
            ],
            [
              -69.252434,
              0.602651
            ],
            [
              -69.218638,
              0.985677
            ],
            [
              -69.804597,
              1.089081
            ],
            [
              -69.816973,
              1.714805
            ],
            [
              -67.868565,
              1.692455
            ],
            [
              -67.53781,
              2.037163
            ],
            [
              -67.259998,
              1.719999
            ],
            [
              -67.065048,
              1.130112
            ],
            [
              -66.876326,
              1.253361
            ],
            [
              -66.325765,
              0.724452
            ],
            [
              -65.548267,
              0.789254
            ],
            [
              -65.354713,
              1.095282
            ],
            [
              -64.611012,
              1.328731
            ],
            [
              -64.199306,
              1.492855
            ],
            [
              -64.083085,
              1.916369
            ],
            [
              -63.368788,
              2.2009
            ],
            [
              -63.422867,
              2.411068
            ],
            [
              -64.269999,
              2.497006
            ],
            [
              -64.408828,
              3.126786
            ],
            [
              -64.368494,
              3.79721
            ],
            [
              -64.816064,
              4.056445
            ],
            [
              -64.628659,
              4.148481
            ],
            [
              -63.888343,
              4.02053
            ],
            [
              -63.093198,
              3.770571
            ],
            [
              -62.804533,
              4.006965
            ],
            [
              -62.08543,
              4.162124
            ],
            [
              -60.966893,
              4.536468
            ],
            [
              -60.601179,
              4.918098
            ],
            [
              -60.733574,
              5.200277
            ],
            [
              -60.213683,
              5.244486
            ],
            [
              -59.980959,
              5.014061
            ],
            [
              -60.111002,
              4.574967
            ],
            [
              -59.767406,
              4.423503
            ],
            [
              -59.53804,
              3.958803
            ],
            [
              -59.815413,
              3.606499
            ],
            [
              -59.974525,
              2.755233
            ],
            [
              -59.718546,
              2.24963
            ],
            [
              -59.646044,
              1.786894
            ],
            [
              -59.030862,
              1.317698
            ],
            [
              -58.540013,
              1.268088
            ],
            [
              -58.429477,
              1.463942
            ],
            [
              -58.11345,
              1.507195
            ],
            [
              -57.660971,
              1.682585
            ],
            [
              -57.335823,
              1.948538
            ],
            [
              -56.782704,
              1.863711
            ],
            [
              -56.539386,
              1.899523
            ],
            [
              -55.995698,
              1.817667
            ],
            [
              -55.9056,
              2.021996
            ],
            [
              -56.073342,
              2.220795
            ],
            [
              -55.973322,
              2.510364
            ],
            [
              -55.569755,
              2.421506
            ],
            [
              -55.097587,
              2.523748
            ],
            [
              -54.524754,
              2.311849
            ],
            [
              -54.088063,
              2.105557
            ],
            [
              -53.778521,
              2.376703
            ],
            [
              -53.554839,
              2.334897
            ],
            [
              -53.418465,
              2.053389
            ],
            [
              -52.939657,
              2.124858
            ],
            [
              -52.556425,
              2.504705
            ],
            [
              -52.249338,
              3.241094
            ],
            [
              -51.657797,
              4.156232
            ],
            [
              -51.317146,
              4.203491
            ],
            [
              -51.069771,
              3.650398
            ],
            [
              -50.508875,
              1.901564
            ],
            [
              -49.974076,
              1.736483
            ],
            [
              -49.947101,
              1.04619
            ],
            [
              -50.699251,
              0.222984
            ],
            [
              -50.388211,
              -0.078445
            ],
            [
              -48.620567,
              -0.235489
            ],
            [
              -48.584497,
              -1.237805
            ],
            [
              -47.824956,
              -0.581618
            ],
            [
              -46.566584,
              -0.941028
            ],
            [
              -44.905703,
              -1.55174
            ],
            [
              -44.417619,
              -2.13775
            ],
            [
              -44.581589,
              -2.691308
            ],
            [
              -43.418791,
              -2.38311
            ],
            [
              -41.472657,
              -2.912018
            ],
            [
              -39.978665,
              -2.873054
            ],
            [
              -38.500383,
              -3.700652
            ],
            [
              -37.223252,
              -4.820946
            ],
            [
              -36.452937,
              -5.109404
            ],
            [
              -35.597796,
              -5.149504
            ],
            [
              -35.235389,
              -5.464937
            ],
            [
              -34.89603,
              -6.738193
            ],
            [
              -34.729993,
              -7.343221
            ],
            [
              -35.128212,
              -8.996401
            ],
            [
              -35.636967,
              -9.649282
            ],
            [
              -37.046519,
              -11.040721
            ],
            [
              -37.683612,
              -12.171195
            ],
            [
              -38.423877,
              -13.038119
            ],
            [
              -38.673887,
              -13.057652
            ],
            [
              -38.953276,
              -13.79337
            ],
            [
              -38.882298,
              -15.667054
            ],
            [
              -39.161092,
              -17.208407
            ],
            [
              -39.267339,
              -17.867746
            ],
            [
              -39.583521,
              -18.262296
            ],
            [
              -39.760823,
              -19.599113
            ],
            [
              -40.774741,
              -20.904512
            ],
            [
              -40.944756,
              -21.937317
            ],
            [
              -41.754164,
              -22.370676
            ],
            [
              -41.988284,
              -22.97007
            ],
            [
              -43.074704,
              -22.967693
            ],
            [
              -44.647812,
              -23.351959
            ],
            [
              -45.352136,
              -23.796842
            ],
            [
              -46.472093,
              -24.088969
            ],
            [
              -47.648972,
              -24.885199
            ],
            [
              -48.495458,
              -25.877025
            ],
            [
              -48.641005,
              -26.623698
            ],
            [
              -48.474736,
              -27.175912
            ],
            [
              -48.66152,
              -28.186135
            ],
            [
              -48.888457,
              -28.674115
            ],
            [
              -49.587329,
              -29.224469
            ],
            [
              -50.696874,
              -30.984465
            ],
            [
              -51.576226,
              -31.777698
            ],
            [
              -52.256081,
              -32.24537
            ],
            [
              -52.7121,
              -33.196578
            ],
            [
              -53.373662,
              -33.768378
            ]
          ]
        ]
      }
    },
    {
      "type": "Feature",
      "id": "PER",
      "properties": {
        "name": "Peru",
        "code": "PER",
        "source": "Natural Earth 1:110m"
      },
      "geometry": {
        "type": "Polygon",
        "coordinates": [
          [
            [
              -69.893635,
              -4.298187
            ],
            [
              -70.794769,
              -4.251265
            ],
            [
              -70.928843,
              -4.401591
            ],
            [
              -71.748406,
              -4.593983
            ],
            [
              -72.891928,
              -5.274561
            ],
            [
              -72.964507,
              -5.741251
            ],
            [
              -73.219711,
              -6.089189
            ],
            [
              -73.120027,
              -6.629931
            ],
            [
              -73.724487,
              -6.918595
            ],
            [
              -73.723401,
              -7.340999
            ],
            [
              -73.987235,
              -7.52383
            ],
            [
              -73.571059,
              -8.424447
            ],
            [
              -73.015383,
              -9.032833
            ],
            [
              -73.226713,
              -9.462213
            ],
            [
              -72.563033,
              -9.520194
            ],
            [
              -72.184891,
              -10.053598
            ],
            [
              -71.302412,
              -10.079436
            ],
            [
              -70.481894,
              -9.490118
            ],
            [
              -70.548686,
              -11.009147
            ],
            [
              -70.093752,
              -11.123972
            ],
            [
              -69.529678,
              -10.951734
            ],
            [
              -68.66508,
              -12.5613
            ],
            [
              -68.88008,
              -12.899729
            ],
            [
              -68.929224,
              -13.602684
            ],
            [
              -68.948887,
              -14.453639
            ],
            [
              -69.339535,
              -14.953195
            ],
            [
              -69.160347,
              -15.323974
            ],
            [
              -69.389764,
              -15.660129
            ],
            [
              -68.959635,
              -16.500698
            ],
            [
              -69.590424,
              -17.580012
            ],
            [
              -69.858444,
              -18.092694
            ],
            [
              -70.372572,
              -18.347975
            ],
            [
              -71.37525,
              -17.773799
            ],
            [
              -71.462041,
              -17.363488
            ],
            [
              -73.44453,
              -16.359363
            ],
            [
              -75.237883,
              -15.265683
            ],
            [
              -76.009205,
              -14.649286
            ],
            [
              -76.423469,
              -13.823187
            ],
            [
              -76.259242,
              -13.535039
            ],
            [
              -77.106192,
              -12.222716
            ],
            [
              -78.092153,
              -10.377712
            ],
            [
              -79.036953,
              -8.386568
            ],
            [
              -79.44592,
              -7.930833
            ],
            [
              -79.760578,
              -7.194341
            ],
            [
              -80.537482,
              -6.541668
            ],
            [
              -81.249996,
              -6.136834
            ],
            [
              -80.926347,
              -5.690557
            ],
            [
              -81.410943,
              -4.736765
            ],
            [
              -81.09967,
              -4.036394
            ],
            [
              -80.302561,
              -3.404856
            ],
            [
              -80.184015,
              -3.821162
            ],
            [
              -80.469295,
              -4.059287
            ],
            [
              -80.442242,
              -4.425724
            ],
            [
              -80.028908,
              -4.346091
            ],
            [
              -79.624979,
              -4.454198
            ],
            [
              -79.205289,
              -4.959129
            ],
            [
              -78.639897,
              -4.547784
            ],
            [
              -78.450684,
              -3.873097
            ],
            [
              -77.837905,
              -3.003021
            ],
            [
              -76.635394,
              -2.608678
            ],
            [
              -75.544996,
              -1.56161
            ],
            [
              -75.233723,
              -0.911417
            ],
            [
              -75.373223,
              -0.152032
            ],
            [
              -75.106625,
              -0.057205
            ],
            [
              -74.441601,
              -0.53082
            ],
            [
              -74.122395,
              -1.002833
            ],
            [
              -73.659504,
              -1.260491
            ],
            [
              -73.070392,
              -2.308954
            ],
            [
              -72.325787,
              -2.434218
            ],
            [
              -71.774761,
              -2.16979
            ],
            [
              -71.413646,
              -2.342802
            ],
            [
              -70.813476,
              -2.256865
            ],
            [
              -70.047709,
              -2.725156
            ],
            [
              -70.692682,
              -3.742872
            ],
            [
              -70.394044,
              -3.766591
            ],
            [
              -69.893635,
              -4.298187
            ]
          ]
        ]
      }
    },
    {
      "type": "Feature",
      "id": "COL",
      "properties": {
        "name": "Colombia",
        "code": "COL",
        "source": "Natural Earth 1:110m"
      },
      "geometry": {
        "type": "Polygon",
        "coordinates": [
          [
            [
              -66.876326,
              1.253361
            ],
            [
              -67.065048,
              1.130112
            ],
            [
              -67.259998,
              1.719999
            ],
            [
              -67.53781,
              2.037163
            ],
            [
              -67.868565,
              1.692455
            ],
            [
              -69.816973,
              1.714805
            ],
            [
              -69.804597,
              1.089081
            ],
            [
              -69.218638,
              0.985677
            ],
            [
              -69.252434,
              0.602651
            ],
            [
              -69.452396,
              0.706159
            ],
            [
              -70.015566,
              0.541414
            ],
            [
              -70.020656,
              -0.185156
            ],
            [
              -69.577065,
              -0.549992
            ],
            [
              -69.420486,
              -1.122619
            ],
            [
              -69.444102,
              -1.556287
            ],
            [
              -69.893635,
              -4.298187
            ],
            [
              -70.394044,
              -3.766591
            ],
            [
              -70.692682,
              -3.742872
            ],
            [
              -70.047709,
              -2.725156
            ],
            [
              -70.813476,
              -2.256865
            ],
            [
              -71.413646,
              -2.342802
            ],
            [
              -71.774761,
              -2.16979
            ],
            [
              -72.325787,
              -2.434218
            ],
            [
              -73.070392,
              -2.308954
            ],
            [
              -73.659504,
              -1.260491
            ],
            [
              -74.122395,
              -1.002833
            ],
            [
              -74.441601,
              -0.53082
            ],
            [
              -75.106625,
              -0.057205
            ],
            [
              -75.373223,
              -0.152032
            ],
            [
              -75.801466,
              0.084801
            ],
            [
              -76.292314,
              0.416047
            ],
            [
              -76.57638,
              0.256936
            ],
            [
              -77.424984,
              0.395687
            ],
            [
              -77.668613,
              0.825893
            ],
            [
              -77.855061,
              0.809925
            ],
            [
              -78.855259,
              1.380924
            ],
            [
              -78.990935,
              1.69137
            ],
            [
              -78.617831,
              1.766404
            ],
            [
              -78.662118,
              2.267355
            ],
            [
              -78.42761,
              2.629556
            ],
            [
              -77.931543,
              2.696606
            ],
            [
              -77.510431,
              3.325017
            ],
            [
              -77.12769,
              3.849636
            ],
            [
              -77.496272,
              4.087606
            ],
            [
              -77.307601,
              4.667984
            ],
            [
              -77.533221,
              5.582812
            ],
            [
              -77.318815,
              5.845354
            ],
            [
              -77.476661,
              6.691116
            ],
            [
              -77.881571,
              7.223771
            ],
            [
              -77.753414,
              7.70984
            ],
            [
              -77.431108,
              7.638061
            ],
            [
              -77.242566,
              7.935278
            ],
            [
              -77.474723,
              8.524286
            ],
            [
              -77.353361,
              8.670505
            ],
            [
              -76.836674,
              8.638749
            ],
            [
              -76.086384,
              9.336821
            ],
            [
              -75.6746,
              9.443248
            ],
            [
              -75.664704,
              9.774003
            ],
            [
              -75.480426,
              10.61899
            ],
            [
              -74.906895,
              11.083045
            ],
            [
              -74.276753,
              11.102036
            ],
            [
              -74.197223,
              11.310473
            ],
            [
              -73.414764,
              11.227015
            ],
            [
              -72.627835,
              11.731972
            ],
            [
              -72.238195,
              11.95555
            ],
            [
              -71.75409,
              12.437303
            ],
            [
              -71.399822,
              12.376041
            ],
            [
              -71.137461,
              12.112982
            ],
            [
              -71.331584,
              11.776284
            ],
            [
              -71.973922,
              11.608672
            ],
            [
              -72.227575,
              11.108702
            ],
            [
              -72.614658,
              10.821975
            ],
            [
              -72.905286,
              10.450344
            ],
            [
              -73.027604,
              9.73677
            ],
            [
              -73.304952,
              9.152
            ],
            [
              -72.78873,
              9.085027
            ],
            [
              -72.660495,
              8.625288
            ],
            [
              -72.439862,
              8.405275
            ],
            [
              -72.360901,
              8.002638
            ],
            [
              -72.479679,
              7.632506
            ],
            [
              -72.444487,
              7.423785
            ],
            [
              -72.198352,
              7.340431
            ],
            [
              -71.960176,
              6.991615
            ],
            [
              -70.674234,
              7.087785
            ],
            [
              -70.093313,
              6.960376
            ],
            [
              -69.38948,
              6.099861
            ],
            [
              -68.985319,
              6.206805
            ],
            [
              -68.265052,
              6.153268
            ],
            [
              -67.695087,
              6.267318
            ],
            [
              -67.34144,
              6.095468
            ],
            [
              -67.521532,
              5.55687
            ],
            [
              -67.744697,
              5.221129
            ],
            [
              -67.823012,
              4.503937
            ],
            [
              -67.621836,
              3.839482
            ],
            [
              -67.337564,
              3.542342
            ],
            [
              -67.303173,
              3.318454
            ],
            [
              -67.809938,
              2.820655
            ],
            [
              -67.447092,
              2.600281
            ],
            [
              -67.181294,
              2.250638
            ],
            [
              -66.876326,
              1.253361
            ]
          ]
        ]
      }
    },
    {
      "type": "Feature",
      "id": "PAN",
      "properties": {
        "name": "Panama",
        "code": "PAN",
        "source": "Natural Earth 1:110m"
      },
      "geometry": {
        "type": "Polygon",
        "coordinates": [
          [
            [
              -77.353361,
              8.670505
            ],
            [
              -77.474723,
              8.524286
            ],
            [
              -77.242566,
              7.935278
            ],
            [
              -77.431108,
              7.638061
            ],
            [
              -77.753414,
              7.70984
            ],
            [
              -77.881571,
              7.223771
            ],
            [
              -78.214936,
              7.512255
            ],
            [
              -78.429161,
              8.052041
            ],
            [
              -78.182096,
              8.319182
            ],
            [
              -78.435465,
              8.387705
            ],
            [
              -78.622121,
              8.718124
            ],
            [
              -79.120307,
              8.996092
            ],
            [
              -79.557877,
              8.932375
            ],
            [
              -79.760578,
              8.584515
            ],
            [
              -80.164481,
              8.333316
            ],
            [
              -80.382659,
              8.298409
            ],
            [
              -80.480689,
              8.090308
            ],
            [
              -80.00369,
              7.547524
            ],
            [
              -80.276671,
              7.419754
            ],
            [
              -80.421158,
              7.271572
            ],
            [
              -80.886401,
              7.220541
            ],
            [
              -81.059543,
              7.817921
            ],
            [
              -81.189716,
              7.647906
            ],
            [
              -81.519515,
              7.70661
            ],
            [
              -81.721311,
              8.108963
            ],
            [
              -82.131441,
              8.175393
            ],
            [
              -82.390934,
              8.292362
            ],
            [
              -82.820081,
              8.290864
            ],
            [
              -82.850958,
              8.073823
            ],
            [
              -82.965783,
              8.225028
            ],
            [
              -82.913176,
              8.423517
            ],
            [
              -82.829771,
              8.626295
            ],
            [
              -82.868657,
              8.807266
            ],
            [
              -82.719183,
              8.925709
            ],
            [
              -82.927155,
              9.07433
            ],
            [
              -82.932891,
              9.476812
            ],
            [
              -82.546196,
              9.566135
            ],
            [
              -82.187123,
              9.207449
            ],
            [
              -82.207586,
              8.995575
            ],
            [
              -81.808567,
              8.950617
            ],
            [
              -81.714154,
              9.031955
            ],
            [
              -81.439287,
              8.786234
            ],
            [
              -80.947302,
              8.858504
            ],
            [
              -80.521901,
              9.111072
            ],
            [
              -79.9146,
              9.312765
            ],
            [
              -79.573303,
              9.61161
            ],
            [
              -79.021192,
              9.552931
            ],
            [
              -79.05845,
              9.454565
            ],
            [
              -78.500888,
              9.420459
            ],
            [
              -78.055928,
              9.24773
            ],
            [
              -77.729514,
              8.946844
            ],
            [
              -77.353361,
              8.670505
            ]
          ]
        ]
      }
    },
    {
      "type": "Feature",
      "id": "CRI",
      "properties": {
        "name": "Costa Rica",
        "code": "CRI",
        "source": "Natural Earth 1:110m"
      },
      "geometry": {
        "type": "Polygon",
        "coordinates": [
          [
            [
              -82.546196,
              9.566135
            ],
            [
              -82.932891,
              9.476812
            ],
            [
              -82.927155,
              9.07433
            ],
            [
              -82.719183,
              8.925709
            ],
            [
              -82.868657,
              8.807266
            ],
            [
              -82.829771,
              8.626295
            ],
            [
              -82.913176,
              8.423517
            ],
            [
              -82.965783,
              8.225028
            ],
            [
              -83.508437,
              8.446927
            ],
            [
              -83.711474,
              8.656836
            ],
            [
              -83.596313,
              8.830443
            ],
            [
              -83.632642,
              9.051386
            ],
            [
              -83.909886,
              9.290803
            ],
            [
              -84.303402,
              9.487354
            ],
            [
              -84.647644,
              9.615537
            ],
            [
              -84.713351,
              9.908052
            ],
            [
              -84.97566,
              10.086723
            ],
            [
              -84.911375,
              9.795992
            ],
            [
              -85.110923,
              9.55704
            ],
            [
              -85.339488,
              9.834542
            ],
            [
              -85.660787,
              9.933347
            ],
            [
              -85.797445,
              10.134886
            ],
            [
              -85.791709,
              10.439337
            ],
            [
              -85.659314,
              10.754331
            ],
            [
              -85.941725,
              10.895278
            ],
            [
              -85.71254,
              11.088445
            ],
            [
              -85.561852,
              11.217119
            ],
            [
              -84.903003,
              10.952303
            ],
            [
              -84.673069,
              11.082657
            ],
            [
              -84.355931,
              10.999226
            ],
            [
              -84.190179,
              10.79345
            ],
            [
              -83.895054,
              10.726839
            ],
            [
              -83.655612,
              10.938764
            ],
            [
              -83.40232,
              10.395438
            ],
            [
              -83.015677,
              9.992982
            ],
            [
              -82.546196,
              9.566135
            ]
          ]
        ]
      }
    },
    {
      "type": "Feature",
      "id": "NIC",
      "properties": {
        "name": "Nicaragua",
        "code": "NIC",
        "source": "Natural Earth 1:110m"
      },
      "geometry": {
        "type": "Polygon",
        "coordinates": [
          [
            [
              -83.655612,
              10.938764
            ],
            [
              -83.895054,
              10.726839
            ],
            [
              -84.190179,
              10.79345
            ],
            [
              -84.355931,
              10.999226
            ],
            [
              -84.673069,
              11.082657
            ],
            [
              -84.903003,
              10.952303
            ],
            [
              -85.561852,
              11.217119
            ],
            [
              -85.71254,
              11.088445
            ],
            [
              -86.058488,
              11.403439
            ],
            [
              -86.52585,
              11.806877
            ],
            [
              -86.745992,
              12.143962
            ],
            [
              -87.167516,
              12.458258
            ],
            [
              -87.668493,
              12.90991
            ],
            [
              -87.557467,
              13.064552
            ],
            [
              -87.392386,
              12.914018
            ],
            [
              -87.316654,
              12.984686
            ],
            [
              -87.005769,
              13.025794
            ],
            [
              -86.880557,
              13.254204
            ],
            [
              -86.733822,
              13.263093
            ],
            [
              -86.755087,
              13.754845
            ],
            [
              -86.520708,
              13.778487
            ],
            [
              -86.312142,
              13.771356
            ],
            [
              -86.096264,
              14.038187
            ],
            [
              -85.801295,
              13.836055
            ],
            [
              -85.698665,
              13.960078
            ],
            [
              -85.514413,
              14.079012
            ],
            [
              -85.165365,
              14.35437
            ],
            [
              -85.148751,
              14.560197
            ],
            [
              -85.052787,
              14.551541
            ],
            [
              -84.924501,
              14.790493
            ],
            [
              -84.820037,
              14.819587
            ],
            [
              -84.649582,
              14.666805
            ],
            [
              -84.449336,
              14.621614
            ],
            [
              -84.228342,
              14.748764
            ],
            [
              -83.975721,
              14.749436
            ],
            [
              -83.628585,
              14.880074
            ],
            [
              -83.489989,
              15.016267
            ],
            [
              -83.147219,
              14.995829
            ],
            [
              -83.233234,
              14.899866
            ],
            [
              -83.284162,
              14.676624
            ],
            [
              -83.182126,
              14.310703
            ],
            [
              -83.4125,
              13.970078
            ],
            [
              -83.519832,
              13.567699
            ],
            [
              -83.552207,
              13.127054
            ],
            [
              -83.498515,
              12.869292
            ],
            [
              -83.473323,
              12.419087
            ],
            [
              -83.626104,
              12.32085
            ],
            [
              -83.719613,
              11.893124
            ],
            [
              -83.650858,
              11.629032
            ],
            [
              -83.85547,
              11.373311
            ],
            [
              -83.808936,
              11.103044
            ],
            [
              -83.655612,
              10.938764
            ]
          ]
        ]
      }
    },
    {
      "type": "Feature",
      "id": "VEN",
      "properties": {
        "name": "Venezuela",
        "code": "VEN",
        "source": "Natural Earth 1:110m"
      },
      "geometry": {
        "type": "Polygon",
        "coordinates": [
          [
            [
              -60.733574,
              5.200277
            ],
            [
              -60.601179,
              4.918098
            ],
            [
              -60.966893,
              4.536468
            ],
            [
              -62.08543,
              4.162124
            ],
            [
              -62.804533,
              4.006965
            ],
            [
              -63.093198,
              3.770571
            ],
            [
              -63.888343,
              4.02053
            ],
            [
              -64.628659,
              4.148481
            ],
            [
              -64.816064,
              4.056445
            ],
            [
              -64.368494,
              3.79721
            ],
            [
              -64.408828,
              3.126786
            ],
            [
              -64.269999,
              2.497006
            ],
            [
              -63.422867,
              2.411068
            ],
            [
              -63.368788,
              2.2009
            ],
            [
              -64.083085,
              1.916369
            ],
            [
              -64.199306,
              1.492855
            ],
            [
              -64.611012,
              1.328731
            ],
            [
              -65.354713,
              1.095282
            ],
            [
              -65.548267,
              0.789254
            ],
            [
              -66.325765,
              0.724452
            ],
            [
              -66.876326,
              1.253361
            ],
            [
              -67.181294,
              2.250638
            ],
            [
              -67.447092,
              2.600281
            ],
            [
              -67.809938,
              2.820655
            ],
            [
              -67.303173,
              3.318454
            ],
            [
              -67.337564,
              3.542342
            ],
            [
              -67.621836,
              3.839482
            ],
            [
              -67.823012,
              4.503937
            ],
            [
              -67.744697,
              5.221129
            ],
            [
              -67.521532,
              5.55687
            ],
            [
              -67.34144,
              6.095468
            ],
            [
              -67.695087,
              6.267318
            ],
            [
              -68.265052,
              6.153268
            ],
            [
              -68.985319,
              6.206805
            ],
            [
              -69.38948,
              6.099861
            ],
            [
              -70.093313,
              6.960376
            ],
            [
              -70.674234,
              7.087785
            ],
            [
              -71.960176,
              6.991615
            ],
            [
              -72.198352,
              7.340431
            ],
            [
              -72.444487,
              7.423785
            ],
            [
              -72.479679,
              7.632506
            ],
            [
              -72.360901,
              8.002638
            ],
            [
              -72.439862,
              8.405275
            ],
            [
              -72.660495,
              8.625288
            ],
            [
              -72.78873,
              9.085027
            ],
            [
              -73.304952,
              9.152
            ],
            [
              -73.027604,
              9.73677
            ],
            [
              -72.905286,
              10.450344
            ],
            [
              -72.614658,
              10.821975
            ],
            [
              -72.227575,
              11.108702
            ],
            [
              -71.973922,
              11.608672
            ],
            [
              -71.331584,
              11.776284
            ],
            [
              -71.360006,
              11.539994
            ],
            [
              -71.94705,
              11.423282
            ],
            [
              -71.620868,
              10.96946
            ],
            [
              -71.633064,
              10.446494
            ],
            [
              -72.074174,
              9.865651
            ],
            [
              -71.695644,
              9.072263
            ],
            [
              -71.264559,
              9.137195
            ],
            [
              -71.039999,
              9.859993
            ],
            [
              -71.350084,
              10.211935
            ],
            [
              -71.400623,
              10.968969
            ],
            [
              -70.155299,
              11.375482
            ],
            [
              -70.293843,
              11.846822
            ],
            [
              -69.943245,
              12.162307
            ],
            [
              -69.5843,
              11.459611
            ],
            [
              -68.882999,
              11.443385
            ],
            [
              -68.233271,
              10.885744
            ],
            [
              -68.194127,
              10.554653
            ],
            [
              -67.296249,
              10.545868
            ],
            [
              -66.227864,
              10.648627
            ],
            [
              -65.655238,
              10.200799
            ],
            [
              -64.890452,
              10.077215
            ],
            [
              -64.329479,
              10.389599
            ],
            [
              -64.318007,
              10.641418
            ],
            [
              -63.079322,
              10.701724
            ],
            [
              -61.880946,
              10.715625
            ],
            [
              -62.730119,
              10.420269
            ],
            [
              -62.388512,
              9.948204
            ],
            [
              -61.588767,
              9.873067
            ],
            [
              -60.830597,
              9.38134
            ],
            [
              -60.671252,
              8.580174
            ],
            [
              -60.150096,
              8.602757
            ],
            [
              -59.758285,
              8.367035
            ],
            [
              -60.550588,
              7.779603
            ],
            [
              -60.637973,
              7.415
            ],
            [
              -60.295668,
              7.043911
            ],
            [
              -60.543999,
              6.856584
            ],
            [
              -61.159336,
              6.696077
            ],
            [
              -61.139415,
              6.234297
            ],
            [
              -61.410303,
              5.959068
            ],
            [
              -60.733574,
              5.200277
            ]
          ]
        ]
      }
    },
    {
      "type": "Feature",
      "id": "ECU",
      "properties": {
        "name": "Ecuador",
        "code": "ECU",
        "source": "Natural Earth 1:110m"
      },
      "geometry": {
        "type": "Polygon",
        "coordinates": [
          [
            [
              -75.373223,
              -0.152032
            ],
            [
              -75.233723,
              -0.911417
            ],
            [
              -75.544996,
              -1.56161
            ],
            [
              -76.635394,
              -2.608678
            ],
            [
              -77.837905,
              -3.003021
            ],
            [
              -78.450684,
              -3.873097
            ],
            [
              -78.639897,
              -4.547784
            ],
            [
              -79.205289,
              -4.959129
            ],
            [
              -79.624979,
              -4.454198
            ],
            [
              -80.028908,
              -4.346091
            ],
            [
              -80.442242,
              -4.425724
            ],
            [
              -80.469295,
              -4.059287
            ],
            [
              -80.184015,
              -3.821162
            ],
            [
              -80.302561,
              -3.404856
            ],
            [
              -79.770293,
              -2.657512
            ],
            [
              -79.986559,
              -2.220794
            ],
            [
              -80.368784,
              -2.685159
            ],
            [
              -80.967765,
              -2.246943
            ],
            [
              -80.764806,
              -1.965048
            ],
            [
              -80.933659,
              -1.057455
            ],
            [
              -80.58337,
              -0.906663
            ],
            [
              -80.399325,
              -0.283703
            ],
            [
              -80.020898,
              0.36034
            ],
            [
              -80.09061,
              0.768429
            ],
            [
              -79.542762,
              0.982938
            ],
            [
              -78.855259,
              1.380924
            ],
            [
              -77.855061,
              0.809925
            ],
            [
              -77.668613,
              0.825893
            ],
            [
              -77.424984,
              0.395687
            ],
            [
              -76.57638,
              0.256936
            ],
            [
              -76.292314,
              0.416047
            ],
            [
              -75.801466,
              0.084801
            ],
            [
              -75.373223,
              -0.152032
            ]
          ]
        ]
      }
    }
  ]
}
