{
  "type": "FeatureCollection",
  "metadata": {
    "source": "DANE DIVIPOLA MGN 2025",
    "downloadedAt": "2026-07-27T05:06:31Z",
    "crs": "EPSG:4326",
    "simplification": "ArcGIS maxAllowableOffset=0.01 grados y geometryPrecision=5; solo visualización web"
  },
  "features": [
    {
      "type": "Feature",
      "id": 1726,
      "geometry": {
        "type": "Polygon",
        "coordinates": [
          [
            [
              -74.904,
              10.95004
            ],
            [
              -74.85025,
              10.93883
            ],
            [
              -74.82667,
              10.91392
            ],
            [
              -74.7573,
              10.94537
            ],
            [
              -74.76317,
              10.99427
            ],
            [
              -74.83705,
              11.05601
            ],
            [
              -74.85186,
              11.10537
            ],
            [
              -74.84432,
              11.06306
            ],
            [
              -74.8737,
              11.04827
            ],
            [
              -74.8716,
              11.02242
            ],
            [
              -74.82703,
              11.03751
            ],
            [
              -74.83984,
              11.01331
            ],
            [
              -74.88333,
              11.00197
            ],
            [
              -74.87393,
              10.9875
            ],
            [
              -74.90873,
              10.9725
            ],
            [
              -74.89903,
              10.96261
            ],
            [
              -74.9184,
              10.94529
            ],
            [
              -74.904,
              10.95004
            ]
          ]
        ]
      },
      "properties": {
        "code": "08001",
        "departmentCode": "08",
        "name": "BARRANQUILLA",
        "originalCode": "001",
        "originalName": "BARRANQUILLA",
        "MPIO_TIPO": "MUNICIPIO",
        "type": "MUNICIPIO",
        "unitType": "municipio",
        "MPIO_NAREA": 154.12755133,
        "MPIO_NANO": 2025,
        "MPIO_CRSLCION": "Ordenanza 30 del 5 de Mayo de 1913 Ley 44 del 6/11/1876",
        "areaName": 154.12755133,
        "creationYear": 2025,
        "creationResolution": "Ordenanza 30 del 5 de Mayo de 1913 Ley 44 del 6/11/1876",
        "resultType": "observed",
        "source": "dane-divipola-mgn-2025",
        "year": 2025
      }
    },
    {
      "type": "Feature",
      "id": 1727,
      "geometry": {
        "type": "Polygon",
        "coordinates": [
          [
            [
              -74.94481,
              10.85842
            ],
            [
              -74.97161,
              10.81657
            ],
            [
              -74.99298,
              10.81879
            ],
            [
              -74.99383,
              10.795
            ],
            [
              -74.93419,
              10.7708
            ],
            [
              -74.92602,
              10.75526
            ],
            [
              -74.94211,
              10.71414
            ],
            [
              -74.90559,
              10.70495
            ],
            [
              -74.87595,
              10.72421
            ],
            [
              -74.89596,
              10.75493
            ],
            [
              -74.86663,
              10.83682
            ],
            [
              -74.87182,
              10.8531
            ],
            [
              -74.89951,
              10.84364
            ],
            [
              -74.94481,
              10.85842
            ]
          ]
        ]
      },
      "properties": {
        "code": "08078",
        "departmentCode": "08",
        "name": "BARANOA",
        "originalCode": "078",
        "originalName": "BARANOA",
        "MPIO_TIPO": "MUNICIPIO",
        "type": "MUNICIPIO",
        "unitType": "municipio",
        "MPIO_NAREA": 121.26327267,
        "MPIO_NANO": 2024,
        "MPIO_CRSLCION": "Ordenanza 11 del 23 de Octubre de 1856",
        "areaName": 121.26327267,
        "creationYear": 2024,
        "creationResolution": "Ordenanza 11 del 23 de Octubre de 1856",
        "resultType": "observed",
        "source": "dane-divipola-mgn-2025",
        "year": 2025
      }
    },
    {
      "type": "Feature",
      "id": 1728,
      "geometry": {
        "type": "Polygon",
        "coordinates": [
          [
            [
              -74.80921,
              10.48624
            ],
            [
              -74.82043,
              10.4941
            ],
            [
              -74.8533,
              10.42713
            ],
            [
              -74.92182,
              10.4113
            ],
            [
              -74.92413,
              10.39834
            ],
            [
              -74.94122,
              10.41083
            ],
            [
              -74.96279,
              10.38183
            ],
            [
              -74.91952,
              10.36004
            ],
            [
              -74.93562,
              10.34297
            ],
            [
              -74.8975,
              10.354
            ],
            [
              -74.86842,
              10.34062
            ],
            [
              -74.85974,
              10.39047
            ],
            [
              -74.81488,
              10.43171
            ],
            [
              -74.80921,
              10.48624
            ]
          ]
        ]
      },
      "properties": {
        "code": "08137",
        "departmentCode": "08",
        "name": "CAMPO DE LA CRUZ",
        "originalCode": "137",
        "originalName": "CAMPO DE LA CRUZ",
        "MPIO_TIPO": "MUNICIPIO",
        "type": "MUNICIPIO",
        "unitType": "municipio",
        "MPIO_NAREA": 99.92062157,
        "MPIO_NANO": 2024,
        "MPIO_CRSLCION": "Ordenanza 34 del 16 de Abril de 1914",
        "areaName": 99.92062157,
        "creationYear": 2024,
        "creationResolution": "Ordenanza 34 del 16 de Abril de 1914",
        "resultType": "observed",
        "source": "dane-divipola-mgn-2025",
        "year": 2025
      }
    },
    {
      "type": "Feature",
      "id": 1729,
      "geometry": {
        "type": "Polygon",
        "coordinates": [
          [
            [
              -74.8587,
              10.56139
            ],
            [
              -74.92324,
              10.53905
            ],
            [
              -74.91029,
              10.51992
            ],
            [
              -74.91398,
              10.4756
            ],
            [
              -74.93241,
              10.44225
            ],
            [
              -74.91684,
              10.41222
            ],
            [
              -74.8533,
              10.42713
            ],
            [
              -74.8178,
              10.49925
            ],
            [
              -74.83588,
              10.54792
            ],
            [
              -74.8587,
              10.56139
            ]
          ]
        ]
      },
      "properties": {
        "code": "08141",
        "departmentCode": "08",
        "name": "CANDELARIA",
        "originalCode": "141",
        "originalName": "CANDELARIA",
        "MPIO_TIPO": "MUNICIPIO",
        "type": "MUNICIPIO",
        "unitType": "municipio",
        "MPIO_NAREA": 135.66529893,
        "MPIO_NANO": 2024,
        "MPIO_CRSLCION": "Ley 27 de 1860",
        "areaName": 135.66529893,
        "creationYear": 2024,
        "creationResolution": "Ley 27 de 1860",
        "resultType": "observed",
        "source": "dane-divipola-mgn-2025",
        "year": 2025
      }
    },
    {
      "type": "Feature",
      "id": 1730,
      "geometry": {
        "type": "Polygon",
        "coordinates": [
          [
            [
              -74.90785,
              10.9505
            ],
            [
              -74.92284,
              10.94221
            ],
            [
              -74.92982,
              10.87739
            ],
            [
              -74.945,
              10.85955
            ],
            [
              -74.89951,
              10.84364
            ],
            [
              -74.83885,
              10.87181
            ],
            [
              -74.82667,
              10.91392
            ],
            [
              -74.85025,
              10.93883
            ],
            [
              -74.90785,
              10.9505
            ]
          ]
        ]
      },
      "properties": {
        "code": "08296",
        "departmentCode": "08",
        "name": "GALAPA",
        "originalCode": "296",
        "originalName": "GALAPA",
        "MPIO_TIPO": "MUNICIPIO",
        "type": "MUNICIPIO",
        "unitType": "municipio",
        "MPIO_NAREA": 97.48123373,
        "MPIO_NANO": 2025,
        "MPIO_CRSLCION": "Ley 37 de 1873",
        "areaName": 97.48123373,
        "creationYear": 2025,
        "creationResolution": "Ley 37 de 1873",
        "resultType": "observed",
        "source": "dane-divipola-mgn-2025",
        "year": 2025
      }
    },
    {
      "type": "Feature",
      "id": 1731,
      "geometry": {
        "type": "Polygon",
        "coordinates": [
          [
            [
              -75.07436,
              10.88679
            ],
            [
              -75.21669,
              10.80478
            ],
            [
              -75.1422,
              10.81193
            ],
            [
              -75.06327,
              10.76697
            ],
            [
              -75.00306,
              10.77584
            ],
            [
              -75.00161,
              10.79074
            ],
            [
              -74.98495,
              10.79027
            ],
            [
              -75.00957,
              10.85234
            ],
            [
              -75.07436,
              10.88679
            ]
          ]
        ]
      },
      "properties": {
        "code": "08372",
        "departmentCode": "08",
        "name": "JUAN DE ACOSTA",
        "originalCode": "372",
        "originalName": "JUAN DE ACOSTA",
        "MPIO_TIPO": "MUNICIPIO",
        "type": "MUNICIPIO",
        "unitType": "municipio",
        "MPIO_NAREA": 167.90924121,
        "MPIO_NANO": 2024,
        "MPIO_CRSLCION": "Ley 113 de 1892",
        "areaName": 167.90924121,
        "creationYear": 2024,
        "creationResolution": "Ley 113 de 1892",
        "resultType": "observed",
        "source": "dane-divipola-mgn-2025",
        "year": 2025
      }
    },
    {
      "type": "Feature",
      "id": 1732,
      "geometry": {
        "type": "Polygon",
        "coordinates": [
          [
            [
              -75.06332,
              10.68465
            ],
            [
              -75.16928,
              10.69036
            ],
            [
              -75.20622,
              10.67365
            ],
            [
              -75.22639,
              10.70201
            ],
            [
              -75.24775,
              10.6959
            ],
            [
              -75.22362,
              10.63086
            ],
            [
              -75.23396,
              10.55845
            ],
            [
              -75.13268,
              10.58055
            ],
            [
              -75.1164,
              10.60378
            ],
            [
              -75.06015,
              10.59494
            ],
            [
              -75.06332,
              10.68465
            ]
          ]
        ]
      },
      "properties": {
        "code": "08421",
        "departmentCode": "08",
        "name": "LURUACO",
        "originalCode": "421",
        "originalName": "LURUACO",
        "MPIO_TIPO": "MUNICIPIO",
        "type": "MUNICIPIO",
        "unitType": "municipio",
        "MPIO_NAREA": 223.59548638,
        "MPIO_NANO": 2025,
        "MPIO_CRSLCION": "Ordenanza 143 de Diciembre 23 de 1960",
        "areaName": 223.59548638,
        "creationYear": 2025,
        "creationResolution": "Ordenanza 143 de Diciembre 23 de 1960",
        "resultType": "observed",
        "source": "dane-divipola-mgn-2025",
        "year": 2025
      }
    },
    {
      "type": "Feature",
      "id": 1733,
      "geometry": {
        "type": "Polygon",
        "coordinates": [
          [
            [
              -74.82553,
              10.89025
            ],
            [
              -74.8698,
              10.85827
            ],
            [
              -74.88234,
              10.81313
            ],
            [
              -74.80321,
              10.81244
            ],
            [
              -74.74073,
              10.83445
            ],
            [
              -74.74182,
              10.88398
            ],
            [
              -74.81391,
              10.87662
            ],
            [
              -74.82553,
              10.89025
            ]
          ]
        ]
      },
      "properties": {
        "code": "08433",
        "departmentCode": "08",
        "name": "MALAMBO",
        "originalCode": "433",
        "originalName": "MALAMBO",
        "MPIO_TIPO": "MUNICIPIO",
        "type": "MUNICIPIO",
        "unitType": "municipio",
        "MPIO_NAREA": 97.86520456,
        "MPIO_NANO": 2025,
        "MPIO_CRSLCION": "Ordenanza 24 del 24 de Abril de 1912",
        "areaName": 97.86520456,
        "creationYear": 2025,
        "creationResolution": "Ordenanza 24 del 24 de Abril de 1912",
        "resultType": "observed",
        "source": "dane-divipola-mgn-2025",
        "year": 2025
      }
    },
    {
      "type": "Feature",
      "id": 1734,
      "geometry": {
        "type": "Polygon",
        "coordinates": [
          [
            [
              -74.92256,
              10.53413
            ],
            [
              -74.96018,
              10.54376
            ],
            [
              -74.98833,
              10.51967
            ],
            [
              -75.02708,
              10.52075
            ],
            [
              -75.02256,
              10.48479
            ],
            [
              -75.04717,
              10.46934
            ],
            [
              -75.05809,
              10.41834
            ],
            [
              -75.07428,
              10.40935
            ],
            [
              -75.05293,
              10.38194
            ],
            [
              -75.0237,
              10.36934
            ],
            [
              -74.99339,
              10.39481
            ],
            [
              -74.95777,
              10.38308
            ],
            [
              -74.94047,
              10.41131
            ],
            [
              -74.92186,
              10.40012
            ],
            [
              -74.91769,
              10.4284
            ],
            [
              -74.93239,
              10.4424
            ],
            [
              -74.91029,
              10.51992
            ],
            [
              -74.92256,
              10.53413
            ]
          ]
        ]
      },
      "properties": {
        "code": "08436",
        "departmentCode": "08",
        "name": "MANATÍ",
        "originalCode": "436",
        "originalName": "MANATÍ",
        "MPIO_TIPO": "MUNICIPIO",
        "type": "MUNICIPIO",
        "unitType": "municipio",
        "MPIO_NAREA": 214.11263974,
        "MPIO_NANO": 2025,
        "MPIO_CRSLCION": "Ordenanza 11 del 23 de Octubre de 1855",
        "areaName": 214.11263974,
        "creationYear": 2025,
        "creationResolution": "Ordenanza 11 del 23 de Octubre de 1855",
        "resultType": "observed",
        "source": "dane-divipola-mgn-2025",
        "year": 2025
      }
    },
    {
      "type": "Feature",
      "id": 1735,
      "geometry": {
        "type": "Polygon",
        "coordinates": [
          [
            [
              -74.76203,
              10.74262
            ],
            [
              -74.82371,
              10.70211
            ],
            [
              -74.83736,
              10.672
            ],
            [
              -74.76527,
              10.64902
            ],
            [
              -74.72364,
              10.66699
            ],
            [
              -74.72775,
              10.7494
            ],
            [
              -74.76203,
              10.74262
            ]
          ]
        ]
      },
      "properties": {
        "code": "08520",
        "departmentCode": "08",
        "name": "PALMAR DE VARELA",
        "originalCode": "520",
        "originalName": "PALMAR DE VARELA",
        "MPIO_TIPO": "MUNICIPIO",
        "type": "MUNICIPIO",
        "unitType": "municipio",
        "MPIO_NAREA": 92.26015192,
        "MPIO_NANO": 2025,
        "MPIO_CRSLCION": "Ordenanza 30 del 5 de Mayo de 1913",
        "areaName": 92.26015192,
        "creationYear": 2025,
        "creationResolution": "Ordenanza 30 del 5 de Mayo de 1913",
        "resultType": "observed",
        "source": "dane-divipola-mgn-2025",
        "year": 2025
      }
    },
    {
      "type": "Feature",
      "id": 1736,
      "geometry": {
        "type": "Polygon",
        "coordinates": [
          [
            [
              -75.03837,
              10.77081
            ],
            [
              -75.06327,
              10.76697
            ],
            [
              -75.1422,
              10.81193
            ],
            [
              -75.26045,
              10.80147
            ],
            [
              -75.27123,
              10.77931
            ],
            [
              -75.22725,
              10.77184
            ],
            [
              -75.24806,
              10.69674
            ],
            [
              -75.22639,
              10.70201
            ],
            [
              -75.20622,
              10.67365
            ],
            [
              -75.16928,
              10.69036
            ],
            [
              -75.05561,
              10.68434
            ],
            [
              -75.06242,
              10.69496
            ],
            [
              -75.02958,
              10.72775
            ],
            [
              -75.03125,
              10.75616
            ],
            [
              -75.04639,
              10.75816
            ],
            [
              -75.03837,
              10.77081
            ]
          ]
        ]
      },
      "properties": {
        "code": "08549",
        "departmentCode": "08",
        "name": "PIOJÓ",
        "originalCode": "549",
        "originalName": "PIOJÓ",
        "MPIO_TIPO": "MUNICIPIO",
        "type": "MUNICIPIO",
        "unitType": "municipio",
        "MPIO_NAREA": 262.67861838,
        "MPIO_NANO": 2025,
        "MPIO_CRSLCION": "Ley 17 del 11/04/1905",
        "areaName": 262.67861838,
        "creationYear": 2025,
        "creationResolution": "Ley 17 del 11/04/1905",
        "resultType": "observed",
        "source": "dane-divipola-mgn-2025",
        "year": 2025
      }
    },
    {
      "type": "Feature",
      "id": 1737,
      "geometry": {
        "type": "Polygon",
        "coordinates": [
          [
            [
              -74.84353,
              10.81261
            ],
            [
              -74.87939,
              10.81304
            ],
            [
              -74.89596,
              10.75493
            ],
            [
              -74.89027,
              10.73135
            ],
            [
              -74.8573,
              10.7074
            ],
            [
              -74.8423,
              10.70739
            ],
            [
              -74.80849,
              10.77984
            ],
            [
              -74.80779,
              10.81228
            ],
            [
              -74.84353,
              10.81261
            ]
          ]
        ]
      },
      "properties": {
        "code": "08558",
        "departmentCode": "08",
        "name": "POLONUEVO",
        "originalCode": "558",
        "originalName": "POLONUEVO",
        "MPIO_TIPO": "MUNICIPIO",
        "type": "MUNICIPIO",
        "unitType": "municipio",
        "MPIO_NAREA": 73.8085139,
        "MPIO_NANO": 2024,
        "MPIO_CRSLCION": "1893",
        "areaName": 73.8085139,
        "creationYear": 2024,
        "creationResolution": "1893",
        "resultType": "observed",
        "source": "dane-divipola-mgn-2025",
        "year": 2025
      }
    },
    {
      "type": "Feature",
      "id": 1738,
      "geometry": {
        "type": "Polygon",
        "coordinates": [
          [
            [
              -74.87252,
              10.72105
            ],
            [
              -74.84106,
              10.60129
            ],
            [
              -74.85633,
              10.56456
            ],
            [
              -74.80653,
              10.48294
            ],
            [
              -74.73892,
              10.5423
            ],
            [
              -74.72521,
              10.62038
            ],
            [
              -74.74642,
              10.65115
            ],
            [
              -74.83641,
              10.67126
            ],
            [
              -74.84831,
              10.7076
            ],
            [
              -74.87252,
              10.72105
            ]
          ]
        ]
      },
      "properties": {
        "code": "08560",
        "departmentCode": "08",
        "name": "PONEDERA",
        "originalCode": "560",
        "originalName": "PONEDERA",
        "MPIO_TIPO": "MUNICIPIO",
        "type": "MUNICIPIO",
        "unitType": "municipio",
        "MPIO_NAREA": 206.3698224,
        "MPIO_NANO": 2024,
        "MPIO_CRSLCION": "Ordenanza 75 de Diciembre 22 de 1965",
        "areaName": 206.3698224,
        "creationYear": 2024,
        "creationResolution": "Ordenanza 75 de Diciembre 22 de 1965",
        "resultType": "observed",
        "source": "dane-divipola-mgn-2025",
        "year": 2025
      }
    },
    {
      "type": "Feature",
      "id": 1739,
      "geometry": {
        "type": "Polygon",
        "coordinates": [
          [
            [
              -74.87272,
              11.04795
            ],
            [
              -74.92129,
              11.0455
            ],
            [
              -74.92231,
              11.02798
            ],
            [
              -74.98129,
              10.97982
            ],
            [
              -74.92301,
              10.97418
            ],
            [
              -74.93113,
              10.95249
            ],
            [
              -74.9184,
              10.94529
            ],
            [
              -74.89903,
              10.96261
            ],
            [
              -74.90873,
              10.9725
            ],
            [
              -74.87393,
              10.9875
            ],
            [
              -74.87462,
              11.01101
            ],
            [
              -74.83984,
              11.01331
            ],
            [
              -74.82703,
              11.03751
            ],
            [
              -74.87,
              11.0213
            ],
            [
              -74.87272,
              11.04795
            ]
          ]
        ]
      },
      "properties": {
        "code": "08573",
        "departmentCode": "08",
        "name": "PUERTO COLOMBIA",
        "originalCode": "573",
        "originalName": "PUERTO COLOMBIA",
        "MPIO_TIPO": "MUNICIPIO",
        "type": "MUNICIPIO",
        "unitType": "municipio",
        "MPIO_NAREA": 69.35860737,
        "MPIO_NANO": 2024,
        "MPIO_CRSLCION": "Decreto Nacional 483 dle 26 de Abril de 1906",
        "areaName": 69.35860737,
        "creationYear": 2024,
        "creationResolution": "Decreto Nacional 483 dle 26 de Abril de 1906",
        "resultType": "observed",
        "source": "dane-divipola-mgn-2025",
        "year": 2025
      }
    },
    {
      "type": "Feature",
      "id": 1740,
      "geometry": {
        "type": "Polygon",
        "coordinates": [
          [
            [
              -75.06015,
              10.59494
            ],
            [
              -75.1164,
              10.60378
            ],
            [
              -75.13268,
              10.58055
            ],
            [
              -75.22569,
              10.5603
            ],
            [
              -75.24217,
              10.50147
            ],
            [
              -75.23375,
              10.47951
            ],
            [
              -75.20027,
              10.47044
            ],
            [
              -75.19525,
              10.44886
            ],
            [
              -75.16834,
              10.45173
            ],
            [
              -75.12655,
              10.39854
            ],
            [
              -75.06466,
              10.41195
            ],
            [
              -75.04733,
              10.46908
            ],
            [
              -75.02256,
              10.48479
            ],
            [
              -75.03237,
              10.55985
            ],
            [
              -75.06015,
              10.59494
            ]
          ]
        ]
      },
      "properties": {
        "code": "08606",
        "departmentCode": "08",
        "name": "REPELÓN",
        "originalCode": "606",
        "originalName": "REPELÓN",
        "MPIO_TIPO": "MUNICIPIO",
        "type": "MUNICIPIO",
        "unitType": "municipio",
        "MPIO_NAREA": 361.18207173,
        "MPIO_NANO": 2025,
        "MPIO_CRSLCION": "Ley 17 del 11 de Mayo de 1905",
        "areaName": 361.18207173,
        "creationYear": 2025,
        "creationResolution": "Ley 17 del 11 de Mayo de 1905",
        "resultType": "observed",
        "source": "dane-divipola-mgn-2025",
        "year": 2025
      }
    },
    {
      "type": "Feature",
      "id": 1741,
      "geometry": {
        "type": "Polygon",
        "coordinates": [
          [
            [
              -74.74073,
              10.83445
            ],
            [
              -74.80779,
              10.81228
            ],
            [
              -74.81178,
              10.77793
            ],
            [
              -74.72511,
              10.77173
            ],
            [
              -74.74073,
              10.83445
            ]
          ]
        ]
      },
      "properties": {
        "code": "08634",
        "departmentCode": "08",
        "name": "SABANAGRANDE",
        "originalCode": "634",
        "originalName": "SABANAGRANDE",
        "MPIO_TIPO": "MUNICIPIO",
        "type": "MUNICIPIO",
        "unitType": "municipio",
        "MPIO_NAREA": 43.07423786,
        "MPIO_NANO": 2025,
        "MPIO_CRSLCION": "Ley 44 del 6 de Noviembreirmbre de 1876",
        "areaName": 43.07423786,
        "creationYear": 2025,
        "creationResolution": "Ley 44 del 6 de Noviembreirmbre de 1876",
        "resultType": "observed",
        "source": "dane-divipola-mgn-2025",
        "year": 2025
      }
    },
    {
      "type": "Feature",
      "id": 1742,
      "geometry": {
        "type": "Polygon",
        "coordinates": [
          [
            [
              -74.87538,
              10.72502
            ],
            [
              -74.90559,
              10.70495
            ],
            [
              -74.93251,
              10.71145
            ],
            [
              -74.93564,
              10.69361
            ],
            [
              -74.96991,
              10.68059
            ],
            [
              -75.00553,
              10.71103
            ],
            [
              -75.06242,
              10.69496
            ],
            [
              -75.06015,
              10.59494
            ],
            [
              -75.03581,
              10.56965
            ],
            [
              -75.02708,
              10.52075
            ],
            [
              -74.98833,
              10.51967
            ],
            [
              -74.96018,
              10.54376
            ],
            [
              -74.92278,
              10.53382
            ],
            [
              -74.91753,
              10.54776
            ],
            [
              -74.8581,
              10.56067
            ],
            [
              -74.84106,
              10.60129
            ],
            [
              -74.87538,
              10.72502
            ]
          ]
        ]
      },
      "properties": {
        "code": "08638",
        "departmentCode": "08",
        "name": "SABANALARGA",
        "originalCode": "638",
        "originalName": "SABANALARGA",
        "MPIO_TIPO": "MUNICIPIO",
        "type": "MUNICIPIO",
        "unitType": "municipio",
        "MPIO_NAREA": 395.59944726,
        "MPIO_NANO": 2024,
        "MPIO_CRSLCION": "Ordenanza 30 del 5 de Mayo de 1913",
        "areaName": 395.59944726,
        "creationYear": 2024,
        "creationResolution": "Ordenanza 30 del 5 de Mayo de 1913",
        "resultType": "observed",
        "source": "dane-divipola-mgn-2025",
        "year": 2025
      }
    },
    {
      "type": "Feature",
      "id": 1743,
      "geometry": {
        "type": "Polygon",
        "coordinates": [
          [
            [
              -74.96258,
              10.38314
            ],
            [
              -74.99339,
              10.39481
            ],
            [
              -75.03335,
              10.36898
            ],
            [
              -74.98227,
              10.34245
            ],
            [
              -74.93727,
              10.28956
            ],
            [
              -74.94134,
              10.30569
            ],
            [
              -74.91686,
              10.33543
            ],
            [
              -74.93645,
              10.3439
            ],
            [
              -74.91952,
              10.36004
            ],
            [
              -74.96258,
              10.38314
            ]
          ]
        ]
      },
      "properties": {
        "code": "08675",
        "departmentCode": "08",
        "name": "SANTA LUCÍA",
        "originalCode": "675",
        "originalName": "SANTA LUCÍA",
        "MPIO_TIPO": "MUNICIPIO",
        "type": "MUNICIPIO",
        "unitType": "municipio",
        "MPIO_NAREA": 57.28780405,
        "MPIO_NANO": 2025,
        "MPIO_CRSLCION": "Ordenanza 01 del 18 de Octubre de 1967",
        "areaName": 57.28780405,
        "creationYear": 2025,
        "creationResolution": "Ordenanza 01 del 18 de Octubre de 1967",
        "resultType": "observed",
        "source": "dane-divipola-mgn-2025",
        "year": 2025
      }
    },
    {
      "type": "Feature",
      "id": 1744,
      "geometry": {
        "type": "Polygon",
        "coordinates": [
          [
            [
              -74.75906,
              10.77617
            ],
            [
              -74.81946,
              10.77566
            ],
            [
              -74.84942,
              10.70827
            ],
            [
              -74.83941,
              10.68712
            ],
            [
              -74.80079,
              10.70561
            ],
            [
              -74.78915,
              10.73268
            ],
            [
              -74.72775,
              10.7494
            ],
            [
              -74.72511,
              10.77173
            ],
            [
              -74.75906,
              10.77617
            ]
          ]
        ]
      },
      "properties": {
        "code": "08685",
        "departmentCode": "08",
        "name": "SANTO TOMÁS",
        "originalCode": "685",
        "originalName": "SANTO TOMÁS",
        "MPIO_TIPO": "MUNICIPIO",
        "type": "MUNICIPIO",
        "unitType": "municipio",
        "MPIO_NAREA": 64.9556702,
        "MPIO_NANO": 2025,
        "MPIO_CRSLCION": "1857",
        "areaName": 64.9556702,
        "creationYear": 2025,
        "creationResolution": "1857",
        "resultType": "observed",
        "source": "dane-divipola-mgn-2025",
        "year": 2025
      }
    },
    {
      "type": "Feature",
      "id": 1745,
      "geometry": {
        "type": "Polygon",
        "coordinates": [
          [
            [
              -74.82553,
              10.89025
            ],
            [
              -74.81992,
              10.87724
            ],
            [
              -74.78015,
              10.8745
            ],
            [
              -74.76465,
              10.89062
            ],
            [
              -74.7381,
              10.876
            ],
            [
              -74.71836,
              10.90911
            ],
            [
              -74.76945,
              10.94526
            ],
            [
              -74.82667,
              10.91392
            ],
            [
              -74.83911,
              10.88547
            ],
            [
              -74.82553,
              10.89025
            ]
          ]
        ]
      },
      "properties": {
        "code": "08758",
        "departmentCode": "08",
        "name": "SOLEDAD",
        "originalCode": "758",
        "originalName": "SOLEDAD",
        "MPIO_TIPO": "MUNICIPIO",
        "type": "MUNICIPIO",
        "unitType": "municipio",
        "MPIO_NAREA": 59.31365698,
        "MPIO_NANO": 2025,
        "MPIO_CRSLCION": "1813",
        "areaName": 59.31365698,
        "creationYear": 2025,
        "creationResolution": "1813",
        "resultType": "observed",
        "source": "dane-divipola-mgn-2025",
        "year": 2025
      }
    },
    {
      "type": "Feature",
      "id": 1746,
      "geometry": {
        "type": "Polygon",
        "coordinates": [
          [
            [
              -74.86842,
              10.34062
            ],
            [
              -74.9151,
              10.34794
            ],
            [
              -74.94134,
              10.30569
            ],
            [
              -74.9108,
              10.25418
            ],
            [
              -74.86842,
              10.34062
            ]
          ]
        ]
      },
      "properties": {
        "code": "08770",
        "departmentCode": "08",
        "name": "SUAN",
        "originalCode": "770",
        "originalName": "SUAN",
        "MPIO_TIPO": "MUNICIPIO",
        "type": "MUNICIPIO",
        "unitType": "municipio",
        "MPIO_NAREA": 42.45572483,
        "MPIO_NANO": 2025,
        "MPIO_CRSLCION": "Decreto 233 del 15 de Abril de 1905",
        "areaName": 42.45572483,
        "creationYear": 2025,
        "creationResolution": "Decreto 233 del 15 de Abril de 1905",
        "resultType": "observed",
        "source": "dane-divipola-mgn-2025",
        "year": 2025
      }
    },
    {
      "type": "Feature",
      "id": 1747,
      "geometry": {
        "type": "Polygon",
        "coordinates": [
          [
            [
              -74.96195,
              10.98071
            ],
            [
              -75.0088,
              10.97739
            ],
            [
              -75.05021,
              10.94677
            ],
            [
              -75.05836,
              10.93125
            ],
            [
              -75.03319,
              10.95181
            ],
            [
              -75.02607,
              10.9432
            ],
            [
              -75.04546,
              10.90036
            ],
            [
              -75.07436,
              10.88679
            ],
            [
              -75.00957,
              10.85234
            ],
            [
              -74.99771,
              10.81506
            ],
            [
              -74.97161,
              10.81657
            ],
            [
              -74.92982,
              10.87739
            ],
            [
              -74.91949,
              10.97222
            ],
            [
              -74.96195,
              10.98071
            ]
          ]
        ]
      },
      "properties": {
        "code": "08832",
        "departmentCode": "08",
        "name": "TUBARÁ",
        "originalCode": "832",
        "originalName": "TUBARÁ",
        "MPIO_TIPO": "MUNICIPIO",
        "type": "MUNICIPIO",
        "unitType": "municipio",
        "MPIO_NAREA": 182.70161874,
        "MPIO_NANO": 2024,
        "MPIO_CRSLCION": "1833",
        "areaName": 182.70161874,
        "creationYear": 2024,
        "creationResolution": "1833",
        "resultType": "observed",
        "source": "dane-divipola-mgn-2025",
        "year": 2025
      }
    },
    {
      "type": "Feature",
      "id": 1748,
      "geometry": {
        "type": "Polygon",
        "coordinates": [
          [
            [
              -74.97205,
              10.79156
            ],
            [
              -75.0432,
              10.7687
            ],
            [
              -75.02958,
              10.72775
            ],
            [
              -75.04555,
              10.70168
            ],
            [
              -75.00553,
              10.71103
            ],
            [
              -74.96991,
              10.68059
            ],
            [
              -74.93564,
              10.69361
            ],
            [
              -74.92627,
              10.75614
            ],
            [
              -74.97205,
              10.79156
            ]
          ]
        ]
      },
      "properties": {
        "code": "08849",
        "departmentCode": "08",
        "name": "USIACURÍ",
        "originalCode": "849",
        "originalName": "USIACURÍ",
        "MPIO_TIPO": "MUNICIPIO",
        "type": "MUNICIPIO",
        "unitType": "municipio",
        "MPIO_NAREA": 101.30926586,
        "MPIO_NANO": 2024,
        "MPIO_CRSLCION": "1856",
        "areaName": 101.30926586,
        "creationYear": 2024,
        "creationResolution": "1856",
        "resultType": "observed",
        "source": "dane-divipola-mgn-2025",
        "year": 2025
      }
    }
  ]
}
