{
  "type": "FeatureCollection",
  "metadata": {
    "source": "DANE DIVIPOLA MGN 2025",
    "downloadedAt": "2026-07-25T07:50:10Z",
    "crs": "EPSG:4326",
    "simplification": "ArcGIS maxAllowableOffset=0.01 grados y geometryPrecision=5; solo visualización web"
  },
  "features": [
    {
      "type": "Feature",
      "id": 1749,
      "geometry": {
        "type": "Polygon",
        "coordinates": [
          [
            [
              -74.05361,
              4.83292
            ],
            [
              -74.0867,
              4.83244
            ],
            [
              -74.07964,
              4.80896
            ],
            [
              -74.11295,
              4.79013
            ],
            [
              -74.12606,
              4.72945
            ],
            [
              -74.17226,
              4.71136
            ],
            [
              -74.17492,
              4.67682
            ],
            [
              -74.1585,
              4.66285
            ],
            [
              -74.22257,
              4.6294
            ],
            [
              -74.20428,
              4.59968
            ],
            [
              -74.18378,
              4.59645
            ],
            [
              -74.17363,
              4.54085
            ],
            [
              -74.18773,
              4.52917
            ],
            [
              -74.17807,
              4.48634
            ],
            [
              -74.21796,
              4.36081
            ],
            [
              -74.22188,
              4.28206
            ],
            [
              -74.20553,
              4.26889
            ],
            [
              -74.20427,
              4.23971
            ],
            [
              -74.23176,
              4.21669
            ],
            [
              -74.24564,
              4.10325
            ],
            [
              -74.26565,
              4.09167
            ],
            [
              -74.32989,
              4.13054
            ],
            [
              -74.37458,
              3.98587
            ],
            [
              -74.35689,
              3.97098
            ],
            [
              -74.35956,
              3.91374
            ],
            [
              -74.39527,
              3.8238
            ],
            [
              -74.45067,
              3.74986
            ],
            [
              -74.43959,
              3.73063
            ],
            [
              -74.40156,
              3.73742
            ],
            [
              -74.38716,
              3.7527
            ],
            [
              -74.39389,
              3.76991
            ],
            [
              -74.33563,
              3.82166
            ],
            [
              -74.29662,
              3.8189
            ],
            [
              -74.31676,
              3.88128
            ],
            [
              -74.29752,
              3.88328
            ],
            [
              -74.27359,
              3.9249
            ],
            [
              -74.25643,
              3.92787
            ],
            [
              -74.26014,
              3.94825
            ],
            [
              -74.21738,
              4.0109
            ],
            [
              -74.16026,
              4.01785
            ],
            [
              -74.15067,
              4.00485
            ],
            [
              -74.12692,
              4.04848
            ],
            [
              -74.13059,
              4.11599
            ],
            [
              -74.10959,
              4.13249
            ],
            [
              -74.11005,
              4.18191
            ],
            [
              -74.12332,
              4.18109
            ],
            [
              -74.15271,
              4.25456
            ],
            [
              -74.09823,
              4.34562
            ],
            [
              -74.11215,
              4.43313
            ],
            [
              -74.0759,
              4.46316
            ],
            [
              -74.07255,
              4.51312
            ],
            [
              -74.04228,
              4.5124
            ],
            [
              -74.0296,
              4.55787
            ],
            [
              -74.00535,
              4.56059
            ],
            [
              -73.98613,
              4.62907
            ],
            [
              -74.00739,
              4.62548
            ],
            [
              -74.03156,
              4.64579
            ],
            [
              -74.00201,
              4.67461
            ],
            [
              -74.01884,
              4.76367
            ],
            [
              -74.00409,
              4.81705
            ],
            [
              -74.05361,
              4.83292
            ]
          ]
        ]
      },
      "properties": {
        "code": "11001",
        "departmentCode": "11",
        "name": "BOGOTÁ, D.C.",
        "resultType": "observed",
        "source": "dane-divipola-mgn-2025",
        "year": 2025
      }
    }
  ]
}
