{
  "type": "FeatureCollection",
  "metadata": {
    "source": "DANE DIVIPOLA MGN 2025",
    "downloadedAt": "2026-07-27T05:06:31Z",
    "crs": "EPSG:4326",
    "simplification": "ArcGIS maxAllowableOffset=0.01 grados y geometryPrecision=5; solo visualización web"
  },
  "features": [
    {
      "type": "Feature",
      "id": 1919,
      "geometry": {
        "type": "Polygon",
        "coordinates": [
          [
            [
              -75.3331,
              5.0435
            ],
            [
              -75.37006,
              5.06399
            ],
            [
              -75.34908,
              5.10811
            ],
            [
              -75.35617,
              5.14687
            ],
            [
              -75.40895,
              5.14707
            ],
            [
              -75.4402,
              5.12259
            ],
            [
              -75.49122,
              5.14488
            ],
            [
              -75.52518,
              5.11323
            ],
            [
              -75.5636,
              5.1569
            ],
            [
              -75.6421,
              5.15057
            ],
            [
              -75.66243,
              5.16624
            ],
            [
              -75.67741,
              5.14142
            ],
            [
              -75.66205,
              5.10678
            ],
            [
              -75.67395,
              5.08638
            ],
            [
              -75.59671,
              5.0462
            ],
            [
              -75.60111,
              4.99181
            ],
            [
              -75.58485,
              4.98225
            ],
            [
              -75.53636,
              5.00546
            ],
            [
              -75.51625,
              5.0519
            ],
            [
              -75.47488,
              5.0274
            ],
            [
              -75.38131,
              5.0264
            ],
            [
              -75.35311,
              5.01174
            ],
            [
              -75.33213,
              5.017
            ],
            [
              -75.3331,
              5.0435
            ]
          ]
        ]
      },
      "properties": {
        "code": "17001",
        "departmentCode": "17",
        "name": "MANIZALES",
        "originalCode": "001",
        "originalName": "MANIZALES",
        "MPIO_TIPO": "MUNICIPIO",
        "type": "MUNICIPIO",
        "unitType": "municipio",
        "MPIO_NAREA": 440.85742016,
        "MPIO_NANO": 2025,
        "MPIO_CRSLCION": "1849",
        "areaName": 440.85742016,
        "creationYear": 2025,
        "creationResolution": "1849",
        "resultType": "observed",
        "source": "dane-divipola-mgn-2025",
        "year": 2025
      }
    },
    {
      "type": "Feature",
      "id": 1920,
      "geometry": {
        "type": "Polygon",
        "coordinates": [
          [
            [
              -75.59452,
              5.73644
            ],
            [
              -75.5996,
              5.68091
            ],
            [
              -75.57236,
              5.66471
            ],
            [
              -75.58976,
              5.64304
            ],
            [
              -75.5737,
              5.54562
            ],
            [
              -75.51563,
              5.58209
            ],
            [
              -75.49334,
              5.58236
            ],
            [
              -75.467,
              5.5526
            ],
            [
              -75.43033,
              5.55585
            ],
            [
              -75.40897,
              5.50507
            ],
            [
              -75.37244,
              5.49588
            ],
            [
              -75.38084,
              5.41969
            ],
            [
              -75.32683,
              5.4371
            ],
            [
              -75.31082,
              5.50867
            ],
            [
              -75.32885,
              5.52457
            ],
            [
              -75.34021,
              5.60301
            ],
            [
              -75.36529,
              5.60157
            ],
            [
              -75.38311,
              5.62151
            ],
            [
              -75.36839,
              5.64084
            ],
            [
              -75.37689,
              5.67419
            ],
            [
              -75.42893,
              5.6966
            ],
            [
              -75.47816,
              5.66428
            ],
            [
              -75.51989,
              5.69512
            ],
            [
              -75.53549,
              5.69098
            ],
            [
              -75.54337,
              5.72007
            ],
            [
              -75.59452,
              5.73644
            ]
          ]
        ]
      },
      "properties": {
        "code": "17013",
        "departmentCode": "17",
        "name": "AGUADAS",
        "originalCode": "013",
        "originalName": "AGUADAS",
        "MPIO_TIPO": "MUNICIPIO",
        "type": "MUNICIPIO",
        "unitType": "municipio",
        "MPIO_NAREA": 475.56670665,
        "MPIO_NANO": 2024,
        "MPIO_CRSLCION": "1808",
        "areaName": 475.56670665,
        "creationYear": 2024,
        "creationResolution": "1808",
        "resultType": "observed",
        "source": "dane-divipola-mgn-2025",
        "year": 2025
      }
    },
    {
      "type": "Feature",
      "id": 1921,
      "geometry": {
        "type": "Polygon",
        "coordinates": [
          [
            [
              -75.78565,
              5.28251
            ],
            [
              -75.82446,
              5.26877
            ],
            [
              -75.80238,
              5.20036
            ],
            [
              -75.83382,
              5.15008
            ],
            [
              -75.83657,
              5.11478
            ],
            [
              -75.81129,
              5.11697
            ],
            [
              -75.78973,
              5.14271
            ],
            [
              -75.79479,
              5.16418
            ],
            [
              -75.76251,
              5.17613
            ],
            [
              -75.74636,
              5.17323
            ],
            [
              -75.76019,
              5.15675
            ],
            [
              -75.70429,
              5.11242
            ],
            [
              -75.66207,
              5.16708
            ],
            [
              -75.69453,
              5.18457
            ],
            [
              -75.70562,
              5.22204
            ],
            [
              -75.69347,
              5.2584
            ],
            [
              -75.73481,
              5.26437
            ],
            [
              -75.74826,
              5.28433
            ],
            [
              -75.76683,
              5.27318
            ],
            [
              -75.78565,
              5.28251
            ]
          ]
        ]
      },
      "properties": {
        "code": "17042",
        "departmentCode": "17",
        "name": "ANSERMA",
        "originalCode": "042",
        "originalName": "ANSERMA",
        "MPIO_TIPO": "MUNICIPIO",
        "type": "MUNICIPIO",
        "unitType": "municipio",
        "MPIO_NAREA": 209.12217174,
        "MPIO_NANO": 2024,
        "MPIO_CRSLCION": "1882",
        "areaName": 209.12217174,
        "creationYear": 2024,
        "creationResolution": "1882",
        "resultType": "observed",
        "source": "dane-divipola-mgn-2025",
        "year": 2025
      }
    },
    {
      "type": "Feature",
      "id": 1922,
      "geometry": {
        "type": "Polygon",
        "coordinates": [
          [
            [
              -75.49097,
              5.3427
            ],
            [
              -75.54068,
              5.32767
            ],
            [
              -75.51779,
              5.30315
            ],
            [
              -75.51927,
              5.2734
            ],
            [
              -75.54943,
              5.25643
            ],
            [
              -75.55238,
              5.21144
            ],
            [
              -75.49242,
              5.2326
            ],
            [
              -75.45212,
              5.21221
            ],
            [
              -75.42123,
              5.23936
            ],
            [
              -75.3722,
              5.22177
            ],
            [
              -75.40719,
              5.29143
            ],
            [
              -75.4519,
              5.29056
            ],
            [
              -75.49097,
              5.3427
            ]
          ]
        ]
      },
      "properties": {
        "code": "17050",
        "departmentCode": "17",
        "name": "ARANZAZU",
        "originalCode": "050",
        "originalName": "ARANZAZU",
        "MPIO_TIPO": "MUNICIPIO",
        "type": "MUNICIPIO",
        "unitType": "municipio",
        "MPIO_NAREA": 149.52709773,
        "MPIO_NANO": 2024,
        "MPIO_CRSLCION": "Ordenanza 27 de Octubre 22 de 1855",
        "areaName": 149.52709773,
        "creationYear": 2024,
        "creationResolution": "Ordenanza 27 de Octubre 22 de 1855",
        "resultType": "observed",
        "source": "dane-divipola-mgn-2025",
        "year": 2025
      }
    },
    {
      "type": "Feature",
      "id": 1923,
      "geometry": {
        "type": "Polygon",
        "coordinates": [
          [
            [
              -75.80145,
              5.06889
            ],
            [
              -75.8639,
              5.0012
            ],
            [
              -75.85371,
              4.95557
            ],
            [
              -75.86712,
              4.93329
            ],
            [
              -75.81481,
              4.91944
            ],
            [
              -75.79241,
              4.93727
            ],
            [
              -75.78139,
              5.01038
            ],
            [
              -75.74332,
              5.05116
            ],
            [
              -75.80145,
              5.06889
            ]
          ]
        ]
      },
      "properties": {
        "code": "17088",
        "departmentCode": "17",
        "name": "BELALCÁZAR",
        "originalCode": "088",
        "originalName": "BELALCÁZAR",
        "MPIO_TIPO": "MUNICIPIO",
        "type": "MUNICIPIO",
        "unitType": "municipio",
        "MPIO_NAREA": 113.36904977,
        "MPIO_NANO": 2024,
        "MPIO_CRSLCION": "Ordenanza 17 de 1911",
        "areaName": 113.36904977,
        "creationYear": 2024,
        "creationResolution": "Ordenanza 17 de 1911",
        "resultType": "observed",
        "source": "dane-divipola-mgn-2025",
        "year": 2025
      }
    },
    {
      "type": "Feature",
      "id": 1924,
      "geometry": {
        "type": "Polygon",
        "coordinates": [
          [
            [
              -75.60252,
              5.0153
            ],
            [
              -75.62843,
              4.99071
            ],
            [
              -75.66696,
              5.00357
            ],
            [
              -75.67688,
              4.99386
            ],
            [
              -75.70946,
              5.03263
            ],
            [
              -75.71017,
              5.07753
            ],
            [
              -75.74681,
              5.04682
            ],
            [
              -75.69818,
              4.94385
            ],
            [
              -75.65545,
              4.94585
            ],
            [
              -75.63951,
              4.975
            ],
            [
              -75.62308,
              4.97096
            ],
            [
              -75.61706,
              4.93141
            ],
            [
              -75.57369,
              4.93344
            ],
            [
              -75.60252,
              5.0153
            ]
          ]
        ]
      },
      "properties": {
        "code": "17174",
        "departmentCode": "17",
        "name": "CHINCHINÁ",
        "originalCode": "174",
        "originalName": "CHINCHINÁ",
        "MPIO_TIPO": "MUNICIPIO",
        "type": "MUNICIPIO",
        "unitType": "municipio",
        "MPIO_NAREA": 109.34740592,
        "MPIO_NANO": 2025,
        "MPIO_CRSLCION": "Ordenanza 21 de Abril 26 de 1930",
        "areaName": 109.34740592,
        "creationYear": 2025,
        "creationResolution": "Ordenanza 21 de Abril 26 de 1930",
        "resultType": "observed",
        "source": "dane-divipola-mgn-2025",
        "year": 2025
      }
    },
    {
      "type": "Feature",
      "id": 1925,
      "geometry": {
        "type": "Polygon",
        "coordinates": [
          [
            [
              -75.54068,
              5.32767
            ],
            [
              -75.54221,
              5.35818
            ],
            [
              -75.59313,
              5.35338
            ],
            [
              -75.61049,
              5.37467
            ],
            [
              -75.63778,
              5.30623
            ],
            [
              -75.66679,
              5.27677
            ],
            [
              -75.64144,
              5.22491
            ],
            [
              -75.55428,
              5.20763
            ],
            [
              -75.54943,
              5.25643
            ],
            [
              -75.51927,
              5.2734
            ],
            [
              -75.51779,
              5.30315
            ],
            [
              -75.54068,
              5.32767
            ]
          ]
        ]
      },
      "properties": {
        "code": "17272",
        "departmentCode": "17",
        "name": "FILADELFIA",
        "originalCode": "272",
        "originalName": "FILADELFIA",
        "MPIO_TIPO": "MUNICIPIO",
        "type": "MUNICIPIO",
        "unitType": "municipio",
        "MPIO_NAREA": 192.55204294,
        "MPIO_NANO": 2024,
        "MPIO_CRSLCION": "Ley 253 de 1873",
        "areaName": 192.55204294,
        "creationYear": 2024,
        "creationResolution": "Ley 253 de 1873",
        "resultType": "observed",
        "source": "dane-divipola-mgn-2025",
        "year": 2025
      }
    },
    {
      "type": "Feature",
      "id": 1926,
      "geometry": {
        "type": "Polygon",
        "coordinates": [
          [
            [
              -74.67154,
              5.77147
            ],
            [
              -74.71393,
              5.77218
            ],
            [
              -74.72944,
              5.70647
            ],
            [
              -74.7515,
              5.69165
            ],
            [
              -74.73962,
              5.67916
            ],
            [
              -74.81312,
              5.60426
            ],
            [
              -74.81465,
              5.58729
            ],
            [
              -74.78202,
              5.57596
            ],
            [
              -74.71815,
              5.58517
            ],
            [
              -74.70068,
              5.56551
            ],
            [
              -74.72619,
              5.5635
            ],
            [
              -74.70643,
              5.51796
            ],
            [
              -74.75856,
              5.4724
            ],
            [
              -74.74078,
              5.45289
            ],
            [
              -74.79494,
              5.39827
            ],
            [
              -74.79385,
              5.36847
            ],
            [
              -74.76895,
              5.35622
            ],
            [
              -74.81349,
              5.31588
            ],
            [
              -74.75447,
              5.28171
            ],
            [
              -74.7147,
              5.31501
            ],
            [
              -74.70614,
              5.37158
            ],
            [
              -74.67852,
              5.37525
            ],
            [
              -74.68484,
              5.40024
            ],
            [
              -74.66581,
              5.40938
            ],
            [
              -74.67623,
              5.43839
            ],
            [
              -74.64935,
              5.44293
            ],
            [
              -74.67457,
              5.51465
            ],
            [
              -74.64101,
              5.54022
            ],
            [
              -74.65305,
              5.57472
            ],
            [
              -74.62851,
              5.63174
            ],
            [
              -74.62746,
              5.69604
            ],
            [
              -74.65196,
              5.70952
            ],
            [
              -74.67154,
              5.77147
            ]
          ]
        ]
      },
      "properties": {
        "code": "17380",
        "departmentCode": "17",
        "name": "LA DORADA",
        "originalCode": "380",
        "originalName": "LA DORADA",
        "MPIO_TIPO": "MUNICIPIO",
        "type": "MUNICIPIO",
        "unitType": "municipio",
        "MPIO_NAREA": 548.77944852,
        "MPIO_NANO": 2024,
        "MPIO_CRSLCION": "Ordenanza 43 de 1923",
        "areaName": 548.77944852,
        "creationYear": 2024,
        "creationResolution": "Ordenanza 43 de 1923",
        "resultType": "observed",
        "source": "dane-divipola-mgn-2025",
        "year": 2025
      }
    },
    {
      "type": "Feature",
      "id": 1927,
      "geometry": {
        "type": "Polygon",
        "coordinates": [
          [
            [
              -75.60759,
              5.37629
            ],
            [
              -75.59313,
              5.35338
            ],
            [
              -75.54221,
              5.35818
            ],
            [
              -75.54068,
              5.32767
            ],
            [
              -75.51113,
              5.33362
            ],
            [
              -75.53273,
              5.44252
            ],
            [
              -75.58176,
              5.45713
            ],
            [
              -75.60759,
              5.37629
            ]
          ]
        ]
      },
      "properties": {
        "code": "17388",
        "departmentCode": "17",
        "name": "LA MERCED",
        "originalCode": "388",
        "originalName": "LA MERCED",
        "MPIO_TIPO": "MUNICIPIO",
        "type": "MUNICIPIO",
        "unitType": "municipio",
        "MPIO_NAREA": 88.58102532,
        "MPIO_NANO": 2025,
        "MPIO_CRSLCION": "Ordenanza 1 de Octubre 21 de 1969",
        "areaName": 88.58102532,
        "creationYear": 2025,
        "creationResolution": "Ordenanza 1 de Octubre 21 de 1969",
        "resultType": "observed",
        "source": "dane-divipola-mgn-2025",
        "year": 2025
      }
    },
    {
      "type": "Feature",
      "id": 1928,
      "geometry": {
        "type": "Polygon",
        "coordinates": [
          [
            [
              -75.11849,
              5.3098
            ],
            [
              -75.1828,
              5.26673
            ],
            [
              -75.21001,
              5.28639
            ],
            [
              -75.24115,
              5.25428
            ],
            [
              -75.20562,
              5.17229
            ],
            [
              -75.11282,
              5.16314
            ],
            [
              -75.05984,
              5.27043
            ],
            [
              -75.10468,
              5.29323
            ],
            [
              -75.13032,
              5.28076
            ],
            [
              -75.11849,
              5.3098
            ]
          ]
        ]
      },
      "properties": {
        "code": "17433",
        "departmentCode": "17",
        "name": "MANZANARES",
        "originalCode": "433",
        "originalName": "MANZANARES",
        "MPIO_TIPO": "MUNICIPIO",
        "type": "MUNICIPIO",
        "unitType": "municipio",
        "MPIO_NAREA": 197.80451298,
        "MPIO_NANO": 2024,
        "MPIO_CRSLCION": "1888",
        "areaName": 197.80451298,
        "creationYear": 2024,
        "creationResolution": "1888",
        "resultType": "observed",
        "source": "dane-divipola-mgn-2025",
        "year": 2025
      }
    },
    {
      "type": "Feature",
      "id": 1929,
      "geometry": {
        "type": "Polygon",
        "coordinates": [
          [
            [
              -75.57823,
              5.51569
            ],
            [
              -75.64078,
              5.52934
            ],
            [
              -75.63154,
              5.50426
            ],
            [
              -75.61533,
              5.50155
            ],
            [
              -75.61487,
              5.45636
            ],
            [
              -75.59004,
              5.44611
            ],
            [
              -75.57823,
              5.51569
            ]
          ]
        ]
      },
      "properties": {
        "code": "17442",
        "departmentCode": "17",
        "name": "MARMATO",
        "originalCode": "442",
        "originalName": "MARMATO",
        "MPIO_TIPO": "MUNICIPIO",
        "type": "MUNICIPIO",
        "unitType": "municipio",
        "MPIO_NAREA": 36.85375223,
        "MPIO_NANO": 2025,
        "MPIO_CRSLCION": "1537",
        "areaName": 36.85375223,
        "creationYear": 2025,
        "creationResolution": "1537",
        "resultType": "observed",
        "source": "dane-divipola-mgn-2025",
        "year": 2025
      }
    },
    {
      "type": "Feature",
      "id": 1930,
      "geometry": {
        "type": "Polygon",
        "coordinates": [
          [
            [
              -74.96274,
              5.3422
            ],
            [
              -74.9916,
              5.34395
            ],
            [
              -75.00916,
              5.32372
            ],
            [
              -75.02055,
              5.34704
            ],
            [
              -75.08481,
              5.33211
            ],
            [
              -75.11475,
              5.31748
            ],
            [
              -75.13032,
              5.28076
            ],
            [
              -75.10468,
              5.29323
            ],
            [
              -75.06492,
              5.26803
            ],
            [
              -75.02804,
              5.28884
            ],
            [
              -74.9863,
              5.2887
            ],
            [
              -74.96815,
              5.29864
            ],
            [
              -74.96274,
              5.3422
            ]
          ]
        ]
      },
      "properties": {
        "code": "17444",
        "departmentCode": "17",
        "name": "MARQUETALIA",
        "originalCode": "444",
        "originalName": "MARQUETALIA",
        "MPIO_TIPO": "MUNICIPIO",
        "type": "MUNICIPIO",
        "unitType": "municipio",
        "MPIO_NAREA": 90.27740745,
        "MPIO_NANO": 2024,
        "MPIO_CRSLCION": "Ordenanza 32 de Abril 26 de 1924",
        "areaName": 90.27740745,
        "creationYear": 2024,
        "creationResolution": "Ordenanza 32 de Abril 26 de 1924",
        "resultType": "observed",
        "source": "dane-divipola-mgn-2025",
        "year": 2025
      }
    },
    {
      "type": "Feature",
      "id": 1931,
      "geometry": {
        "type": "Polygon",
        "coordinates": [
          [
            [
              -75.23991,
              5.3772
            ],
            [
              -75.28576,
              5.33568
            ],
            [
              -75.34859,
              5.32922
            ],
            [
              -75.3722,
              5.22177
            ],
            [
              -75.35955,
              5.19807
            ],
            [
              -75.32074,
              5.18366
            ],
            [
              -75.31808,
              5.13643
            ],
            [
              -75.32691,
              5.1118
            ],
            [
              -75.36487,
              5.09295
            ],
            [
              -75.37006,
              5.06399
            ],
            [
              -75.35496,
              5.05031
            ],
            [
              -75.33832,
              5.04497
            ],
            [
              -75.34475,
              5.08078
            ],
            [
              -75.28767,
              5.13846
            ],
            [
              -75.23502,
              5.126
            ],
            [
              -75.19823,
              5.16218
            ],
            [
              -75.16715,
              5.16943
            ],
            [
              -75.20949,
              5.17528
            ],
            [
              -75.24305,
              5.23751
            ],
            [
              -75.2051,
              5.30413
            ],
            [
              -75.21083,
              5.3508
            ],
            [
              -75.23991,
              5.3772
            ]
          ]
        ]
      },
      "properties": {
        "code": "17446",
        "departmentCode": "17",
        "name": "MARULANDA",
        "originalCode": "446",
        "originalName": "MARULANDA",
        "MPIO_TIPO": "MUNICIPIO",
        "type": "MUNICIPIO",
        "unitType": "municipio",
        "MPIO_NAREA": 376.09137899,
        "MPIO_NANO": 2024,
        "MPIO_CRSLCION": "1887",
        "areaName": 376.09137899,
        "creationYear": 2024,
        "creationResolution": "1887",
        "resultType": "observed",
        "source": "dane-divipola-mgn-2025",
        "year": 2025
      }
    },
    {
      "type": "Feature",
      "id": 1932,
      "geometry": {
        "type": "Polygon",
        "coordinates": [
          [
            [
              -75.35289,
              5.13638
            ],
            [
              -75.34939,
              5.10913
            ],
            [
              -75.32691,
              5.1118
            ],
            [
              -75.32074,
              5.18366
            ],
            [
              -75.41614,
              5.23946
            ],
            [
              -75.45212,
              5.21221
            ],
            [
              -75.49242,
              5.2326
            ],
            [
              -75.57419,
              5.20334
            ],
            [
              -75.60985,
              5.22631
            ],
            [
              -75.64144,
              5.22491
            ],
            [
              -75.66516,
              5.27566
            ],
            [
              -75.69777,
              5.25158
            ],
            [
              -75.6942,
              5.18371
            ],
            [
              -75.66407,
              5.17888
            ],
            [
              -75.64598,
              5.15174
            ],
            [
              -75.5636,
              5.1569
            ],
            [
              -75.52554,
              5.11323
            ],
            [
              -75.49122,
              5.14488
            ],
            [
              -75.4402,
              5.12259
            ],
            [
              -75.40895,
              5.14707
            ],
            [
              -75.35289,
              5.13638
            ]
          ]
        ]
      },
      "properties": {
        "code": "17486",
        "departmentCode": "17",
        "name": "NEIRA",
        "originalCode": "486",
        "originalName": "NEIRA",
        "MPIO_TIPO": "MUNICIPIO",
        "type": "MUNICIPIO",
        "unitType": "municipio",
        "MPIO_NAREA": 369.21758228,
        "MPIO_NANO": 2025,
        "MPIO_CRSLCION": "1844",
        "areaName": 369.21758228,
        "creationYear": 2025,
        "creationResolution": "1844",
        "resultType": "observed",
        "source": "dane-divipola-mgn-2025",
        "year": 2025
      }
    },
    {
      "type": "Feature",
      "id": 1933,
      "geometry": {
        "type": "Polygon",
        "coordinates": [
          [
            [
              -74.87024,
              5.74708
            ],
            [
              -74.88898,
              5.72624
            ],
            [
              -74.86088,
              5.6702
            ],
            [
              -74.88033,
              5.62923
            ],
            [
              -74.9046,
              5.61945
            ],
            [
              -74.91086,
              5.63853
            ],
            [
              -74.93575,
              5.62244
            ],
            [
              -74.93443,
              5.5758
            ],
            [
              -74.97191,
              5.54802
            ],
            [
              -74.9346,
              5.52879
            ],
            [
              -74.90281,
              5.56508
            ],
            [
              -74.86345,
              5.5684
            ],
            [
              -74.79313,
              5.61391
            ],
            [
              -74.77985,
              5.6506
            ],
            [
              -74.73959,
              5.67923
            ],
            [
              -74.75162,
              5.69108
            ],
            [
              -74.73912,
              5.6993
            ],
            [
              -74.80533,
              5.69847
            ],
            [
              -74.84092,
              5.7383
            ],
            [
              -74.87024,
              5.74708
            ]
          ]
        ]
      },
      "properties": {
        "code": "17495",
        "departmentCode": "17",
        "name": "NORCASIA",
        "originalCode": "495",
        "originalName": "NORCASIA",
        "MPIO_TIPO": "MUNICIPIO",
        "type": "MUNICIPIO",
        "unitType": "municipio",
        "MPIO_NAREA": 227.37857624,
        "MPIO_NANO": 2024,
        "MPIO_CRSLCION": "Ordenanza 327 del 30 de Junio de 1999",
        "areaName": 227.37857624,
        "creationYear": 2024,
        "creationResolution": "Ordenanza 327 del 30 de Junio de 1999",
        "resultType": "observed",
        "source": "dane-divipola-mgn-2025",
        "year": 2025
      }
    },
    {
      "type": "Feature",
      "id": 1934,
      "geometry": {
        "type": "Polygon",
        "coordinates": [
          [
            [
              -75.49051,
              5.57714
            ],
            [
              -75.51686,
              5.58196
            ],
            [
              -75.57129,
              5.54383
            ],
            [
              -75.58205,
              5.4575
            ],
            [
              -75.55035,
              5.44002
            ],
            [
              -75.5319,
              5.44253
            ],
            [
              -75.52157,
              5.46683
            ],
            [
              -75.49349,
              5.44378
            ],
            [
              -75.43856,
              5.45224
            ],
            [
              -75.38084,
              5.41969
            ],
            [
              -75.37266,
              5.49633
            ],
            [
              -75.40897,
              5.50507
            ],
            [
              -75.43033,
              5.55585
            ],
            [
              -75.467,
              5.5526
            ],
            [
              -75.49051,
              5.57714
            ]
          ]
        ]
      },
      "properties": {
        "code": "17513",
        "departmentCode": "17",
        "name": "PÁCORA",
        "originalCode": "513",
        "originalName": "PÁCORA",
        "MPIO_TIPO": "MUNICIPIO",
        "type": "MUNICIPIO",
        "unitType": "municipio",
        "MPIO_NAREA": 257.192554,
        "MPIO_NANO": 2024,
        "MPIO_CRSLCION": "1934",
        "areaName": 257.192554,
        "creationYear": 2024,
        "creationResolution": "1934",
        "resultType": "observed",
        "source": "dane-divipola-mgn-2025",
        "year": 2025
      }
    },
    {
      "type": "Feature",
      "id": 1935,
      "geometry": {
        "type": "Polygon",
        "coordinates": [
          [
            [
              -75.6122,
              5.06189
            ],
            [
              -75.66724,
              5.07819
            ],
            [
              -75.67741,
              5.14142
            ],
            [
              -75.70423,
              5.12509
            ],
            [
              -75.69653,
              5.09159
            ],
            [
              -75.71146,
              5.03812
            ],
            [
              -75.67688,
              4.99386
            ],
            [
              -75.66696,
              5.00357
            ],
            [
              -75.62843,
              4.99071
            ],
            [
              -75.60576,
              5.00552
            ],
            [
              -75.59663,
              5.0459
            ],
            [
              -75.6122,
              5.06189
            ]
          ]
        ]
      },
      "properties": {
        "code": "17524",
        "departmentCode": "17",
        "name": "PALESTINA",
        "originalCode": "524",
        "originalName": "PALESTINA",
        "MPIO_TIPO": "MUNICIPIO",
        "type": "MUNICIPIO",
        "unitType": "municipio",
        "MPIO_NAREA": 112.22255293,
        "MPIO_NANO": 2025,
        "MPIO_CRSLCION": "Ordenanza 19 de 15 de Abril de 1913",
        "areaName": 112.22255293,
        "creationYear": 2025,
        "creationResolution": "Ordenanza 19 de 15 de Abril de 1913",
        "resultType": "observed",
        "source": "dane-divipola-mgn-2025",
        "year": 2025
      }
    },
    {
      "type": "Feature",
      "id": 1936,
      "geometry": {
        "type": "Polygon",
        "coordinates": [
          [
            [
              -75.12096,
              5.54163
            ],
            [
              -75.22057,
              5.50307
            ],
            [
              -75.27593,
              5.41856
            ],
            [
              -75.28258,
              5.47569
            ],
            [
              -75.31626,
              5.46116
            ],
            [
              -75.2817,
              5.43946
            ],
            [
              -75.28068,
              5.41677
            ],
            [
              -75.31586,
              5.38045
            ],
            [
              -75.313,
              5.36482
            ],
            [
              -75.2818,
              5.33932
            ],
            [
              -75.23786,
              5.37737
            ],
            [
              -75.21059,
              5.35022
            ],
            [
              -75.21001,
              5.28639
            ],
            [
              -75.19423,
              5.26639
            ],
            [
              -75.11325,
              5.31906
            ],
            [
              -75.0345,
              5.34334
            ],
            [
              -75.0371,
              5.38005
            ],
            [
              -75.07953,
              5.40602
            ],
            [
              -75.08398,
              5.50592
            ],
            [
              -75.10478,
              5.49938
            ],
            [
              -75.10087,
              5.52667
            ],
            [
              -75.12096,
              5.54163
            ]
          ]
        ]
      },
      "properties": {
        "code": "17541",
        "departmentCode": "17",
        "name": "PENSILVANIA",
        "originalCode": "541",
        "originalName": "PENSILVANIA",
        "MPIO_TIPO": "MUNICIPIO",
        "type": "MUNICIPIO",
        "unitType": "municipio",
        "MPIO_NAREA": 498.96002747,
        "MPIO_NANO": 2024,
        "MPIO_CRSLCION": "1911",
        "areaName": 498.96002747,
        "creationYear": 2024,
        "creationResolution": "1911",
        "resultType": "observed",
        "source": "dane-divipola-mgn-2025",
        "year": 2025
      }
    },
    {
      "type": "Feature",
      "id": 1937,
      "geometry": {
        "type": "Polygon",
        "coordinates": [
          [
            [
              -75.71435,
              5.54793
            ],
            [
              -75.73027,
              5.5641
            ],
            [
              -75.78517,
              5.54033
            ],
            [
              -75.83249,
              5.48884
            ],
            [
              -75.86353,
              5.5055
            ],
            [
              -75.85064,
              5.41248
            ],
            [
              -75.86068,
              5.37171
            ],
            [
              -75.80917,
              5.36213
            ],
            [
              -75.72523,
              5.39714
            ],
            [
              -75.66617,
              5.354
            ],
            [
              -75.65985,
              5.31876
            ],
            [
              -75.63943,
              5.30445
            ],
            [
              -75.6098,
              5.37506
            ],
            [
              -75.64617,
              5.37992
            ],
            [
              -75.67081,
              5.4162
            ],
            [
              -75.67648,
              5.5035
            ],
            [
              -75.7018,
              5.51669
            ],
            [
              -75.71435,
              5.54793
            ]
          ]
        ]
      },
      "properties": {
        "code": "17614",
        "departmentCode": "17",
        "name": "RIOSUCIO",
        "originalCode": "614",
        "originalName": "RIOSUCIO",
        "MPIO_TIPO": "MUNICIPIO",
        "type": "MUNICIPIO",
        "unitType": "municipio",
        "MPIO_NAREA": 384.11145162,
        "MPIO_NANO": 2025,
        "MPIO_CRSLCION": "1846",
        "areaName": 384.11145162,
        "creationYear": 2025,
        "creationResolution": "1846",
        "resultType": "observed",
        "source": "dane-divipola-mgn-2025",
        "year": 2025
      }
    },
    {
      "type": "Feature",
      "id": 1938,
      "geometry": {
        "type": "Polygon",
        "coordinates": [
          [
            [
              -75.76911,
              5.10475
            ],
            [
              -75.77413,
              5.06274
            ],
            [
              -75.74332,
              5.05106
            ],
            [
              -75.69653,
              5.09159
            ],
            [
              -75.70864,
              5.12076
            ],
            [
              -75.72195,
              5.11699
            ],
            [
              -75.76019,
              5.15675
            ],
            [
              -75.74651,
              5.17348
            ],
            [
              -75.76251,
              5.17613
            ],
            [
              -75.79479,
              5.16418
            ],
            [
              -75.78973,
              5.14271
            ],
            [
              -75.83888,
              5.10764
            ],
            [
              -75.84416,
              5.08426
            ],
            [
              -75.83316,
              5.0774
            ],
            [
              -75.82111,
              5.10675
            ],
            [
              -75.7933,
              5.10824
            ],
            [
              -75.80231,
              5.12602
            ],
            [
              -75.76911,
              5.10475
            ]
          ]
        ]
      },
      "properties": {
        "code": "17616",
        "departmentCode": "17",
        "name": "RISARALDA",
        "originalCode": "616",
        "originalName": "RISARALDA",
        "MPIO_TIPO": "MUNICIPIO",
        "type": "MUNICIPIO",
        "unitType": "municipio",
        "MPIO_NAREA": 89.87822097,
        "MPIO_NANO": 2025,
        "MPIO_CRSLCION": "1916",
        "areaName": 89.87822097,
        "creationYear": 2025,
        "creationResolution": "1916",
        "resultType": "observed",
        "source": "dane-divipola-mgn-2025",
        "year": 2025
      }
    },
    {
      "type": "Feature",
      "id": 1939,
      "geometry": {
        "type": "Polygon",
        "coordinates": [
          [
            [
              -75.51908,
              5.46563
            ],
            [
              -75.53231,
              5.43905
            ],
            [
              -75.51113,
              5.33362
            ],
            [
              -75.49352,
              5.34737
            ],
            [
              -75.48779,
              5.32194
            ],
            [
              -75.4521,
              5.29069
            ],
            [
              -75.40719,
              5.29143
            ],
            [
              -75.3722,
              5.22177
            ],
            [
              -75.34832,
              5.32959
            ],
            [
              -75.2818,
              5.33932
            ],
            [
              -75.31671,
              5.37806
            ],
            [
              -75.28121,
              5.41102
            ],
            [
              -75.2817,
              5.43946
            ],
            [
              -75.31482,
              5.46097
            ],
            [
              -75.33861,
              5.42866
            ],
            [
              -75.38084,
              5.41969
            ],
            [
              -75.43856,
              5.45224
            ],
            [
              -75.4919,
              5.44352
            ],
            [
              -75.51908,
              5.46563
            ]
          ]
        ]
      },
      "properties": {
        "code": "17653",
        "departmentCode": "17",
        "name": "SALAMINA",
        "originalCode": "653",
        "originalName": "SALAMINA",
        "MPIO_TIPO": "MUNICIPIO",
        "type": "MUNICIPIO",
        "unitType": "municipio",
        "MPIO_NAREA": 387.95879106,
        "MPIO_NANO": 2024,
        "MPIO_CRSLCION": "1825",
        "areaName": 387.95879106,
        "creationYear": 2024,
        "creationResolution": "1825",
        "resultType": "observed",
        "source": "dane-divipola-mgn-2025",
        "year": 2025
      }
    },
    {
      "type": "Feature",
      "id": 1940,
      "geometry": {
        "type": "Polygon",
        "coordinates": [
          [
            [
              -74.87986,
              5.73912
            ],
            [
              -74.99305,
              5.71543
            ],
            [
              -75.01056,
              5.6811
            ],
            [
              -75.08724,
              5.66072
            ],
            [
              -75.09918,
              5.64232
            ],
            [
              -75.09142,
              5.58555
            ],
            [
              -75.13299,
              5.54674
            ],
            [
              -75.10102,
              5.52701
            ],
            [
              -75.10464,
              5.49924
            ],
            [
              -75.08398,
              5.50592
            ],
            [
              -75.0785,
              5.40295
            ],
            [
              -75.0394,
              5.38298
            ],
            [
              -75.0394,
              5.34842
            ],
            [
              -75.01996,
              5.34678
            ],
            [
              -75.01531,
              5.32519
            ],
            [
              -74.99102,
              5.34415
            ],
            [
              -74.95316,
              5.34082
            ],
            [
              -74.91354,
              5.40198
            ],
            [
              -74.91861,
              5.46436
            ],
            [
              -74.88997,
              5.55832
            ],
            [
              -74.90378,
              5.56443
            ],
            [
              -74.93425,
              5.52878
            ],
            [
              -74.97191,
              5.54802
            ],
            [
              -74.93443,
              5.5758
            ],
            [
              -74.93575,
              5.62244
            ],
            [
              -74.91086,
              5.63853
            ],
            [
              -74.9046,
              5.61945
            ],
            [
              -74.8803,
              5.62929
            ],
            [
              -74.86088,
              5.6702
            ],
            [
              -74.88862,
              5.7188
            ],
            [
              -74.87986,
              5.73912
            ]
          ]
        ]
      },
      "properties": {
        "code": "17662",
        "departmentCode": "17",
        "name": "SAMANÁ",
        "originalCode": "662",
        "originalName": "SAMANÁ",
        "MPIO_TIPO": "MUNICIPIO",
        "type": "MUNICIPIO",
        "unitType": "municipio",
        "MPIO_NAREA": 757.68422873,
        "MPIO_NANO": 2024,
        "MPIO_CRSLCION": "Decreto 1181 de Octubre 20 de 1908",
        "areaName": 757.68422873,
        "creationYear": 2024,
        "creationResolution": "Decreto 1181 de Octubre 20 de 1908",
        "resultType": "observed",
        "source": "dane-divipola-mgn-2025",
        "year": 2025
      }
    },
    {
      "type": "Feature",
      "id": 1941,
      "geometry": {
        "type": "Polygon",
        "coordinates": [
          [
            [
              -75.76911,
              5.10475
            ],
            [
              -75.80231,
              5.12602
            ],
            [
              -75.7933,
              5.10824
            ],
            [
              -75.82111,
              5.10675
            ],
            [
              -75.82958,
              5.08006
            ],
            [
              -75.84642,
              5.08216
            ],
            [
              -75.85889,
              5.00434
            ],
            [
              -75.80233,
              5.06892
            ],
            [
              -75.77398,
              5.06304
            ],
            [
              -75.76911,
              5.10475
            ]
          ]
        ]
      },
      "properties": {
        "code": "17665",
        "departmentCode": "17",
        "name": "SAN JOSÉ",
        "originalCode": "665",
        "originalName": "SAN JOSÉ",
        "MPIO_TIPO": "MUNICIPIO",
        "type": "MUNICIPIO",
        "unitType": "municipio",
        "MPIO_NAREA": 60.9360233,
        "MPIO_NANO": 2025,
        "MPIO_CRSLCION": "ORD 233 DE DICIEMBRE 17 DE 1997",
        "areaName": 60.9360233,
        "creationYear": 2025,
        "creationResolution": "ORD 233 DE DICIEMBRE 17 DE 1997",
        "resultType": "observed",
        "source": "dane-divipola-mgn-2025",
        "year": 2025
      }
    },
    {
      "type": "Feature",
      "id": 1942,
      "geometry": {
        "type": "Polygon",
        "coordinates": [
          [
            [
              -75.69375,
              5.52726
            ],
            [
              -75.70427,
              5.53754
            ],
            [
              -75.7018,
              5.51669
            ],
            [
              -75.67648,
              5.5035
            ],
            [
              -75.67081,
              5.4162
            ],
            [
              -75.64617,
              5.37992
            ],
            [
              -75.6087,
              5.37549
            ],
            [
              -75.58479,
              5.44531
            ],
            [
              -75.61487,
              5.45636
            ],
            [
              -75.61533,
              5.50155
            ],
            [
              -75.63154,
              5.50426
            ],
            [
              -75.6421,
              5.53079
            ],
            [
              -75.69375,
              5.52726
            ]
          ]
        ]
      },
      "properties": {
        "code": "17777",
        "departmentCode": "17",
        "name": "SUPÍA",
        "originalCode": "777",
        "originalName": "SUPÍA",
        "MPIO_TIPO": "MUNICIPIO",
        "type": "MUNICIPIO",
        "unitType": "municipio",
        "MPIO_NAREA": 121.41987547,
        "MPIO_NANO": 2025,
        "MPIO_CRSLCION": "1540",
        "areaName": 121.41987547,
        "creationYear": 2025,
        "creationResolution": "1540",
        "resultType": "observed",
        "source": "dane-divipola-mgn-2025",
        "year": 2025
      }
    },
    {
      "type": "Feature",
      "id": 1943,
      "geometry": {
        "type": "Polygon",
        "coordinates": [
          [
            [
              -74.82008,
              5.60631
            ],
            [
              -74.89311,
              5.55308
            ],
            [
              -74.91861,
              5.46436
            ],
            [
              -74.91354,
              5.40198
            ],
            [
              -74.96408,
              5.34166
            ],
            [
              -74.97064,
              5.30164
            ],
            [
              -74.93129,
              5.31293
            ],
            [
              -74.87282,
              5.29491
            ],
            [
              -74.82695,
              5.31934
            ],
            [
              -74.78992,
              5.29856
            ],
            [
              -74.79127,
              5.31437
            ],
            [
              -74.81349,
              5.31588
            ],
            [
              -74.76895,
              5.35622
            ],
            [
              -74.79385,
              5.36847
            ],
            [
              -74.79494,
              5.39827
            ],
            [
              -74.74078,
              5.45289
            ],
            [
              -74.75856,
              5.4724
            ],
            [
              -74.70643,
              5.51796
            ],
            [
              -74.72619,
              5.5635
            ],
            [
              -74.70068,
              5.56549
            ],
            [
              -74.71815,
              5.58517
            ],
            [
              -74.78202,
              5.57596
            ],
            [
              -74.81465,
              5.58729
            ],
            [
              -74.82008,
              5.60631
            ]
          ]
        ]
      },
      "properties": {
        "code": "17867",
        "departmentCode": "17",
        "name": "VICTORIA",
        "originalCode": "867",
        "originalName": "VICTORIA",
        "MPIO_TIPO": "MUNICIPIO",
        "type": "MUNICIPIO",
        "unitType": "municipio",
        "MPIO_NAREA": 558.46584794,
        "MPIO_NANO": 2024,
        "MPIO_CRSLCION": "1907",
        "areaName": 558.46584794,
        "creationYear": 2024,
        "creationResolution": "1907",
        "resultType": "observed",
        "source": "dane-divipola-mgn-2025",
        "year": 2025
      }
    },
    {
      "type": "Feature",
      "id": 1944,
      "geometry": {
        "type": "Polygon",
        "coordinates": [
          [
            [
              -75.51004,
              5.0504
            ],
            [
              -75.53498,
              5.03145
            ],
            [
              -75.53636,
              5.00546
            ],
            [
              -75.58775,
              4.9842
            ],
            [
              -75.58617,
              4.9404
            ],
            [
              -75.53746,
              4.91653
            ],
            [
              -75.48009,
              4.91646
            ],
            [
              -75.42687,
              4.81639
            ],
            [
              -75.3755,
              4.80268
            ],
            [
              -75.32359,
              4.86577
            ],
            [
              -75.31901,
              4.89291
            ],
            [
              -75.34126,
              4.90885
            ],
            [
              -75.35351,
              4.96262
            ],
            [
              -75.32969,
              4.98494
            ],
            [
              -75.31941,
              5.03294
            ],
            [
              -75.33312,
              5.04018
            ],
            [
              -75.33213,
              5.017
            ],
            [
              -75.35311,
              5.01174
            ],
            [
              -75.38131,
              5.0264
            ],
            [
              -75.47488,
              5.0274
            ],
            [
              -75.51004,
              5.0504
            ]
          ]
        ]
      },
      "properties": {
        "code": "17873",
        "departmentCode": "17",
        "name": "VILLAMARÍA",
        "originalCode": "873",
        "originalName": "VILLAMARÍA",
        "MPIO_TIPO": "MUNICIPIO",
        "type": "MUNICIPIO",
        "unitType": "municipio",
        "MPIO_NAREA": 454.9145881,
        "MPIO_NANO": 2024,
        "MPIO_CRSLCION": "1852",
        "areaName": 454.9145881,
        "creationYear": 2024,
        "creationResolution": "1852",
        "resultType": "observed",
        "source": "dane-divipola-mgn-2025",
        "year": 2025
      }
    },
    {
      "type": "Feature",
      "id": 1945,
      "geometry": {
        "type": "Polygon",
        "coordinates": [
          [
            [
              -75.87308,
              5.13019
            ],
            [
              -75.89988,
              5.11844
            ],
            [
              -75.92251,
              5.04492
            ],
            [
              -75.90387,
              5.02362
            ],
            [
              -75.89216,
              4.96153
            ],
            [
              -75.86362,
              4.94171
            ],
            [
              -75.84743,
              5.0792
            ],
            [
              -75.83888,
              5.10764
            ],
            [
              -75.81129,
              5.11697
            ],
            [
              -75.84585,
              5.10558
            ],
            [
              -75.87308,
              5.13019
            ]
          ]
        ]
      },
      "properties": {
        "code": "17877",
        "departmentCode": "17",
        "name": "VITERBO",
        "originalCode": "877",
        "originalName": "VITERBO",
        "MPIO_TIPO": "MUNICIPIO",
        "type": "MUNICIPIO",
        "unitType": "municipio",
        "MPIO_NAREA": 112.86864805,
        "MPIO_NANO": 2024,
        "MPIO_CRSLCION": "Decreto 826 de Diciembre 31 de  1951",
        "areaName": 112.86864805,
        "creationYear": 2024,
        "creationResolution": "Decreto 826 de Diciembre 31 de  1951",
        "resultType": "observed",
        "source": "dane-divipola-mgn-2025",
        "year": 2025
      }
    }
  ]
}
