{
  "type": "FeatureCollection",
  "metadata": {
    "source": "DANE DIVIPOLA MGN 2025",
    "downloadedAt": "2026-07-25T07:50:10Z",
    "crs": "EPSG:4326",
    "simplification": "ArcGIS maxAllowableOffset=0.01 grados y geometryPrecision=5; solo visualización web"
  },
  "features": [
    {
      "type": "Feature",
      "id": 1946,
      "geometry": {
        "type": "Polygon",
        "coordinates": [
          [
            [
              -75.47547,
              1.5138
            ],
            [
              -75.48557,
              1.59459
            ],
            [
              -75.44105,
              1.69213
            ],
            [
              -75.41847,
              1.6992
            ],
            [
              -75.43491,
              1.71366
            ],
            [
              -75.41765,
              1.74094
            ],
            [
              -75.42745,
              1.75678
            ],
            [
              -75.40523,
              1.76696
            ],
            [
              -75.40842,
              1.80902
            ],
            [
              -75.37538,
              1.82874
            ],
            [
              -75.35493,
              1.86669
            ],
            [
              -75.34126,
              1.97317
            ],
            [
              -75.35429,
              1.99002
            ],
            [
              -75.39268,
              1.99541
            ],
            [
              -75.37759,
              2.05974
            ],
            [
              -75.39301,
              2.08775
            ],
            [
              -75.38367,
              2.12493
            ],
            [
              -75.4257,
              2.19504
            ],
            [
              -75.4444,
              2.14455
            ],
            [
              -75.53498,
              2.11766
            ],
            [
              -75.58806,
              2.01112
            ],
            [
              -75.64104,
              1.95803
            ],
            [
              -75.65176,
              1.90105
            ],
            [
              -75.701,
              1.86786
            ],
            [
              -75.73715,
              1.78246
            ],
            [
              -75.78566,
              1.76323
            ],
            [
              -75.78658,
              1.7262
            ],
            [
              -75.77283,
              1.72355
            ],
            [
              -75.75809,
              1.67812
            ],
            [
              -75.80514,
              1.61536
            ],
            [
              -75.78261,
              1.59493
            ],
            [
              -75.78751,
              1.57706
            ],
            [
              -75.77363,
              1.58284
            ],
            [
              -75.76967,
              1.56051
            ],
            [
              -75.73738,
              1.53442
            ],
            [
              -75.73338,
              1.48881
            ],
            [
              -75.70508,
              1.50871
            ],
            [
              -75.6955,
              1.48856
            ],
            [
              -75.66355,
              1.49643
            ],
            [
              -75.6335,
              1.44127
            ],
            [
              -75.60033,
              1.42286
            ],
            [
              -75.58919,
              1.38469
            ],
            [
              -75.60307,
              1.36227
            ],
            [
              -75.57581,
              1.32191
            ],
            [
              -75.47728,
              1.34616
            ],
            [
              -75.4561,
              1.4536
            ],
            [
              -75.47547,
              1.5138
            ]
          ]
        ]
      },
      "properties": {
        "code": "18001",
        "departmentCode": "18",
        "name": "FLORENCIA",
        "resultType": "observed",
        "source": "dane-divipola-mgn-2025",
        "year": 2025
      }
    },
    {
      "type": "Feature",
      "id": 1947,
      "geometry": {
        "type": "Polygon",
        "coordinates": [
          [
            [
              -75.89531,
              1.36574
            ],
            [
              -75.94761,
              1.32489
            ],
            [
              -75.99049,
              1.25532
            ],
            [
              -75.95562,
              1.18191
            ],
            [
              -75.91139,
              1.1511
            ],
            [
              -75.91929,
              1.09493
            ],
            [
              -75.81408,
              1.11136
            ],
            [
              -75.8102,
              1.17255
            ],
            [
              -75.77774,
              1.16588
            ],
            [
              -75.75543,
              1.18693
            ],
            [
              -75.82166,
              1.2519
            ],
            [
              -75.82204,
              1.28666
            ],
            [
              -75.85368,
              1.34181
            ],
            [
              -75.89531,
              1.36574
            ]
          ]
        ]
      },
      "properties": {
        "code": "18029",
        "departmentCode": "18",
        "name": "ALBANIA",
        "resultType": "observed",
        "source": "dane-divipola-mgn-2025",
        "year": 2025
      }
    },
    {
      "type": "Feature",
      "id": 1948,
      "geometry": {
        "type": "Polygon",
        "coordinates": [
          [
            [
              -75.78705,
              1.74982
            ],
            [
              -75.78566,
              1.76323
            ],
            [
              -75.83032,
              1.7474
            ],
            [
              -75.84402,
              1.72265
            ],
            [
              -75.91224,
              1.71196
            ],
            [
              -75.95265,
              1.6638
            ],
            [
              -75.97999,
              1.65759
            ],
            [
              -75.98343,
              1.62133
            ],
            [
              -76.03438,
              1.58277
            ],
            [
              -76.08745,
              1.57715
            ],
            [
              -76.10261,
              1.52084
            ],
            [
              -76.07643,
              1.50427
            ],
            [
              -76.02541,
              1.52912
            ],
            [
              -76.00344,
              1.49487
            ],
            [
              -76.0144,
              1.47353
            ],
            [
              -75.99259,
              1.41746
            ],
            [
              -75.91949,
              1.3584
            ],
            [
              -75.89096,
              1.36673
            ],
            [
              -75.85731,
              1.34571
            ],
            [
              -75.7951,
              1.21484
            ],
            [
              -75.74042,
              1.18702
            ],
            [
              -75.71625,
              1.20605
            ],
            [
              -75.75429,
              1.29998
            ],
            [
              -75.73662,
              1.42002
            ],
            [
              -75.77723,
              1.45605
            ],
            [
              -75.7824,
              1.52844
            ],
            [
              -75.80855,
              1.53386
            ],
            [
              -75.77889,
              1.58261
            ],
            [
              -75.78772,
              1.57736
            ],
            [
              -75.7826,
              1.5949
            ],
            [
              -75.80555,
              1.60672
            ],
            [
              -75.80315,
              1.62204
            ],
            [
              -75.75809,
              1.67812
            ],
            [
              -75.78705,
              1.74982
            ]
          ]
        ]
      },
      "properties": {
        "code": "18094",
        "departmentCode": "18",
        "name": "BELÉN DE LOS ANDAQUÍES",
        "resultType": "observed",
        "source": "dane-divipola-mgn-2025",
        "year": 2025
      }
    },
    {
      "type": "Feature",
      "id": 1949,
      "geometry": {
        "type": "Polygon",
        "coordinates": [
          [
            [
              -74.78722,
              1.56737
            ],
            [
              -74.80433,
              1.54928
            ],
            [
              -74.79087,
              1.54103
            ],
            [
              -74.80261,
              1.48639
            ],
            [
              -74.79066,
              1.48063
            ],
            [
              -74.80871,
              1.47538
            ],
            [
              -74.79403,
              1.44017
            ],
            [
              -74.81089,
              1.39808
            ],
            [
              -74.82373,
              1.40831
            ],
            [
              -74.82603,
              1.3917
            ],
            [
              -74.8692,
              1.38755
            ],
            [
              -74.87513,
              1.41185
            ],
            [
              -74.91005,
              1.40036
            ],
            [
              -74.90743,
              1.41816
            ],
            [
              -74.96431,
              1.44356
            ],
            [
              -75.02015,
              1.39966
            ],
            [
              -75.05956,
              1.38643
            ],
            [
              -75.08136,
              1.39884
            ],
            [
              -75.06625,
              1.3727
            ],
            [
              -75.08092,
              1.25836
            ],
            [
              -75.02181,
              1.22396
            ],
            [
              -75.02827,
              1.18344
            ],
            [
              -74.95117,
              1.09454
            ],
            [
              -74.951,
              1.05626
            ],
            [
              -74.89575,
              0.9935
            ],
            [
              -74.90015,
              0.9678
            ],
            [
              -74.86254,
              0.93247
            ],
            [
              -74.8653,
              0.91385
            ],
            [
              -74.81586,
              0.86796
            ],
            [
              -74.82478,
              0.81388
            ],
            [
              -74.8531,
              0.79103
            ],
            [
              -74.81911,
              0.7379
            ],
            [
              -74.83169,
              0.73181
            ],
            [
              -74.8325,
              0.69707
            ],
            [
              -74.81246,
              0.68447
            ],
            [
              -74.81533,
              0.66662
            ],
            [
              -74.8038,
              0.67357
            ],
            [
              -74.79642,
              0.64868
            ],
            [
              -74.76697,
              0.64305
            ],
            [
              -74.7519,
              0.62039
            ],
            [
              -74.71175,
              0.62197
            ],
            [
              -74.64179,
              0.52724
            ],
            [
              -74.6316,
              0.465
            ],
            [
              -74.59044,
              0.39734
            ],
            [
              -74.59381,
              0.35229
            ],
            [
              -74.55499,
              0.33008
            ],
            [
              -74.5137,
              0.17092
            ],
            [
              -73.86157,
              0.16923
            ],
            [
              -73.84281,
              0.15752
            ],
            [
              -73.83615,
              0.1271
            ],
            [
              -73.76036,
              0.07802
            ],
            [
              -73.73337,
              0.07792
            ],
            [
              -73.69832,
              0.10633
            ],
            [
              -73.69099,
              0.0848
            ],
            [
              -73.65689,
              0.10094
            ],
            [
              -73.64446,
              0.07118
            ],
            [
              -73.60766,
              0.06407
            ],
            [
              -73.54816,
              0.07313
            ],
            [
              -73.49403,
              0.11541
            ],
            [
              -73.48978,
              0.10445
            ],
            [
              -73.46495,
              0.11461
            ],
            [
              -73.45494,
              0.09043
            ],
            [
              -73.41859,
              0.09818
            ],
            [
              -73.42155,
              0.06487
            ],
            [
              -73.39325,
              0.0672
            ],
            [
              -73.39457,
              0.04305
            ],
            [
              -73.35898,
              0.05158
            ],
            [
              -73.32317,
              0.03359
            ],
            [
              -73.32126,
              0.04898
            ],
            [
              -73.28914,
              0.02553
            ],
            [
              -73.28436,
              0.04975
            ],
            [
              -73.26829,
              0.04059
            ],
            [
              -73.24822,
              0.0596
            ],
            [
              -73.21811,
              0.03547
            ],
            [
              -73.21827,
              0.05349
            ],
            [
              -73.19934,
              0.06179
            ],
            [
              -73.17369,
              0.04744
            ],
            [
              -73.16403,
              0.05926
            ],
            [
              -73.14699,
              0.04044
            ],
            [
              -73.13807,
              0.07865
            ],
            [
              -73.15837,
              0.09295
            ],
            [
              -73.1541,
              0.14157
            ],
            [
              -73.18717,
              0.13839
            ],
            [
              -73.17821,
              0.16471
            ],
            [
              -73.21155,
              0.14021
            ],
            [
              -73.20686,
              0.16057
            ],
            [
              -73.23282,
              0.15918
            ],
            [
              -73.24304,
              0.18392
            ],
            [
              -73.25387,
              0.16813
            ],
            [
              -73.25433,
              0.1858
            ],
            [
              -73.27381,
              0.18171
            ],
            [
              -73.27066,
              0.19956
            ],
            [
              -73.29432,
              0.20044
            ],
            [
              -73.2716,
              0.21033
            ],
            [
              -73.27439,
              0.22352
            ],
            [
              -73.28827,
              0.21532
            ],
            [
              -73.28661,
              0.23405
            ],
            [
              -73.29856,
              0.22216
            ],
            [
              -73.31474,
              0.23463
            ],
            [
              -73.33793,
              0.21128
            ],
            [
              -73.35633,
              0.22651
            ],
            [
              -73.33846,
              0.23296
            ],
            [
              -73.33855,
              0.2509
            ],
            [
              -73.36054,
              0.26243
            ],
            [
              -73.43463,
              0.25441
            ],
            [
              -73.43212,
              0.27658
            ],
            [
              -73.45505,
              0.28282
            ],
            [
              -73.45003,
              0.32102
            ],
            [
              -73.46655,
              0.33993
            ],
            [
              -73.4801,
              0.32481
            ],
            [
              -73.50167,
              0.32986
            ],
            [
              -73.50633,
              0.39015
            ],
            [
              -73.54075,
              0.39498
            ],
            [
              -73.51906,
              0.41458
            ],
            [
              -73.5468,
              0.4226
            ],
            [
              -73.53912,
              0.43255
            ],
            [
              -73.55324,
              0.4384
            ],
            [
              -73.53875,
              0.45205
            ],
            [
              -73.56105,
              0.45082
            ],
            [
              -73.56949,
              0.4838
            ],
            [
              -73.56989,
              0.46141
            ],
            [
              -73.59179,
              0.46241
            ],
            [
              -73.58063,
              0.48449
            ],
            [
              -73.60477,
              0.48522
            ],
            [
              -73.61593,
              0.5089
            ],
            [
              -73.64464,
              0.49789
            ],
            [
              -73.64939,
              0.52324
            ],
            [
              -73.69988,
              0.55891
            ],
            [
              -73.68469,
              0.57032
            ],
            [
              -73.7193,
              0.59999
            ],
            [
              -73.70641,
              0.61288
            ],
            [
              -73.74226,
              0.62807
            ],
            [
              -73.73709,
              0.60804
            ],
            [
              -73.75176,
              0.62117
            ],
            [
              -73.75442,
              0.59288
            ],
            [
              -73.76374,
              0.60674
            ],
            [
              -73.77714,
              0.5715
            ],
            [
              -73.7988,
              0.5865
            ],
            [
              -73.80833,
              0.56466
            ],
            [
              -73.82912,
              0.56133
            ],
            [
              -73.845,
              0.58254
            ],
            [
              -73.87017,
              0.57479
            ],
            [
              -73.90109,
              0.63536
            ],
            [
              -73.96076,
              0.61519
            ],
            [
              -73.99133,
              0.63844
            ],
            [
              -73.98761,
              0.65508
            ],
            [
              -74.01347,
              0.66128
            ],
            [
              -74.01099,
              0.71419
            ],
            [
              -74.04684,
              0.72881
            ],
            [
              -74.05283,
              0.7551
            ],
            [
              -74.07125,
              0.75776
            ],
            [
              -74.0718,
              0.78659
            ],
            [
              -74.08387,
              0.78544
            ],
            [
              -74.07694,
              0.84038
            ],
            [
              -74.09037,
              0.85532
            ],
            [
              -74.10447,
              0.83978
            ],
            [
              -74.11835,
              0.84597
            ],
            [
              -74.1513,
              0.88252
            ],
            [
              -74.16803,
              0.86931
            ],
            [
              -74.17674,
              0.91773
            ],
            [
              -74.18926,
              0.90065
            ],
            [
              -74.20774,
              0.90972
            ],
            [
              -74.2048,
              0.92629
            ],
            [
              -74.24003,
              0.92949
            ],
            [
              -74.24022,
              0.94872
            ],
            [
              -74.2657,
              0.95545
            ],
            [
              -74.28388,
              0.98966
            ],
            [
              -74.34076,
              1.01921
            ],
            [
              -74.38062,
              1.06363
            ],
            [
              -74.383,
              1.09917
            ],
            [
              -74.43373,
              1.11928
            ],
            [
              -74.46645,
              1.1732
            ],
            [
              -74.57255,
              1.23345
            ],
            [
              -74.78722,
              1.56737
            ]
          ]
        ]
      },
      "properties": {
        "code": "18150",
        "departmentCode": "18",
        "name": "CARTAGENA DEL CHAIRÁ",
        "resultType": "observed",
        "source": "dane-divipola-mgn-2025",
        "year": 2025
      }
    },
    {
      "type": "Feature",
      "id": 1950,
      "geometry": {
        "type": "Polygon",
        "coordinates": [
          [
            [
              -76.09066,
              1.07012
            ],
            [
              -76.05163,
              1.04641
            ],
            [
              -76.00494,
              1.05467
            ],
            [
              -75.99401,
              1.02723
            ],
            [
              -75.99421,
              1.07259
            ],
            [
              -75.94762,
              1.03069
            ],
            [
              -75.92518,
              1.03426
            ],
            [
              -75.94569,
              0.98092
            ],
            [
              -75.90918,
              0.97306
            ],
            [
              -75.84763,
              0.87912
            ],
            [
              -75.82745,
              0.87411
            ],
            [
              -75.8089,
              0.89552
            ],
            [
              -75.82105,
              0.93477
            ],
            [
              -75.86317,
              0.9726
            ],
            [
              -75.87572,
              1.02207
            ],
            [
              -75.84861,
              1.06915
            ],
            [
              -75.85822,
              1.09781
            ],
            [
              -75.81474,
              1.11128
            ],
            [
              -75.91966,
              1.09499
            ],
            [
              -75.90928,
              1.14582
            ],
            [
              -75.93557,
              1.17125
            ],
            [
              -76.02562,
              1.15869
            ],
            [
              -76.0173,
              1.1143
            ],
            [
              -76.07048,
              1.1243
            ],
            [
              -76.0999,
              1.14735
            ],
            [
              -76.11873,
              1.11555
            ],
            [
              -76.1369,
              1.11287
            ],
            [
              -76.09066,
              1.07012
            ]
          ]
        ]
      },
      "properties": {
        "code": "18205",
        "departmentCode": "18",
        "name": "CURILLO",
        "resultType": "observed",
        "source": "dane-divipola-mgn-2025",
        "year": 2025
      }
    },
    {
      "type": "Feature",
      "id": 1951,
      "geometry": {
        "type": "Polygon",
        "coordinates": [
          [
            [
              -75.36167,
              2.32143
            ],
            [
              -75.38628,
              2.31458
            ],
            [
              -75.30951,
              1.92216
            ],
            [
              -75.33907,
              1.86705
            ],
            [
              -75.33828,
              1.7734
            ],
            [
              -75.36155,
              1.7483
            ],
            [
              -75.33123,
              1.6589
            ],
            [
              -75.29237,
              1.62891
            ],
            [
              -75.26932,
              1.63406
            ],
            [
              -75.16941,
              1.5901
            ],
            [
              -75.13978,
              1.59299
            ],
            [
              -75.11123,
              1.55555
            ],
            [
              -75.07813,
              1.5501
            ],
            [
              -75.03294,
              1.47592
            ],
            [
              -74.92953,
              1.42552
            ],
            [
              -74.91632,
              1.43998
            ],
            [
              -74.93258,
              1.44471
            ],
            [
              -74.91834,
              1.45376
            ],
            [
              -74.9334,
              1.4617
            ],
            [
              -74.92047,
              1.46863
            ],
            [
              -74.93873,
              1.48543
            ],
            [
              -74.93977,
              1.53453
            ],
            [
              -74.95487,
              1.53013
            ],
            [
              -74.97473,
              1.56115
            ],
            [
              -74.97953,
              1.61322
            ],
            [
              -74.99278,
              1.61137
            ],
            [
              -74.99315,
              1.62914
            ],
            [
              -75.01446,
              1.62567
            ],
            [
              -75.01073,
              1.64594
            ],
            [
              -75.03263,
              1.65732
            ],
            [
              -75.02216,
              1.66681
            ],
            [
              -75.03872,
              1.72271
            ],
            [
              -75.05472,
              1.73254
            ],
            [
              -75.12788,
              1.71008
            ],
            [
              -75.18457,
              1.71184
            ],
            [
              -75.19563,
              1.73935
            ],
            [
              -75.26075,
              1.79407
            ],
            [
              -75.32654,
              1.80435
            ],
            [
              -75.29911,
              1.90901
            ],
            [
              -75.30197,
              1.97022
            ],
            [
              -75.28333,
              2.00257
            ],
            [
              -75.29746,
              2.05424
            ],
            [
              -75.2567,
              2.13903
            ],
            [
              -75.25825,
              2.20024
            ],
            [
              -75.2871,
              2.27091
            ],
            [
              -75.31391,
              2.27111
            ],
            [
              -75.33304,
              2.31177
            ],
            [
              -75.36167,
              2.32143
            ]
          ]
        ]
      },
      "properties": {
        "code": "18247",
        "departmentCode": "18",
        "name": "EL DONCELLO",
        "resultType": "observed",
        "source": "dane-divipola-mgn-2025",
        "year": 2025
      }
    },
    {
      "type": "Feature",
      "id": 1952,
      "geometry": {
        "type": "Polygon",
        "coordinates": [
          [
            [
              -75.36638,
              2.20952
            ],
            [
              -75.38628,
              2.31458
            ],
            [
              -75.41041,
              2.24565
            ],
            [
              -75.44024,
              2.2135
            ],
            [
              -75.38367,
              2.12493
            ],
            [
              -75.39301,
              2.08775
            ],
            [
              -75.37759,
              2.05974
            ],
            [
              -75.39268,
              1.99541
            ],
            [
              -75.35429,
              1.99002
            ],
            [
              -75.34129,
              1.97363
            ],
            [
              -75.35493,
              1.86669
            ],
            [
              -75.40986,
              1.79176
            ],
            [
              -75.34003,
              1.66118
            ],
            [
              -75.36053,
              1.60502
            ],
            [
              -75.40217,
              1.57563
            ],
            [
              -75.36849,
              1.56596
            ],
            [
              -75.32861,
              1.48326
            ],
            [
              -75.2781,
              1.44649
            ],
            [
              -75.25958,
              1.37142
            ],
            [
              -75.21727,
              1.34489
            ],
            [
              -75.11781,
              1.34047
            ],
            [
              -75.09116,
              1.23233
            ],
            [
              -75.0686,
              1.28858
            ],
            [
              -75.0663,
              1.38207
            ],
            [
              -75.08136,
              1.39884
            ],
            [
              -75.05956,
              1.38643
            ],
            [
              -75.02015,
              1.39966
            ],
            [
              -74.96431,
              1.44356
            ],
            [
              -75.03294,
              1.47592
            ],
            [
              -75.07813,
              1.5501
            ],
            [
              -75.11123,
              1.55555
            ],
            [
              -75.13978,
              1.59299
            ],
            [
              -75.16941,
              1.5901
            ],
            [
              -75.26932,
              1.63406
            ],
            [
              -75.29237,
              1.62891
            ],
            [
              -75.33123,
              1.6589
            ],
            [
              -75.36155,
              1.7483
            ],
            [
              -75.33828,
              1.7734
            ],
            [
              -75.33907,
              1.86705
            ],
            [
              -75.30959,
              1.9233
            ],
            [
              -75.36638,
              2.20952
            ]
          ]
        ]
      },
      "properties": {
        "code": "18256",
        "departmentCode": "18",
        "name": "EL PAUJÍL",
        "resultType": "observed",
        "source": "dane-divipola-mgn-2025",
        "year": 2025
      }
    },
    {
      "type": "Feature",
      "id": 1953,
      "geometry": {
        "type": "Polygon",
        "coordinates": [
          [
            [
              -75.08144,
              1.27395
            ],
            [
              -75.09116,
              1.23233
            ],
            [
              -75.11781,
              1.34047
            ],
            [
              -75.21727,
              1.34489
            ],
            [
              -75.26052,
              1.37266
            ],
            [
              -75.2781,
              1.44649
            ],
            [
              -75.32861,
              1.48326
            ],
            [
              -75.36849,
              1.56596
            ],
            [
              -75.40217,
              1.57563
            ],
            [
              -75.36053,
              1.60502
            ],
            [
              -75.34003,
              1.66118
            ],
            [
              -75.40404,
              1.76944
            ],
            [
              -75.42729,
              1.75701
            ],
            [
              -75.41765,
              1.74094
            ],
            [
              -75.43491,
              1.71366
            ],
            [
              -75.41847,
              1.6992
            ],
            [
              -75.44105,
              1.69213
            ],
            [
              -75.48561,
              1.59438
            ],
            [
              -75.4823,
              1.52714
            ],
            [
              -75.4561,
              1.45373
            ],
            [
              -75.47923,
              1.34317
            ],
            [
              -75.34641,
              1.35658
            ],
            [
              -75.34927,
              1.27813
            ],
            [
              -75.31574,
              1.21234
            ],
            [
              -75.32435,
              1.1959
            ],
            [
              -75.28307,
              1.19544
            ],
            [
              -75.281,
              1.17131
            ],
            [
              -75.19104,
              1.10817
            ],
            [
              -75.19441,
              1.04233
            ],
            [
              -74.89977,
              0.97662
            ],
            [
              -74.89575,
              0.9935
            ],
            [
              -74.95166,
              1.05772
            ],
            [
              -74.95117,
              1.09454
            ],
            [
              -75.02827,
              1.18344
            ],
            [
              -75.02181,
              1.22396
            ],
            [
              -75.07091,
              1.24597
            ],
            [
              -75.08144,
              1.27395
            ]
          ]
        ]
      },
      "properties": {
        "code": "18410",
        "departmentCode": "18",
        "name": "LA MONTAÑITA",
        "resultType": "observed",
        "source": "dane-divipola-mgn-2025",
        "year": 2025
      }
    },
    {
      "type": "Feature",
      "id": 1954,
      "geometry": {
        "type": "Polygon",
        "coordinates": [
          [
            [
              -75.29899,
              0.94088
            ],
            [
              -75.25195,
              0.93627
            ],
            [
              -75.23949,
              0.89082
            ],
            [
              -75.20511,
              0.91289
            ],
            [
              -75.20107,
              0.92955
            ],
            [
              -75.2278,
              0.96742
            ],
            [
              -75.2172,
              1.0229
            ],
            [
              -75.19363,
              1.04298
            ],
            [
              -75.18956,
              1.10586
            ],
            [
              -75.281,
              1.17131
            ],
            [
              -75.28307,
              1.19544
            ],
            [
              -75.32435,
              1.1959
            ],
            [
              -75.31574,
              1.21234
            ],
            [
              -75.34927,
              1.27813
            ],
            [
              -75.34641,
              1.35658
            ],
            [
              -75.46349,
              1.35479
            ],
            [
              -75.5679,
              1.32179
            ],
            [
              -75.56864,
              1.21723
            ],
            [
              -75.54361,
              1.0896
            ],
            [
              -75.40035,
              1.03135
            ],
            [
              -75.32399,
              0.92453
            ],
            [
              -75.29899,
              0.94088
            ]
          ]
        ]
      },
      "properties": {
        "code": "18460",
        "departmentCode": "18",
        "name": "MILÁN",
        "resultType": "observed",
        "source": "dane-divipola-mgn-2025",
        "year": 2025
      }
    },
    {
      "type": "Feature",
      "id": 1955,
      "geometry": {
        "type": "Polygon",
        "coordinates": [
          [
            [
              -75.77185,
              1.57991
            ],
            [
              -75.80855,
              1.53386
            ],
            [
              -75.7824,
              1.52844
            ],
            [
              -75.77723,
              1.45605
            ],
            [
              -75.73708,
              1.42183
            ],
            [
              -75.75672,
              1.33595
            ],
            [
              -75.70189,
              1.3215
            ],
            [
              -75.70457,
              1.29524
            ],
            [
              -75.66304,
              1.29232
            ],
            [
              -75.64734,
              1.22901
            ],
            [
              -75.61907,
              1.21707
            ],
            [
              -75.59163,
              1.23238
            ],
            [
              -75.56864,
              1.21723
            ],
            [
              -75.5679,
              1.32179
            ],
            [
              -75.60304,
              1.36218
            ],
            [
              -75.58919,
              1.38469
            ],
            [
              -75.60023,
              1.42271
            ],
            [
              -75.6335,
              1.44127
            ],
            [
              -75.66355,
              1.49643
            ],
            [
              -75.6955,
              1.48856
            ],
            [
              -75.70508,
              1.50871
            ],
            [
              -75.73338,
              1.48881
            ],
            [
              -75.73734,
              1.53435
            ],
            [
              -75.77185,
              1.57991
            ]
          ]
        ]
      },
      "properties": {
        "code": "18479",
        "departmentCode": "18",
        "name": "MORELIA",
        "resultType": "observed",
        "source": "dane-divipola-mgn-2025",
        "year": 2025
      }
    },
    {
      "type": "Feature",
      "id": 1956,
      "geometry": {
        "type": "Polygon",
        "coordinates": [
          [
            [
              -75.05167,
              2.62546
            ],
            [
              -75.10369,
              2.62619
            ],
            [
              -75.15366,
              2.58199
            ],
            [
              -75.18111,
              2.50707
            ],
            [
              -75.2275,
              2.51127
            ],
            [
              -75.25059,
              2.44445
            ],
            [
              -75.27954,
              2.42271
            ],
            [
              -75.31015,
              2.36161
            ],
            [
              -75.32962,
              2.36531
            ],
            [
              -75.34871,
              2.3235
            ],
            [
              -75.31237,
              2.28765
            ],
            [
              -75.31391,
              2.27111
            ],
            [
              -75.28668,
              2.2702
            ],
            [
              -75.2564,
              2.1639
            ],
            [
              -75.27043,
              2.09382
            ],
            [
              -75.29746,
              2.05424
            ],
            [
              -75.28333,
              2.00257
            ],
            [
              -75.30197,
              1.97022
            ],
            [
              -75.29911,
              1.90901
            ],
            [
              -75.32667,
              1.80462
            ],
            [
              -75.26075,
              1.79407
            ],
            [
              -75.19563,
              1.73935
            ],
            [
              -75.18457,
              1.71184
            ],
            [
              -75.12788,
              1.71008
            ],
            [
              -75.05472,
              1.73254
            ],
            [
              -75.03883,
              1.72281
            ],
            [
              -75.02216,
              1.66681
            ],
            [
              -75.03263,
              1.65732
            ],
            [
              -75.01073,
              1.64594
            ],
            [
              -75.01446,
              1.62567
            ],
            [
              -74.99315,
              1.62914
            ],
            [
              -74.99278,
              1.61137
            ],
            [
              -74.97953,
              1.61322
            ],
            [
              -74.97473,
              1.56115
            ],
            [
              -74.95487,
              1.53013
            ],
            [
              -74.93977,
              1.53453
            ],
            [
              -74.93873,
              1.48543
            ],
            [
              -74.92047,
              1.46863
            ],
            [
              -74.9334,
              1.4617
            ],
            [
              -74.91834,
              1.45376
            ],
            [
              -74.93258,
              1.44471
            ],
            [
              -74.91632,
              1.43998
            ],
            [
              -74.92867,
              1.42282
            ],
            [
              -74.90673,
              1.41749
            ],
            [
              -74.91005,
              1.40036
            ],
            [
              -74.87626,
              1.41229
            ],
            [
              -74.86991,
              1.38788
            ],
            [
              -74.8373,
              1.38793
            ],
            [
              -74.82407,
              1.40821
            ],
            [
              -74.81089,
              1.39808
            ],
            [
              -74.79404,
              1.44008
            ],
            [
              -74.80879,
              1.47459
            ],
            [
              -74.79071,
              1.48037
            ],
            [
              -74.80261,
              1.48639
            ],
            [
              -74.79083,
              1.54075
            ],
            [
              -74.80437,
              1.54894
            ],
            [
              -74.78226,
              1.58098
            ],
            [
              -74.81277,
              1.60844
            ],
            [
              -74.79527,
              1.68167
            ],
            [
              -74.81498,
              1.7337
            ],
            [
              -74.84964,
              1.76276
            ],
            [
              -74.83355,
              1.79494
            ],
            [
              -74.8568,
              1.81558
            ],
            [
              -74.8786,
              1.91679
            ],
            [
              -74.92227,
              1.97141
            ],
            [
              -74.92273,
              2.02639
            ],
            [
              -74.93496,
              2.04024
            ],
            [
              -74.95658,
              2.03312
            ],
            [
              -74.93852,
              2.09424
            ],
            [
              -74.96098,
              2.08594
            ],
            [
              -74.96844,
              2.10826
            ],
            [
              -74.99873,
              2.11145
            ],
            [
              -75.00391,
              2.13825
            ],
            [
              -75.02627,
              2.15046
            ],
            [
              -74.98447,
              2.33372
            ],
            [
              -75.01046,
              2.34937
            ],
            [
              -74.98317,
              2.43509
            ],
            [
              -75.01077,
              2.45025
            ],
            [
              -75.01563,
              2.48975
            ],
            [
              -74.97994,
              2.56649
            ],
            [
              -74.99731,
              2.58654
            ],
            [
              -75.03375,
              2.59334
            ],
            [
              -75.05167,
              2.62546
            ]
          ]
        ]
      },
      "properties": {
        "code": "18592",
        "departmentCode": "18",
        "name": "PUERTO RICO",
        "resultType": "observed",
        "source": "dane-divipola-mgn-2025",
        "year": 2025
      }
    },
    {
      "type": "Feature",
      "id": 1957,
      "geometry": {
        "type": "Polygon",
        "coordinates": [
          [
            [
              -76.16722,
              1.58753
            ],
            [
              -76.14917,
              1.53686
            ],
            [
              -76.18379,
              1.4882
            ],
            [
              -76.17583,
              1.45106
            ],
            [
              -76.20117,
              1.42227
            ],
            [
              -76.20345,
              1.35413
            ],
            [
              -76.22301,
              1.33789
            ],
            [
              -76.21411,
              1.32056
            ],
            [
              -76.30315,
              1.23624
            ],
            [
              -76.28945,
              1.20602
            ],
            [
              -76.3027,
              1.17663
            ],
            [
              -76.28508,
              1.17123
            ],
            [
              -76.27421,
              1.13222
            ],
            [
              -76.21482,
              1.10834
            ],
            [
              -76.15972,
              1.11621
            ],
            [
              -76.139,
              1.09751
            ],
            [
              -76.0999,
              1.14735
            ],
            [
              -76.02405,
              1.11204
            ],
            [
              -76.02562,
              1.15869
            ],
            [
              -75.93557,
              1.17125
            ],
            [
              -75.95564,
              1.18194
            ],
            [
              -75.99049,
              1.25532
            ],
            [
              -75.94761,
              1.32489
            ],
            [
              -75.90652,
              1.35935
            ],
            [
              -75.99512,
              1.42076
            ],
            [
              -76.0144,
              1.47353
            ],
            [
              -76.00344,
              1.49487
            ],
            [
              -76.02541,
              1.52912
            ],
            [
              -76.08915,
              1.50472
            ],
            [
              -76.10233,
              1.51902
            ],
            [
              -76.09863,
              1.56405
            ],
            [
              -76.12001,
              1.55214
            ],
            [
              -76.16722,
              1.58753
            ]
          ]
        ]
      },
      "properties": {
        "code": "18610",
        "departmentCode": "18",
        "name": "SAN JOSÉ DEL FRAGUA",
        "resultType": "observed",
        "source": "dane-divipola-mgn-2025",
        "year": 2025
      }
    },
    {
      "type": "Feature",
      "id": 1958,
      "geometry": {
        "type": "Polygon",
        "coordinates": [
          [
            [
              -74.79916,
              2.93792
            ],
            [
              -74.83688,
              2.90854
            ],
            [
              -74.87833,
              2.915
            ],
            [
              -74.91063,
              2.88354
            ],
            [
              -74.93708,
              2.90754
            ],
            [
              -75.07034,
              2.74215
            ],
            [
              -75.14681,
              2.72237
            ],
            [
              -75.15409,
              2.70412
            ],
            [
              -75.13333,
              2.69149
            ],
            [
              -75.1556,
              2.64593
            ],
            [
              -75.13437,
              2.59905
            ],
            [
              -75.10369,
              2.62619
            ],
            [
              -75.05536,
              2.62871
            ],
            [
              -75.03265,
              2.59244
            ],
            [
              -74.98019,
              2.56789
            ],
            [
              -75.01563,
              2.48975
            ],
            [
              -75.01077,
              2.45025
            ],
            [
              -74.98317,
              2.43509
            ],
            [
              -75.01046,
              2.34937
            ],
            [
              -74.98447,
              2.33372
            ],
            [
              -75.02627,
              2.15046
            ],
            [
              -75.00391,
              2.13825
            ],
            [
              -74.99873,
              2.11145
            ],
            [
              -74.96844,
              2.10826
            ],
            [
              -74.96098,
              2.08594
            ],
            [
              -74.93852,
              2.09424
            ],
            [
              -74.95658,
              2.03312
            ],
            [
              -74.93496,
              2.04024
            ],
            [
              -74.92273,
              2.02639
            ],
            [
              -74.92227,
              1.97141
            ],
            [
              -74.8786,
              1.91679
            ],
            [
              -74.8568,
              1.81558
            ],
            [
              -74.83355,
              1.79494
            ],
            [
              -74.84964,
              1.76276
            ],
            [
              -74.79986,
              1.70686
            ],
            [
              -74.79516,
              1.65056
            ],
            [
              -74.81165,
              1.60464
            ],
            [
              -74.78273,
              1.58236
            ],
            [
              -74.78746,
              1.56776
            ],
            [
              -74.57255,
              1.23345
            ],
            [
              -74.46645,
              1.1732
            ],
            [
              -74.43373,
              1.11928
            ],
            [
              -74.383,
              1.09917
            ],
            [
              -74.38062,
              1.06363
            ],
            [
              -74.34076,
              1.01921
            ],
            [
              -74.28388,
              0.98966
            ],
            [
              -74.2657,
              0.95545
            ],
            [
              -74.24022,
              0.94872
            ],
            [
              -74.24003,
              0.92949
            ],
            [
              -74.2048,
              0.92629
            ],
            [
              -74.20774,
              0.90972
            ],
            [
              -74.18926,
              0.90065
            ],
            [
              -74.17674,
              0.91773
            ],
            [
              -74.16803,
              0.86931
            ],
            [
              -74.1513,
              0.88252
            ],
            [
              -74.11835,
              0.84597
            ],
            [
              -74.10447,
              0.83978
            ],
            [
              -74.09037,
              0.85532
            ],
            [
              -74.07694,
              0.84038
            ],
            [
              -74.08387,
              0.78544
            ],
            [
              -74.0718,
              0.78659
            ],
            [
              -74.07125,
              0.75776
            ],
            [
              -74.05283,
              0.7551
            ],
            [
              -74.04684,
              0.72881
            ],
            [
              -74.01099,
              0.71419
            ],
            [
              -74.01347,
              0.66128
            ],
            [
              -73.98761,
              0.65508
            ],
            [
              -73.99133,
              0.63844
            ],
            [
              -73.96076,
              0.61519
            ],
            [
              -73.90109,
              0.63536
            ],
            [
              -73.87017,
              0.57479
            ],
            [
              -73.845,
              0.58254
            ],
            [
              -73.82912,
              0.56133
            ],
            [
              -73.80833,
              0.56466
            ],
            [
              -73.7988,
              0.5865
            ],
            [
              -73.77766,
              0.5711
            ],
            [
              -73.76374,
              0.60674
            ],
            [
              -73.75442,
              0.59288
            ],
            [
              -73.75176,
              0.62117
            ],
            [
              -73.73709,
              0.60804
            ],
            [
              -73.7409,
              0.62834
            ],
            [
              -73.70433,
              0.61076
            ],
            [
              -73.71979,
              0.60099
            ],
            [
              -73.6987,
              0.59346
            ],
            [
              -73.68469,
              0.57032
            ],
            [
              -73.69988,
              0.55891
            ],
            [
              -73.67287,
              0.5363
            ],
            [
              -73.63743,
              0.63395
            ],
            [
              -73.5745,
              0.69029
            ],
            [
              -73.58439,
              0.77272
            ],
            [
              -73.53963,
              0.84658
            ],
            [
              -73.54029,
              0.89731
            ],
            [
              -73.49129,
              1.02604
            ],
            [
              -73.3787,
              1.06683
            ],
            [
              -73.36351,
              1.0435
            ],
            [
              -73.33091,
              1.04218
            ],
            [
              -73.29453,
              1.01211
            ],
            [
              -73.23934,
              1.03261
            ],
            [
              -73.25171,
              1.04886
            ],
            [
              -73.27885,
              1.04729
            ],
            [
              -73.28201,
              1.0668
            ],
            [
              -73.34054,
              1.09918
            ],
            [
              -73.34357,
              1.1234
            ],
            [
              -73.3975,
              1.15309
            ],
            [
              -73.39299,
              1.17194
            ],
            [
              -73.4211,
              1.19107
            ],
            [
              -73.40727,
              1.20575
            ],
            [
              -73.42417,
              1.22354
            ],
            [
              -73.40874,
              1.24144
            ],
            [
              -73.43187,
              1.25892
            ],
            [
              -73.42825,
              1.29594
            ],
            [
              -73.45608,
              1.29457
            ],
            [
              -73.47211,
              1.35845
            ],
            [
              -73.54765,
              1.40616
            ],
            [
              -73.54726,
              1.43802
            ],
            [
              -73.65835,
              1.57635
            ],
            [
              -73.65667,
              1.61773
            ],
            [
              -74.04,
              1.97083
            ],
            [
              -74.105,
              1.9725
            ],
            [
              -74.14958,
              1.9975
            ],
            [
              -74.15334,
              1.97958
            ],
            [
              -74.19,
              1.98542
            ],
            [
              -74.2419,
              2.05642
            ],
            [
              -74.36194,
              2.05951
            ],
            [
              -74.3925,
              2.08417
            ],
            [
              -74.46208,
              2.08917
            ],
            [
              -74.48417,
              2.11
            ],
            [
              -74.48542,
              2.14917
            ],
            [
              -74.53875,
              2.11
            ],
            [
              -74.55083,
              2.13167
            ],
            [
              -74.58,
              2.12458
            ],
            [
              -74.60416,
              2.15667
            ],
            [
              -74.58916,
              2.17
            ],
            [
              -74.59167,
              2.20167
            ],
            [
              -74.61083,
              2.20833
            ],
            [
              -74.62708,
              2.1925
            ],
            [
              -74.665,
              2.21125
            ],
            [
              -74.65,
              2.24
            ],
            [
              -74.70125,
              2.27167
            ],
            [
              -74.69334,
              2.28417
            ],
            [
              -74.70917,
              2.28375
            ],
            [
              -74.71584,
              2.26333
            ],
            [
              -74.73,
              2.28
            ],
            [
              -74.74834,
              2.27417
            ],
            [
              -74.73375,
              2.34667
            ],
            [
              -74.69292,
              2.42
            ],
            [
              -74.67292,
              2.425
            ],
            [
              -74.66292,
              2.48833
            ],
            [
              -74.6475,
              2.49375
            ],
            [
              -74.6775,
              2.52375
            ],
            [
              -74.68166,
              2.55833
            ],
            [
              -74.58583,
              2.66542
            ],
            [
              -74.6375,
              2.70083
            ],
            [
              -74.6175,
              2.75375
            ],
            [
              -74.64333,
              2.75583
            ],
            [
              -74.66666,
              2.805
            ],
            [
              -74.67292,
              2.88833
            ],
            [
              -74.76937,
              2.87312
            ],
            [
              -74.79916,
              2.93792
            ]
          ]
        ]
      },
      "properties": {
        "code": "18753",
        "departmentCode": "18",
        "name": "SAN VICENTE DEL CAGUÁN",
        "resultType": "observed",
        "source": "dane-divipola-mgn-2025",
        "year": 2025
      }
    },
    {
      "type": "Feature",
      "id": 1959,
      "geometry": {
        "type": "Polygon",
        "coordinates": [
          [
            [
              -72.03319,
              0.66428
            ],
            [
              -72.08428,
              0.65778
            ],
            [
              -72.07036,
              0.69271
            ],
            [
              -72.10982,
              0.70492
            ],
            [
              -72.1267,
              0.74012
            ],
            [
              -72.14029,
              0.71806
            ],
            [
              -72.16338,
              0.73385
            ],
            [
              -72.16393,
              0.71333
            ],
            [
              -72.19079,
              0.72699
            ],
            [
              -72.20038,
              0.70197
            ],
            [
              -72.22051,
              0.70594
            ],
            [
              -72.22185,
              0.74728
            ],
            [
              -72.2487,
              0.78854
            ],
            [
              -72.27034,
              0.7941
            ],
            [
              -72.26965,
              0.76311
            ],
            [
              -72.31011,
              0.80929
            ],
            [
              -72.28675,
              0.81873
            ],
            [
              -72.30142,
              0.84237
            ],
            [
              -72.28853,
              0.87321
            ],
            [
              -72.3231,
              0.8761
            ],
            [
              -72.31666,
              0.85302
            ],
            [
              -72.3288,
              0.84078
            ],
            [
              -72.34357,
              0.86863
            ],
            [
              -72.33235,
              0.87938
            ],
            [
              -72.34693,
              0.90292
            ],
            [
              -72.33992,
              0.92666
            ],
            [
              -72.35441,
              0.93507
            ],
            [
              -72.3916,
              0.91909
            ],
            [
              -72.37702,
              0.96021
            ],
            [
              -72.40047,
              0.96736
            ],
            [
              -72.41048,
              0.98682
            ],
            [
              -72.39946,
              1.00393
            ],
            [
              -72.45568,
              1.07986
            ],
            [
              -72.51092,
              1.06801
            ],
            [
              -72.62257,
              1.13625
            ],
            [
              -72.6499,
              1.18181
            ],
            [
              -72.6622,
              1.15079
            ],
            [
              -72.72586,
              1.1861
            ],
            [
              -72.72276,
              1.1496
            ],
            [
              -72.73875,
              1.15111
            ],
            [
              -72.74961,
              1.12884
            ],
            [
              -72.77803,
              1.14788
            ],
            [
              -72.77128,
              1.18227
            ],
            [
              -72.82391,
              1.17823
            ],
            [
              -72.82689,
              1.1489
            ],
            [
              -72.85925,
              1.16478
            ],
            [
              -72.8498,
              1.1431
            ],
            [
              -72.87207,
              1.13541
            ],
            [
              -72.85005,
              1.10467
            ],
            [
              -72.8837,
              1.09862
            ],
            [
              -72.86912,
              1.08654
            ],
            [
              -72.88335,
              1.07003
            ],
            [
              -72.86083,
              1.07192
            ],
            [
              -72.85802,
              1.04224
            ],
            [
              -72.87934,
              1.04617
            ],
            [
              -72.86515,
              1.04171
            ],
            [
              -72.86719,
              1.02446
            ],
            [
              -72.9325,
              1.01515
            ],
            [
              -72.94031,
              0.97999
            ],
            [
              -72.99665,
              0.95171
            ],
            [
              -72.98787,
              0.9281
            ],
            [
              -73.00621,
              0.93329
            ],
            [
              -73.00973,
              0.91054
            ],
            [
              -73.02658,
              0.9215
            ],
            [
              -73.03827,
              0.90242
            ],
            [
              -73.0516,
              0.91186
            ],
            [
              -73.07591,
              0.89453
            ],
            [
              -73.10928,
              0.924
            ],
            [
              -73.14452,
              0.91993
            ],
            [
              -73.14695,
              0.94333
            ],
            [
              -73.16425,
              0.94037
            ],
            [
              -73.1895,
              0.96699
            ],
            [
              -73.17174,
              0.99206
            ],
            [
              -73.20616,
              1.00673
            ],
            [
              -73.21686,
              0.99714
            ],
            [
              -73.24784,
              1.02192
            ],
            [
              -73.2391,
              1.03254
            ],
            [
              -73.29453,
              1.01211
            ],
            [
              -73.33091,
              1.04218
            ],
            [
              -73.36351,
              1.0435
            ],
            [
              -73.3787,
              1.06683
            ],
            [
              -73.4648,
              1.04381
            ],
            [
              -73.50918,
              0.99813
            ],
            [
              -73.54029,
              0.89731
            ],
            [
              -73.53963,
              0.84658
            ],
            [
              -73.58439,
              0.77272
            ],
            [
              -73.5745,
              0.69029
            ],
            [
              -73.63743,
              0.63395
            ],
            [
              -73.67287,
              0.5363
            ],
            [
              -73.64869,
              0.52231
            ],
            [
              -73.64464,
              0.49789
            ],
            [
              -73.61663,
              0.50915
            ],
            [
              -73.60265,
              0.48377
            ],
            [
              -73.5835,
              0.48839
            ],
            [
              -73.59179,
              0.46241
            ],
            [
              -73.56989,
              0.46141
            ],
            [
              -73.56949,
              0.4838
            ],
            [
              -73.56105,
              0.45082
            ],
            [
              -73.53875,
              0.45205
            ],
            [
              -73.55324,
              0.4384
            ],
            [
              -73.53912,
              0.43255
            ],
            [
              -73.5468,
              0.4226
            ],
            [
              -73.51906,
              0.41458
            ],
            [
              -73.54075,
              0.39498
            ],
            [
              -73.50633,
              0.39015
            ],
            [
              -73.50167,
              0.32986
            ],
            [
              -73.4801,
              0.32481
            ],
            [
              -73.46655,
              0.33993
            ],
            [
              -73.45003,
              0.32102
            ],
            [
              -73.45505,
              0.28282
            ],
            [
              -73.43212,
              0.27658
            ],
            [
              -73.43463,
              0.25441
            ],
            [
              -73.36054,
              0.26243
            ],
            [
              -73.33855,
              0.2509
            ],
            [
              -73.33846,
              0.23296
            ],
            [
              -73.35633,
              0.22651
            ],
            [
              -73.33793,
              0.21128
            ],
            [
              -73.31474,
              0.23463
            ],
            [
              -73.29856,
              0.22216
            ],
            [
              -73.28661,
              0.23405
            ],
            [
              -73.28827,
              0.21532
            ],
            [
              -73.27439,
              0.22352
            ],
            [
              -73.2716,
              0.21033
            ],
            [
              -73.29432,
              0.20044
            ],
            [
              -73.27066,
              0.19956
            ],
            [
              -73.27381,
              0.18171
            ],
            [
              -73.25433,
              0.1858
            ],
            [
              -73.25387,
              0.16813
            ],
            [
              -73.24304,
              0.18392
            ],
            [
              -73.23282,
              0.15918
            ],
            [
              -73.20686,
              0.16057
            ],
            [
              -73.21155,
              0.14021
            ],
            [
              -73.17821,
              0.16471
            ],
            [
              -73.18717,
              0.13839
            ],
            [
              -73.1541,
              0.14157
            ],
            [
              -73.15837,
              0.09295
            ],
            [
              -73.13807,
              0.07865
            ],
            [
              -73.14702,
              0.04041
            ],
            [
              -73.16403,
              0.05926
            ],
            [
              -73.17369,
              0.04744
            ],
            [
              -73.1997,
              0.06178
            ],
            [
              -73.22109,
              0.03567
            ],
            [
              -73.24967,
              0.05955
            ],
            [
              -73.26829,
              0.04059
            ],
            [
              -73.28903,
              0.04643
            ],
            [
              -73.28943,
              0.02551
            ],
            [
              -73.32126,
              0.04898
            ],
            [
              -73.32317,
              0.03359
            ],
            [
              -73.35898,
              0.05158
            ],
            [
              -73.39473,
              0.04311
            ],
            [
              -73.39325,
              0.0672
            ],
            [
              -73.42155,
              0.06487
            ],
            [
              -73.41859,
              0.09818
            ],
            [
              -73.45494,
              0.09043
            ],
            [
              -73.46435,
              0.11457
            ],
            [
              -73.48978,
              0.10445
            ],
            [
              -73.49403,
              0.11541
            ],
            [
              -73.54816,
              0.07313
            ],
            [
              -73.60766,
              0.06407
            ],
            [
              -73.64446,
              0.07118
            ],
            [
              -73.65689,
              0.10094
            ],
            [
              -73.69099,
              0.0848
            ],
            [
              -73.69832,
              0.10633
            ],
            [
              -73.73337,
              0.07792
            ],
            [
              -73.76093,
              0.07814
            ],
            [
              -73.83615,
              0.1271
            ],
            [
              -73.84281,
              0.15752
            ],
            [
              -73.86157,
              0.16923
            ],
            [
              -74.51161,
              0.1691
            ],
            [
              -74.55499,
              0.33008
            ],
            [
              -74.59412,
              0.35309
            ],
            [
              -74.59044,
              0.39734
            ],
            [
              -74.6316,
              0.465
            ],
            [
              -74.64179,
              0.52724
            ],
            [
              -74.71175,
              0.62197
            ],
            [
              -74.7519,
              0.62039
            ],
            [
              -74.76697,
              0.64305
            ],
            [
              -74.79642,
              0.64868
            ],
            [
              -74.8038,
              0.67357
            ],
            [
              -74.81533,
              0.66662
            ],
            [
              -74.81246,
              0.68447
            ],
            [
              -74.8325,
              0.69707
            ],
            [
              -74.83169,
              0.73181
            ],
            [
              -74.81911,
              0.7379
            ],
            [
              -74.8531,
              0.79103
            ],
            [
              -74.82478,
              0.81388
            ],
            [
              -74.81387,
              0.86268
            ],
            [
              -74.86252,
              0.91
            ],
            [
              -74.86254,
              0.93247
            ],
            [
              -74.90005,
              0.97647
            ],
            [
              -75.19484,
              1.04223
            ],
            [
              -75.2172,
              1.0229
            ],
            [
              -75.22557,
              0.98703
            ],
            [
              -75.22696,
              0.96107
            ],
            [
              -75.20028,
              0.9239
            ],
            [
              -75.22201,
              0.89861
            ],
            [
              -75.24258,
              0.89317
            ],
            [
              -75.25278,
              0.93684
            ],
            [
              -75.29683,
              0.94224
            ],
            [
              -75.48675,
              0.83329
            ],
            [
              -75.50896,
              0.8356
            ],
            [
              -75.51992,
              0.80022
            ],
            [
              -75.423,
              0.73863
            ],
            [
              -75.35983,
              0.7504
            ],
            [
              -75.34117,
              0.76946
            ],
            [
              -75.2975,
              0.72949
            ],
            [
              -75.2656,
              0.72564
            ],
            [
              -75.25709,
              0.70339
            ],
            [
              -75.27617,
              0.66742
            ],
            [
              -75.23118,
              0.64606
            ],
            [
              -75.20726,
              0.60147
            ],
            [
              -75.23551,
              0.57181
            ],
            [
              -75.19846,
              0.50469
            ],
            [
              -75.21767,
              0.48746
            ],
            [
              -75.15526,
              0.4809
            ],
            [
              -75.10118,
              0.51194
            ],
            [
              -75.10586,
              0.47376
            ],
            [
              -75.03386,
              0.48426
            ],
            [
              -74.9862,
              0.41851
            ],
            [
              -74.98465,
              0.39996
            ],
            [
              -75.01665,
              0.3829
            ],
            [
              -75.00714,
              0.34227
            ],
            [
              -74.97989,
              0.31462
            ],
            [
              -75.01058,
              0.29145
            ],
            [
              -75.00389,
              0.2732
            ],
            [
              -74.96043,
              0.24274
            ],
            [
              -74.89692,
              0.2504
            ],
            [
              -74.84191,
              0.21333
            ],
            [
              -74.74508,
              0.21087
            ],
            [
              -74.70769,
              0.19365
            ],
            [
              -74.67829,
              0.16172
            ],
            [
              -74.67279,
              0.11518
            ],
            [
              -74.68026,
              0.09204
            ],
            [
              -74.71255,
              0.09158
            ],
            [
              -74.656,
              0.07222
            ],
            [
              -74.67638,
              0.04471
            ],
            [
              -74.70448,
              0.04204
            ],
            [
              -74.65637,
              -0.01157
            ],
            [
              -74.68164,
              -0.05504
            ],
            [
              -74.64644,
              -0.03842
            ],
            [
              -74.6231,
              -0.04917
            ],
            [
              -74.61713,
              -0.06871
            ],
            [
              -74.63177,
              -0.08846
            ],
            [
              -74.53021,
              -0.12598
            ],
            [
              -74.53466,
              -0.09514
            ],
            [
              -74.51896,
              -0.08861
            ],
            [
              -74.49323,
              -0.13791
            ],
            [
              -74.47482,
              -0.13032
            ],
            [
              -74.45437,
              -0.07076
            ],
            [
              -74.42336,
              -0.09795
            ],
            [
              -74.44627,
              -0.1396
            ],
            [
              -74.40185,
              -0.11429
            ],
            [
              -74.34187,
              -0.10965
            ],
            [
              -74.30625,
              -0.14604
            ],
            [
              -74.2655,
              -0.14445
            ],
            [
              -74.28822,
              -0.20233
            ],
            [
              -74.23404,
              -0.23758
            ],
            [
              -74.21759,
              -0.21008
            ],
            [
              -74.20031,
              -0.20978
            ],
            [
              -74.18144,
              -0.26394
            ],
            [
              -74.1582,
              -0.26311
            ],
            [
              -74.13473,
              -0.23356
            ],
            [
              -74.11157,
              -0.23508
            ],
            [
              -74.08176,
              -0.27982
            ],
            [
              -74.04467,
              -0.27476
            ],
            [
              -74.0384,
              -0.30606
            ],
            [
              -74.00723,
              -0.34058
            ],
            [
              -73.88141,
              -0.36993
            ],
            [
              -73.81848,
              -0.41119
            ],
            [
              -73.76343,
              -0.40746
            ],
            [
              -73.73481,
              -0.38157
            ],
            [
              -73.71366,
              -0.38265
            ],
            [
              -73.68568,
              -0.41768
            ],
            [
              -73.63926,
              -0.41886
            ],
            [
              -73.6514,
              -0.45717
            ],
            [
              -73.60816,
              -0.43915
            ],
            [
              -73.58465,
              -0.44912
            ],
            [
              -73.56836,
              -0.51683
            ],
            [
              -73.53319,
              -0.48774
            ],
            [
              -73.51048,
              -0.52427
            ],
            [
              -73.43034,
              -0.5109
            ],
            [
              -73.3785,
              -0.53626
            ],
            [
              -73.33188,
              -0.5061
            ],
            [
              -73.3155,
              -0.53094
            ],
            [
              -73.26502,
              -0.55577
            ],
            [
              -73.20676,
              -0.62564
            ],
            [
              -73.12142,
              -0.60413
            ],
            [
              -73.07479,
              -0.62129
            ],
            [
              -73.0533,
              -0.5467
            ],
            [
              -73.02637,
              -0.52687
            ],
            [
              -72.96797,
              -0.5517
            ],
            [
              -72.91728,
              -0.61551
            ],
            [
              -72.81586,
              -0.59921
            ],
            [
              -72.74973,
              -0.555
            ],
            [
              -72.74062,
              -0.58011
            ],
            [
              -72.67765,
              -0.61596
            ],
            [
              -72.67381,
              -0.63518
            ],
            [
              -72.55941,
              -0.70584
            ],
            [
              -72.42497,
              -0.56229
            ],
            [
              -72.40771,
              -0.56807
            ],
            [
              -72.39674,
              -0.61224
            ],
            [
              -72.31831,
              -0.65174
            ],
            [
              -72.24907,
              -0.61372
            ],
            [
              -72.23061,
              -0.49298
            ],
            [
              -72.17279,
              -0.44393
            ],
            [
              -72.14803,
              -0.39539
            ],
            [
              -72.15344,
              -0.35533
            ],
            [
              -72.06272,
              -0.3247
            ],
            [
              -72.04185,
              -0.26917
            ],
            [
              -71.83087,
              -0.2763
            ],
            [
              -71.71133,
              -0.23438
            ],
            [
              -71.73646,
              -0.15453
            ],
            [
              -71.70093,
              -0.09746
            ],
            [
              -71.70483,
              -0.06729
            ],
            [
              -71.59349,
              -0.01442
            ],
            [
              -71.57722,
              0.01574
            ],
            [
              -71.54672,
              0.02134
            ],
            [
              -71.45375,
              -0.01223
            ],
            [
              -71.44838,
              0.00335
            ],
            [
              -71.40045,
              0.00561
            ],
            [
              -71.37059,
              0.03118
            ],
            [
              -71.32787,
              0.01874
            ],
            [
              -71.27136,
              0.03517
            ],
            [
              -71.25385,
              0.05952
            ],
            [
              -71.29664,
              0.07057
            ],
            [
              -71.2903,
              0.09591
            ],
            [
              -71.32851,
              0.11289
            ],
            [
              -71.32096,
              0.13634
            ],
            [
              -71.33525,
              0.155
            ],
            [
              -71.34185,
              0.13829
            ],
            [
              -71.36543,
              0.14456
            ],
            [
              -71.37312,
              0.17212
            ],
            [
              -71.3996,
              0.18586
            ],
            [
              -71.40883,
              0.15069
            ],
            [
              -71.44959,
              0.13903
            ],
            [
              -71.47035,
              0.15264
            ],
            [
              -71.45559,
              0.17407
            ],
            [
              -71.47351,
              0.18499
            ],
            [
              -71.49521,
              0.13479
            ],
            [
              -71.52971,
              0.1199
            ],
            [
              -71.545,
              0.13101
            ],
            [
              -71.53146,
              0.16524
            ],
            [
              -71.58995,
              0.16626
            ],
            [
              -71.56077,
              0.21625
            ],
            [
              -71.60578,
              0.1833
            ],
            [
              -71.63615,
              0.18297
            ],
            [
              -71.61712,
              0.19294
            ],
            [
              -71.62411,
              0.21587
            ],
            [
              -71.64391,
              0.20958
            ],
            [
              -71.69793,
              0.23746
            ],
            [
              -71.7263,
              0.28098
            ],
            [
              -71.70086,
              0.29956
            ],
            [
              -71.70501,
              0.31842
            ],
            [
              -71.73724,
              0.2857
            ],
            [
              -71.75369,
              0.33242
            ],
            [
              -71.78907,
              0.33568
            ],
            [
              -71.76696,
              0.3696
            ],
            [
              -71.81482,
              0.37357
            ],
            [
              -71.80187,
              0.35529
            ],
            [
              -71.82346,
              0.33936
            ],
            [
              -71.85313,
              0.35236
            ],
            [
              -71.82342,
              0.40574
            ],
            [
              -71.8469,
              0.41358
            ],
            [
              -71.85899,
              0.457
            ],
            [
              -71.8871,
              0.46938
            ],
            [
              -71.88984,
              0.44755
            ],
            [
              -71.91937,
              0.451
            ],
            [
              -71.90146,
              0.47198
            ],
            [
              -71.92901,
              0.48662
            ],
            [
              -71.91313,
              0.51454
            ],
            [
              -71.92929,
              0.55343
            ],
            [
              -71.94139,
              0.57105
            ],
            [
              -71.9531,
              0.54001
            ],
            [
              -71.98976,
              0.56302
            ],
            [
              -71.99068,
              0.589
            ],
            [
              -72.01184,
              0.59771
            ],
            [
              -71.98147,
              0.63201
            ],
            [
              -71.99496,
              0.63308
            ],
            [
              -71.99931,
              0.65877
            ],
            [
              -72.03319,
              0.66428
            ]
          ]
        ]
      },
      "properties": {
        "code": "18756",
        "departmentCode": "18",
        "name": "SOLANO",
        "resultType": "observed",
        "source": "dane-divipola-mgn-2025",
        "year": 2025
      }
    },
    {
      "type": "Feature",
      "id": 1960,
      "geometry": {
        "type": "Polygon",
        "coordinates": [
          [
            [
              -75.63404,
              1.01107
            ],
            [
              -75.82071,
              0.93399
            ],
            [
              -75.82377,
              0.91344
            ],
            [
              -75.76031,
              0.83724
            ],
            [
              -75.72061,
              0.8616
            ],
            [
              -75.62841,
              0.87401
            ],
            [
              -75.60777,
              0.83826
            ],
            [
              -75.53793,
              0.8268
            ],
            [
              -75.53839,
              0.78859
            ],
            [
              -75.50288,
              0.76732
            ],
            [
              -75.48433,
              0.78545
            ],
            [
              -75.51992,
              0.80022
            ],
            [
              -75.50896,
              0.8356
            ],
            [
              -75.46956,
              0.84283
            ],
            [
              -75.47931,
              0.86638
            ],
            [
              -75.52043,
              0.89366
            ],
            [
              -75.5659,
              0.89741
            ],
            [
              -75.51453,
              0.93338
            ],
            [
              -75.51742,
              0.96125
            ],
            [
              -75.5993,
              0.98339
            ],
            [
              -75.63404,
              1.01107
            ]
          ]
        ]
      },
      "properties": {
        "code": "18785",
        "departmentCode": "18",
        "name": "SOLITA",
        "resultType": "observed",
        "source": "dane-divipola-mgn-2025",
        "year": 2025
      }
    },
    {
      "type": "Feature",
      "id": 1961,
      "geometry": {
        "type": "Polygon",
        "coordinates": [
          [
            [
              -75.73128,
              1.3274
            ],
            [
              -75.74818,
              1.32341
            ],
            [
              -75.75429,
              1.29998
            ],
            [
              -75.71627,
              1.20595
            ],
            [
              -75.76836,
              1.18524
            ],
            [
              -75.77774,
              1.16588
            ],
            [
              -75.80631,
              1.17565
            ],
            [
              -75.81885,
              1.158
            ],
            [
              -75.81355,
              1.11201
            ],
            [
              -75.86016,
              1.09167
            ],
            [
              -75.84861,
              1.06915
            ],
            [
              -75.87572,
              1.02207
            ],
            [
              -75.84527,
              0.94812
            ],
            [
              -75.82071,
              0.93399
            ],
            [
              -75.71857,
              0.96777
            ],
            [
              -75.71756,
              0.98133
            ],
            [
              -75.63939,
              1.01338
            ],
            [
              -75.5993,
              0.98339
            ],
            [
              -75.51742,
              0.96125
            ],
            [
              -75.51453,
              0.93338
            ],
            [
              -75.5659,
              0.89741
            ],
            [
              -75.4951,
              0.88353
            ],
            [
              -75.46956,
              0.84283
            ],
            [
              -75.32399,
              0.92453
            ],
            [
              -75.40035,
              1.03135
            ],
            [
              -75.54361,
              1.0896
            ],
            [
              -75.57682,
              1.22731
            ],
            [
              -75.6192,
              1.21706
            ],
            [
              -75.64734,
              1.22901
            ],
            [
              -75.66304,
              1.29232
            ],
            [
              -75.70457,
              1.29524
            ],
            [
              -75.70189,
              1.3215
            ],
            [
              -75.73128,
              1.3274
            ]
          ]
        ]
      },
      "properties": {
        "code": "18860",
        "departmentCode": "18",
        "name": "VALPARAÍSO",
        "resultType": "observed",
        "source": "dane-divipola-mgn-2025",
        "year": 2025
      }
    }
  ]
}
