{
  "type": "FeatureCollection",
  "metadata": {
    "source": "DANE DIVIPOLA MGN 2025",
    "downloadedAt": "2026-07-25T07:50:10Z",
    "crs": "EPSG:4326",
    "simplification": "ArcGIS maxAllowableOffset=0.01 grados y geometryPrecision=5; solo visualización web"
  },
  "features": [
    {
      "type": "Feature",
      "id": 2004,
      "geometry": {
        "type": "Polygon",
        "coordinates": [
          [
            [
              -73.08241,
              10.62805
            ],
            [
              -73.10656,
              10.6771
            ],
            [
              -73.14614,
              10.69151
            ],
            [
              -73.15715,
              10.71543
            ],
            [
              -73.20763,
              10.70746
            ],
            [
              -73.23732,
              10.74047
            ],
            [
              -73.27783,
              10.72643
            ],
            [
              -73.25244,
              10.77073
            ],
            [
              -73.2522,
              10.81316
            ],
            [
              -73.28947,
              10.86227
            ],
            [
              -73.31232,
              10.84615
            ],
            [
              -73.33755,
              10.86256
            ],
            [
              -73.47941,
              10.86717
            ],
            [
              -73.58457,
              10.8421
            ],
            [
              -73.63522,
              10.80786
            ],
            [
              -73.63866,
              10.78779
            ],
            [
              -73.58879,
              10.78163
            ],
            [
              -73.54191,
              10.75472
            ],
            [
              -73.56232,
              10.74085
            ],
            [
              -73.51941,
              10.72298
            ],
            [
              -73.52,
              10.59551
            ],
            [
              -73.50079,
              10.52437
            ],
            [
              -73.47052,
              10.49919
            ],
            [
              -73.49361,
              10.48946
            ],
            [
              -73.49489,
              10.47299
            ],
            [
              -73.43728,
              10.38898
            ],
            [
              -73.45448,
              10.37291
            ],
            [
              -73.44812,
              10.34859
            ],
            [
              -73.49553,
              10.34802
            ],
            [
              -73.51439,
              10.33116
            ],
            [
              -73.63254,
              10.33613
            ],
            [
              -73.65492,
              10.31909
            ],
            [
              -73.68933,
              10.34242
            ],
            [
              -73.72132,
              10.32981
            ],
            [
              -73.73445,
              10.35122
            ],
            [
              -73.74901,
              10.31156
            ],
            [
              -73.7696,
              10.30824
            ],
            [
              -73.81294,
              10.25753
            ],
            [
              -73.79399,
              10.2277
            ],
            [
              -73.80028,
              10.16646
            ],
            [
              -73.75539,
              10.15078
            ],
            [
              -73.79434,
              10.12843
            ],
            [
              -73.80306,
              10.08055
            ],
            [
              -73.83931,
              10.04605
            ],
            [
              -73.7964,
              10.05078
            ],
            [
              -73.75693,
              9.99364
            ],
            [
              -73.73081,
              9.90896
            ],
            [
              -73.74272,
              9.91107
            ],
            [
              -73.73275,
              9.83586
            ],
            [
              -73.65034,
              9.83059
            ],
            [
              -73.65107,
              9.85586
            ],
            [
              -73.64021,
              9.82415
            ],
            [
              -73.61836,
              9.81862
            ],
            [
              -73.61728,
              9.84386
            ],
            [
              -73.5868,
              9.87208
            ],
            [
              -73.58962,
              9.92501
            ],
            [
              -73.56688,
              9.93885
            ],
            [
              -73.5374,
              10.01468
            ],
            [
              -73.49853,
              10.02166
            ],
            [
              -73.48289,
              10.064
            ],
            [
              -73.42545,
              10.09137
            ],
            [
              -73.37899,
              10.16146
            ],
            [
              -73.3237,
              10.21052
            ],
            [
              -73.29833,
              10.21464
            ],
            [
              -73.26521,
              10.25797
            ],
            [
              -73.27811,
              10.26736
            ],
            [
              -73.24301,
              10.30715
            ],
            [
              -73.25084,
              10.34334
            ],
            [
              -73.22196,
              10.369
            ],
            [
              -73.23393,
              10.3867
            ],
            [
              -73.18597,
              10.43401
            ],
            [
              -73.1751,
              10.48099
            ],
            [
              -73.14488,
              10.49949
            ],
            [
              -73.13755,
              10.53034
            ],
            [
              -73.09882,
              10.54977
            ],
            [
              -73.08241,
              10.62805
            ]
          ]
        ]
      },
      "properties": {
        "code": "20001",
        "departmentCode": "20",
        "name": "VALLEDUPAR",
        "resultType": "observed",
        "source": "dane-divipola-mgn-2025",
        "year": 2025
      }
    },
    {
      "type": "Feature",
      "id": 2005,
      "geometry": {
        "type": "Polygon",
        "coordinates": [
          [
            [
              -73.60032,
              8.10754
            ],
            [
              -73.5684,
              8.10746
            ],
            [
              -73.60379,
              8.17939
            ],
            [
              -73.55826,
              8.20495
            ],
            [
              -73.53641,
              8.27994
            ],
            [
              -73.45657,
              8.36145
            ],
            [
              -73.48822,
              8.38404
            ],
            [
              -73.53,
              8.38079
            ],
            [
              -73.47329,
              8.44683
            ],
            [
              -73.47767,
              8.47012
            ],
            [
              -73.52277,
              8.48293
            ],
            [
              -73.5477,
              8.47141
            ],
            [
              -73.57548,
              8.50587
            ],
            [
              -73.59223,
              8.48691
            ],
            [
              -73.63784,
              8.48745
            ],
            [
              -73.61491,
              8.38979
            ],
            [
              -73.65247,
              8.38933
            ],
            [
              -73.64479,
              8.3621
            ],
            [
              -73.68083,
              8.33267
            ],
            [
              -73.69902,
              8.23011
            ],
            [
              -73.68412,
              8.18738
            ],
            [
              -73.75279,
              8.18712
            ],
            [
              -73.74808,
              8.15428
            ],
            [
              -73.77121,
              8.15461
            ],
            [
              -73.76961,
              8.11651
            ],
            [
              -73.79142,
              8.10281
            ],
            [
              -73.70752,
              7.99064
            ],
            [
              -73.64202,
              7.99374
            ],
            [
              -73.61607,
              8.0102
            ],
            [
              -73.65493,
              8.10923
            ],
            [
              -73.60032,
              8.10754
            ]
          ]
        ]
      },
      "properties": {
        "code": "20011",
        "departmentCode": "20",
        "name": "AGUACHICA",
        "resultType": "observed",
        "source": "dane-divipola-mgn-2025",
        "year": 2025
      }
    },
    {
      "type": "Feature",
      "id": 2006,
      "geometry": {
        "type": "Polygon",
        "coordinates": [
          [
            [
              -72.90076,
              10.24846
            ],
            [
              -72.90699,
              10.26797
            ],
            [
              -72.97692,
              10.17974
            ],
            [
              -73.03233,
              10.15611
            ],
            [
              -73.07569,
              10.11099
            ],
            [
              -73.11273,
              10.09921
            ],
            [
              -73.14139,
              10.11347
            ],
            [
              -73.15066,
              10.07857
            ],
            [
              -73.1915,
              10.04244
            ],
            [
              -73.22475,
              10.06516
            ],
            [
              -73.27758,
              10.04562
            ],
            [
              -73.31903,
              10.06576
            ],
            [
              -73.36731,
              10.05102
            ],
            [
              -73.45008,
              9.96126
            ],
            [
              -73.46786,
              9.95968
            ],
            [
              -73.43568,
              9.92728
            ],
            [
              -73.50012,
              9.88196
            ],
            [
              -73.55549,
              9.80333
            ],
            [
              -73.62765,
              9.75796
            ],
            [
              -73.62768,
              9.72416
            ],
            [
              -73.56396,
              9.75456
            ],
            [
              -73.51494,
              9.75589
            ],
            [
              -73.49921,
              9.73822
            ],
            [
              -73.47038,
              9.77232
            ],
            [
              -73.44183,
              9.76462
            ],
            [
              -73.37246,
              9.78512
            ],
            [
              -73.32988,
              9.77363
            ],
            [
              -73.26993,
              9.81716
            ],
            [
              -73.21641,
              9.81907
            ],
            [
              -73.171,
              9.793
            ],
            [
              -73.12547,
              9.82239
            ],
            [
              -72.99888,
              9.91996
            ],
            [
              -72.95291,
              10.02679
            ],
            [
              -72.95469,
              10.06601
            ],
            [
              -72.91159,
              10.11208
            ],
            [
              -72.922,
              10.13796
            ],
            [
              -72.90076,
              10.24846
            ]
          ]
        ]
      },
      "properties": {
        "code": "20013",
        "departmentCode": "20",
        "name": "AGUSTÍN CODAZZI",
        "resultType": "observed",
        "source": "dane-divipola-mgn-2025",
        "year": 2025
      }
    },
    {
      "type": "Feature",
      "id": 2007,
      "geometry": {
        "type": "Polygon",
        "coordinates": [
          [
            [
              -73.80394,
              9.63457
            ],
            [
              -73.86789,
              9.601
            ],
            [
              -73.8934,
              9.61643
            ],
            [
              -73.98926,
              9.57981
            ],
            [
              -74.00396,
              9.59536
            ],
            [
              -74.03674,
              9.59132
            ],
            [
              -74.13916,
              9.49378
            ],
            [
              -74.09741,
              9.4767
            ],
            [
              -74.00832,
              9.39886
            ],
            [
              -73.93019,
              9.38274
            ],
            [
              -73.90986,
              9.39446
            ],
            [
              -73.8913,
              9.44398
            ],
            [
              -73.792,
              9.46805
            ],
            [
              -73.79979,
              9.48907
            ],
            [
              -73.78448,
              9.52216
            ],
            [
              -73.80054,
              9.56174
            ],
            [
              -73.77498,
              9.5961
            ],
            [
              -73.80394,
              9.63457
            ]
          ]
        ]
      },
      "properties": {
        "code": "20032",
        "departmentCode": "20",
        "name": "ASTREA",
        "resultType": "observed",
        "source": "dane-divipola-mgn-2025",
        "year": 2025
      }
    },
    {
      "type": "Feature",
      "id": 2008,
      "geometry": {
        "type": "Polygon",
        "coordinates": [
          [
            [
              -72.99409,
              9.91619
            ],
            [
              -73.06087,
              9.88195
            ],
            [
              -73.171,
              9.793
            ],
            [
              -73.21641,
              9.81907
            ],
            [
              -73.26695,
              9.81766
            ],
            [
              -73.32988,
              9.77363
            ],
            [
              -73.37246,
              9.78512
            ],
            [
              -73.44183,
              9.76462
            ],
            [
              -73.47046,
              9.7723
            ],
            [
              -73.49921,
              9.73822
            ],
            [
              -73.51502,
              9.7559
            ],
            [
              -73.58732,
              9.75136
            ],
            [
              -73.64356,
              9.69254
            ],
            [
              -73.64223,
              9.65104
            ],
            [
              -73.63183,
              9.6392
            ],
            [
              -73.54754,
              9.66627
            ],
            [
              -73.49585,
              9.66618
            ],
            [
              -73.46244,
              9.69445
            ],
            [
              -73.37825,
              9.64837
            ],
            [
              -73.36251,
              9.60646
            ],
            [
              -73.31104,
              9.58594
            ],
            [
              -73.2805,
              9.60293
            ],
            [
              -73.23932,
              9.59796
            ],
            [
              -73.19428,
              9.62954
            ],
            [
              -73.14651,
              9.61917
            ],
            [
              -73.12133,
              9.63808
            ],
            [
              -73.07012,
              9.63252
            ],
            [
              -72.9944,
              9.78338
            ],
            [
              -72.94354,
              9.84313
            ],
            [
              -72.99296,
              9.87637
            ],
            [
              -72.97721,
              9.889
            ],
            [
              -72.98154,
              9.91627
            ],
            [
              -72.99409,
              9.91619
            ]
          ]
        ]
      },
      "properties": {
        "code": "20045",
        "departmentCode": "20",
        "name": "BECERRIL",
        "resultType": "observed",
        "source": "dane-divipola-mgn-2025",
        "year": 2025
      }
    },
    {
      "type": "Feature",
      "id": 2009,
      "geometry": {
        "type": "Polygon",
        "coordinates": [
          [
            [
              -73.82289,
              10.07691
            ],
            [
              -74.01766,
              10.02509
            ],
            [
              -74.03667,
              10.004
            ],
            [
              -74.00183,
              9.9402
            ],
            [
              -73.95267,
              9.92694
            ],
            [
              -73.89496,
              9.83209
            ],
            [
              -73.83563,
              9.78031
            ],
            [
              -73.82273,
              9.80994
            ],
            [
              -73.73546,
              9.88443
            ],
            [
              -73.74272,
              9.91107
            ],
            [
              -73.73079,
              9.90838
            ],
            [
              -73.78849,
              10.04241
            ],
            [
              -73.83931,
              10.04605
            ],
            [
              -73.81282,
              10.07444
            ],
            [
              -73.82289,
              10.07691
            ]
          ]
        ]
      },
      "properties": {
        "code": "20060",
        "departmentCode": "20",
        "name": "BOSCONIA",
        "resultType": "observed",
        "source": "dane-divipola-mgn-2025",
        "year": 2025
      }
    },
    {
      "type": "Feature",
      "id": 2010,
      "geometry": {
        "type": "Polygon",
        "coordinates": [
          [
            [
              -73.79569,
              9.49119
            ],
            [
              -73.792,
              9.46805
            ],
            [
              -73.89214,
              9.44337
            ],
            [
              -73.90986,
              9.39446
            ],
            [
              -73.92882,
              9.38349
            ],
            [
              -73.98321,
              9.38485
            ],
            [
              -73.98907,
              9.31672
            ],
            [
              -73.94279,
              9.28956
            ],
            [
              -73.96203,
              9.18768
            ],
            [
              -73.89283,
              9.17359
            ],
            [
              -73.86662,
              9.18297
            ],
            [
              -73.87533,
              9.13054
            ],
            [
              -73.79896,
              9.05927
            ],
            [
              -73.65087,
              9.03048
            ],
            [
              -73.6107,
              9.04116
            ],
            [
              -73.58018,
              9.07047
            ],
            [
              -73.56115,
              9.06282
            ],
            [
              -73.539,
              8.9986
            ],
            [
              -73.49096,
              8.98209
            ],
            [
              -73.43391,
              9.001
            ],
            [
              -73.41194,
              9.05267
            ],
            [
              -73.41646,
              9.08391
            ],
            [
              -73.42467,
              9.12221
            ],
            [
              -73.45428,
              9.13732
            ],
            [
              -73.51514,
              9.13013
            ],
            [
              -73.64329,
              9.07302
            ],
            [
              -73.66648,
              9.12146
            ],
            [
              -73.65717,
              9.1424
            ],
            [
              -73.66989,
              9.18917
            ],
            [
              -73.69555,
              9.21767
            ],
            [
              -73.68466,
              9.24067
            ],
            [
              -73.70695,
              9.28087
            ],
            [
              -73.69465,
              9.32573
            ],
            [
              -73.74728,
              9.38071
            ],
            [
              -73.75715,
              9.47878
            ],
            [
              -73.79569,
              9.49119
            ]
          ]
        ]
      },
      "properties": {
        "code": "20175",
        "departmentCode": "20",
        "name": "CHIMICHAGUA",
        "resultType": "observed",
        "source": "dane-divipola-mgn-2025",
        "year": 2025
      }
    },
    {
      "type": "Feature",
      "id": 2011,
      "geometry": {
        "type": "Polygon",
        "coordinates": [
          [
            [
              -73.52508,
              9.60096
            ],
            [
              -73.5557,
              9.61015
            ],
            [
              -73.62832,
              9.5828
            ],
            [
              -73.64592,
              9.56821
            ],
            [
              -73.63582,
              9.5239
            ],
            [
              -73.79166,
              9.52247
            ],
            [
              -73.78941,
              9.48594
            ],
            [
              -73.75152,
              9.46828
            ],
            [
              -73.76082,
              9.44148
            ],
            [
              -73.73323,
              9.35195
            ],
            [
              -73.71666,
              9.35425
            ],
            [
              -73.69465,
              9.32573
            ],
            [
              -73.70695,
              9.28087
            ],
            [
              -73.68492,
              9.23926
            ],
            [
              -73.657,
              9.28029
            ],
            [
              -73.55401,
              9.28554
            ],
            [
              -73.5362,
              9.31729
            ],
            [
              -73.49738,
              9.33011
            ],
            [
              -73.4574,
              9.39691
            ],
            [
              -73.42118,
              9.4115
            ],
            [
              -73.38212,
              9.40685
            ],
            [
              -73.36822,
              9.36047
            ],
            [
              -73.31288,
              9.35155
            ],
            [
              -73.27014,
              9.32346
            ],
            [
              -73.2408,
              9.40348
            ],
            [
              -73.20743,
              9.42371
            ],
            [
              -73.2099,
              9.44613
            ],
            [
              -73.25381,
              9.46765
            ],
            [
              -73.28725,
              9.44597
            ],
            [
              -73.34142,
              9.46471
            ],
            [
              -73.37111,
              9.44699
            ],
            [
              -73.43222,
              9.48406
            ],
            [
              -73.50331,
              9.47907
            ],
            [
              -73.54157,
              9.51031
            ],
            [
              -73.57314,
              9.51236
            ],
            [
              -73.57632,
              9.52782
            ],
            [
              -73.52929,
              9.52932
            ],
            [
              -73.48575,
              9.58147
            ],
            [
              -73.52508,
              9.60096
            ]
          ]
        ]
      },
      "properties": {
        "code": "20178",
        "departmentCode": "20",
        "name": "CHIRIGUANÁ",
        "resultType": "observed",
        "source": "dane-divipola-mgn-2025",
        "year": 2025
      }
    },
    {
      "type": "Feature",
      "id": 2012,
      "geometry": {
        "type": "Polygon",
        "coordinates": [
          [
            [
              -73.36904,
              9.17257
            ],
            [
              -73.35621,
              9.21558
            ],
            [
              -73.3333,
              9.21278
            ],
            [
              -73.29838,
              9.26667
            ],
            [
              -73.28875,
              9.31484
            ],
            [
              -73.27014,
              9.32346
            ],
            [
              -73.31288,
              9.35155
            ],
            [
              -73.36822,
              9.36047
            ],
            [
              -73.38402,
              9.40787
            ],
            [
              -73.4574,
              9.39691
            ],
            [
              -73.49738,
              9.33011
            ],
            [
              -73.5362,
              9.31729
            ],
            [
              -73.55401,
              9.28554
            ],
            [
              -73.657,
              9.28029
            ],
            [
              -73.69555,
              9.21767
            ],
            [
              -73.66989,
              9.18917
            ],
            [
              -73.65717,
              9.1424
            ],
            [
              -73.66648,
              9.12146
            ],
            [
              -73.63795,
              9.06944
            ],
            [
              -73.51514,
              9.13013
            ],
            [
              -73.45428,
              9.13732
            ],
            [
              -73.42467,
              9.12221
            ],
            [
              -73.40595,
              9.16139
            ],
            [
              -73.38119,
              9.15278
            ],
            [
              -73.36904,
              9.17257
            ]
          ]
        ]
      },
      "properties": {
        "code": "20228",
        "departmentCode": "20",
        "name": "CURUMANÍ",
        "resultType": "observed",
        "source": "dane-divipola-mgn-2025",
        "year": 2025
      }
    },
    {
      "type": "Feature",
      "id": 2013,
      "geometry": {
        "type": "Polygon",
        "coordinates": [
          [
            [
              -73.82925,
              10.39983
            ],
            [
              -73.89363,
              10.39069
            ],
            [
              -73.93287,
              10.36582
            ],
            [
              -73.96144,
              10.3365
            ],
            [
              -73.96509,
              10.2881
            ],
            [
              -74.04081,
              10.2199
            ],
            [
              -74.08437,
              10.07306
            ],
            [
              -74.05109,
              10.01025
            ],
            [
              -74.03304,
              10.00431
            ],
            [
              -74.01766,
              10.02509
            ],
            [
              -73.81282,
              10.07444
            ],
            [
              -73.79434,
              10.12843
            ],
            [
              -73.75546,
              10.15065
            ],
            [
              -73.80013,
              10.16619
            ],
            [
              -73.79399,
              10.2277
            ],
            [
              -73.81368,
              10.25394
            ],
            [
              -73.7696,
              10.30824
            ],
            [
              -73.74901,
              10.31156
            ],
            [
              -73.73445,
              10.35122
            ],
            [
              -73.77675,
              10.35022
            ],
            [
              -73.79173,
              10.39233
            ],
            [
              -73.81807,
              10.38512
            ],
            [
              -73.82925,
              10.39983
            ]
          ]
        ]
      },
      "properties": {
        "code": "20238",
        "departmentCode": "20",
        "name": "EL COPEY",
        "resultType": "observed",
        "source": "dane-divipola-mgn-2025",
        "year": 2025
      }
    },
    {
      "type": "Feature",
      "id": 2014,
      "geometry": {
        "type": "Polygon",
        "coordinates": [
          [
            [
              -73.65699,
              9.83134
            ],
            [
              -73.72349,
              9.82838
            ],
            [
              -73.74158,
              9.84719
            ],
            [
              -73.73546,
              9.88443
            ],
            [
              -73.83204,
              9.7992
            ],
            [
              -73.83902,
              9.73102
            ],
            [
              -73.81041,
              9.69649
            ],
            [
              -73.80825,
              9.64221
            ],
            [
              -73.77499,
              9.59622
            ],
            [
              -73.80054,
              9.56174
            ],
            [
              -73.78559,
              9.52384
            ],
            [
              -73.63582,
              9.5239
            ],
            [
              -73.6456,
              9.56945
            ],
            [
              -73.59142,
              9.60212
            ],
            [
              -73.5557,
              9.61015
            ],
            [
              -73.48534,
              9.58178
            ],
            [
              -73.43366,
              9.62388
            ],
            [
              -73.46242,
              9.63266
            ],
            [
              -73.46823,
              9.62093
            ],
            [
              -73.49867,
              9.64004
            ],
            [
              -73.48996,
              9.67417
            ],
            [
              -73.63826,
              9.6449
            ],
            [
              -73.64368,
              9.69214
            ],
            [
              -73.61772,
              9.71785
            ],
            [
              -73.63347,
              9.7432
            ],
            [
              -73.61245,
              9.79679
            ],
            [
              -73.65107,
              9.85586
            ],
            [
              -73.65699,
              9.83134
            ]
          ]
        ]
      },
      "properties": {
        "code": "20250",
        "departmentCode": "20",
        "name": "EL PASO",
        "resultType": "observed",
        "source": "dane-divipola-mgn-2025",
        "year": 2025
      }
    },
    {
      "type": "Feature",
      "id": 2015,
      "geometry": {
        "type": "Polygon",
        "coordinates": [
          [
            [
              -73.64746,
              8.4899
            ],
            [
              -73.67543,
              8.46169
            ],
            [
              -73.74873,
              8.4451
            ],
            [
              -73.75763,
              8.33425
            ],
            [
              -73.74675,
              8.31685
            ],
            [
              -73.76033,
              8.29987
            ],
            [
              -73.75027,
              8.27188
            ],
            [
              -73.77956,
              8.20813
            ],
            [
              -73.77121,
              8.15461
            ],
            [
              -73.74808,
              8.15428
            ],
            [
              -73.75279,
              8.18712
            ],
            [
              -73.68412,
              8.18738
            ],
            [
              -73.69902,
              8.23011
            ],
            [
              -73.68083,
              8.33267
            ],
            [
              -73.64479,
              8.3621
            ],
            [
              -73.65247,
              8.38933
            ],
            [
              -73.61491,
              8.38979
            ],
            [
              -73.64746,
              8.4899
            ]
          ]
        ]
      },
      "properties": {
        "code": "20295",
        "departmentCode": "20",
        "name": "GAMARRA",
        "resultType": "observed",
        "source": "dane-divipola-mgn-2025",
        "year": 2025
      }
    },
    {
      "type": "Feature",
      "id": 2016,
      "geometry": {
        "type": "Polygon",
        "coordinates": [
          [
            [
              -73.34802,
              8.39193
            ],
            [
              -73.34404,
              8.43828
            ],
            [
              -73.37035,
              8.45908
            ],
            [
              -73.4144,
              8.45926
            ],
            [
              -73.39316,
              8.38213
            ],
            [
              -73.41169,
              8.36947
            ],
            [
              -73.37595,
              8.35999
            ],
            [
              -73.35969,
              8.32771
            ],
            [
              -73.34802,
              8.39193
            ]
          ]
        ]
      },
      "properties": {
        "code": "20310",
        "departmentCode": "20",
        "name": "GONZÁLEZ",
        "resultType": "observed",
        "source": "dane-divipola-mgn-2025",
        "year": 2025
      }
    },
    {
      "type": "Feature",
      "id": 2017,
      "geometry": {
        "type": "Polygon",
        "coordinates": [
          [
            [
              -73.42768,
              8.81805
            ],
            [
              -73.45614,
              8.79706
            ],
            [
              -73.51262,
              8.79162
            ],
            [
              -73.52458,
              8.77506
            ],
            [
              -73.53706,
              8.78611
            ],
            [
              -73.59108,
              8.77245
            ],
            [
              -73.61492,
              8.74025
            ],
            [
              -73.61597,
              8.69289
            ],
            [
              -73.64854,
              8.66984
            ],
            [
              -73.64667,
              8.65405
            ],
            [
              -73.67734,
              8.64666
            ],
            [
              -73.80701,
              8.66526
            ],
            [
              -73.80489,
              8.70877
            ],
            [
              -73.75486,
              8.73619
            ],
            [
              -73.78916,
              8.7515
            ],
            [
              -73.81026,
              8.73317
            ],
            [
              -73.81677,
              8.63289
            ],
            [
              -73.7749,
              8.56055
            ],
            [
              -73.77986,
              8.51185
            ],
            [
              -73.74674,
              8.44922
            ],
            [
              -73.67543,
              8.46169
            ],
            [
              -73.65406,
              8.48901
            ],
            [
              -73.59223,
              8.48691
            ],
            [
              -73.51499,
              8.52898
            ],
            [
              -73.5472,
              8.56432
            ],
            [
              -73.55218,
              8.60735
            ],
            [
              -73.52159,
              8.63826
            ],
            [
              -73.50502,
              8.68849
            ],
            [
              -73.47177,
              8.70745
            ],
            [
              -73.46268,
              8.74534
            ],
            [
              -73.41614,
              8.76255
            ],
            [
              -73.42768,
              8.81805
            ]
          ]
        ]
      },
      "properties": {
        "code": "20383",
        "departmentCode": "20",
        "name": "LA GLORIA",
        "resultType": "observed",
        "source": "dane-divipola-mgn-2025",
        "year": 2025
      }
    },
    {
      "type": "Feature",
      "id": 2018,
      "geometry": {
        "type": "Polygon",
        "coordinates": [
          [
            [
              -73.46116,
              9.69282
            ],
            [
              -73.48996,
              9.67417
            ],
            [
              -73.49867,
              9.64004
            ],
            [
              -73.46823,
              9.62093
            ],
            [
              -73.44653,
              9.63162
            ],
            [
              -73.43362,
              9.62399
            ],
            [
              -73.44059,
              9.60933
            ],
            [
              -73.49256,
              9.5773
            ],
            [
              -73.52929,
              9.52932
            ],
            [
              -73.57632,
              9.52782
            ],
            [
              -73.57314,
              9.51236
            ],
            [
              -73.54157,
              9.51031
            ],
            [
              -73.50331,
              9.47907
            ],
            [
              -73.43222,
              9.48406
            ],
            [
              -73.37111,
              9.44699
            ],
            [
              -73.34142,
              9.46471
            ],
            [
              -73.28725,
              9.44597
            ],
            [
              -73.25381,
              9.46765
            ],
            [
              -73.2099,
              9.44613
            ],
            [
              -73.20743,
              9.42371
            ],
            [
              -73.1868,
              9.44818
            ],
            [
              -73.19815,
              9.47583
            ],
            [
              -73.17396,
              9.47967
            ],
            [
              -73.17669,
              9.50105
            ],
            [
              -73.13699,
              9.54976
            ],
            [
              -73.0847,
              9.55653
            ],
            [
              -73.06771,
              9.60679
            ],
            [
              -73.07827,
              9.61207
            ],
            [
              -73.07012,
              9.63252
            ],
            [
              -73.12133,
              9.63808
            ],
            [
              -73.14568,
              9.61922
            ],
            [
              -73.18616,
              9.63102
            ],
            [
              -73.24036,
              9.59763
            ],
            [
              -73.32936,
              9.58744
            ],
            [
              -73.36288,
              9.60679
            ],
            [
              -73.37825,
              9.64837
            ],
            [
              -73.46116,
              9.69282
            ]
          ]
        ]
      },
      "properties": {
        "code": "20400",
        "departmentCode": "20",
        "name": "LA JAGUA DE IBIRICO",
        "resultType": "observed",
        "source": "dane-divipola-mgn-2025",
        "year": 2025
      }
    },
    {
      "type": "Feature",
      "id": 2019,
      "geometry": {
        "type": "Polygon",
        "coordinates": [
          [
            [
              -72.89964,
              10.43437
            ],
            [
              -72.98688,
              10.40048
            ],
            [
              -73.08477,
              10.42632
            ],
            [
              -73.12837,
              10.39885
            ],
            [
              -73.09855,
              10.39513
            ],
            [
              -73.04733,
              10.35368
            ],
            [
              -72.96355,
              10.3709
            ],
            [
              -72.90643,
              10.35323
            ],
            [
              -72.88575,
              10.38457
            ],
            [
              -72.89964,
              10.43437
            ]
          ]
        ]
      },
      "properties": {
        "code": "20443",
        "departmentCode": "20",
        "name": "MANAURE BALCÓN DEL CESAR",
        "resultType": "observed",
        "source": "dane-divipola-mgn-2025",
        "year": 2025
      }
    },
    {
      "type": "Feature",
      "id": 2020,
      "geometry": {
        "type": "Polygon",
        "coordinates": [
          [
            [
              -73.69674,
              8.87805
            ],
            [
              -73.68065,
              8.83772
            ],
            [
              -73.64914,
              8.8491
            ],
            [
              -73.61023,
              8.89242
            ],
            [
              -73.56509,
              8.83135
            ],
            [
              -73.46032,
              8.85308
            ],
            [
              -73.45252,
              8.8709
            ],
            [
              -73.43415,
              8.87134
            ],
            [
              -73.42568,
              8.89957
            ],
            [
              -73.4374,
              8.91003
            ],
            [
              -73.43642,
              8.99994
            ],
            [
              -73.49096,
              8.98209
            ],
            [
              -73.539,
              8.9986
            ],
            [
              -73.56115,
              9.06282
            ],
            [
              -73.58018,
              9.07047
            ],
            [
              -73.61107,
              9.04103
            ],
            [
              -73.69041,
              9.03869
            ],
            [
              -73.69674,
              8.87805
            ]
          ]
        ]
      },
      "properties": {
        "code": "20517",
        "departmentCode": "20",
        "name": "PAILITAS",
        "resultType": "observed",
        "source": "dane-divipola-mgn-2025",
        "year": 2025
      }
    },
    {
      "type": "Feature",
      "id": 2021,
      "geometry": {
        "type": "Polygon",
        "coordinates": [
          [
            [
              -73.44728,
              8.87092
            ],
            [
              -73.46032,
              8.85308
            ],
            [
              -73.53938,
              8.827
            ],
            [
              -73.56901,
              8.83326
            ],
            [
              -73.61023,
              8.89242
            ],
            [
              -73.67347,
              8.84164
            ],
            [
              -73.69136,
              8.73993
            ],
            [
              -73.75848,
              8.74023
            ],
            [
              -73.76381,
              8.72204
            ],
            [
              -73.80489,
              8.70877
            ],
            [
              -73.80701,
              8.66526
            ],
            [
              -73.64667,
              8.65405
            ],
            [
              -73.64854,
              8.66984
            ],
            [
              -73.61597,
              8.69289
            ],
            [
              -73.61492,
              8.74025
            ],
            [
              -73.59108,
              8.77245
            ],
            [
              -73.53706,
              8.78611
            ],
            [
              -73.52458,
              8.77506
            ],
            [
              -73.51262,
              8.79162
            ],
            [
              -73.45614,
              8.79706
            ],
            [
              -73.43185,
              8.81585
            ],
            [
              -73.44728,
              8.87092
            ]
          ]
        ]
      },
      "properties": {
        "code": "20550",
        "departmentCode": "20",
        "name": "PELAYA",
        "resultType": "observed",
        "source": "dane-divipola-mgn-2025",
        "year": 2025
      }
    },
    {
      "type": "Feature",
      "id": 2022,
      "geometry": {
        "type": "Polygon",
        "coordinates": [
          [
            [
              -73.51942,
              10.71994
            ],
            [
              -73.56232,
              10.74085
            ],
            [
              -73.56292,
              10.71621
            ],
            [
              -73.58581,
              10.71478
            ],
            [
              -73.613,
              10.66637
            ],
            [
              -73.59415,
              10.60039
            ],
            [
              -73.61343,
              10.56423
            ],
            [
              -73.57047,
              10.54178
            ],
            [
              -73.5631,
              10.50381
            ],
            [
              -73.63984,
              10.50077
            ],
            [
              -73.6593,
              10.4554
            ],
            [
              -73.70332,
              10.4636
            ],
            [
              -73.70417,
              10.43011
            ],
            [
              -73.74047,
              10.43586
            ],
            [
              -73.78999,
              10.39699
            ],
            [
              -73.77675,
              10.35022
            ],
            [
              -73.73445,
              10.35122
            ],
            [
              -73.72107,
              10.32977
            ],
            [
              -73.68933,
              10.34242
            ],
            [
              -73.65492,
              10.31909
            ],
            [
              -73.63254,
              10.33613
            ],
            [
              -73.51439,
              10.33116
            ],
            [
              -73.49553,
              10.34802
            ],
            [
              -73.4421,
              10.35391
            ],
            [
              -73.45448,
              10.37291
            ],
            [
              -73.43774,
              10.39137
            ],
            [
              -73.49489,
              10.47299
            ],
            [
              -73.49361,
              10.48946
            ],
            [
              -73.47052,
              10.49919
            ],
            [
              -73.50079,
              10.52437
            ],
            [
              -73.52,
              10.59551
            ],
            [
              -73.51942,
              10.71994
            ]
          ]
        ]
      },
      "properties": {
        "code": "20570",
        "departmentCode": "20",
        "name": "PUEBLO BELLO",
        "resultType": "observed",
        "source": "dane-divipola-mgn-2025",
        "year": 2025
      }
    },
    {
      "type": "Feature",
      "id": 2023,
      "geometry": {
        "type": "Polygon",
        "coordinates": [
          [
            [
              -73.60032,
              8.10754
            ],
            [
              -73.65493,
              8.10923
            ],
            [
              -73.63885,
              8.06613
            ],
            [
              -73.519,
              8.06607
            ],
            [
              -73.47717,
              8.0874
            ],
            [
              -73.42457,
              8.08079
            ],
            [
              -73.39645,
              8.10657
            ],
            [
              -73.39655,
              8.1219
            ],
            [
              -73.43066,
              8.12482
            ],
            [
              -73.42808,
              8.18052
            ],
            [
              -73.4489,
              8.19252
            ],
            [
              -73.42934,
              8.22486
            ],
            [
              -73.44063,
              8.25724
            ],
            [
              -73.37418,
              8.26601
            ],
            [
              -73.37659,
              8.31052
            ],
            [
              -73.35871,
              8.32425
            ],
            [
              -73.37595,
              8.35999
            ],
            [
              -73.4317,
              8.36645
            ],
            [
              -73.44181,
              8.34084
            ],
            [
              -73.45766,
              8.36155
            ],
            [
              -73.52803,
              8.29034
            ],
            [
              -73.55819,
              8.20504
            ],
            [
              -73.60412,
              8.17855
            ],
            [
              -73.5684,
              8.10746
            ],
            [
              -73.60032,
              8.10754
            ]
          ]
        ]
      },
      "properties": {
        "code": "20614",
        "departmentCode": "20",
        "name": "RÍO DE ORO",
        "resultType": "observed",
        "source": "dane-divipola-mgn-2025",
        "year": 2025
      }
    },
    {
      "type": "Feature",
      "id": 2024,
      "geometry": {
        "type": "Polygon",
        "coordinates": [
          [
            [
              -73.1694,
              10.46183
            ],
            [
              -73.23393,
              10.3867
            ],
            [
              -73.22196,
              10.369
            ],
            [
              -73.23695,
              10.35595
            ],
            [
              -73.14649,
              10.33262
            ],
            [
              -73.11885,
              10.34102
            ],
            [
              -73.11905,
              10.20086
            ],
            [
              -73.16488,
              10.20096
            ],
            [
              -73.16514,
              10.11048
            ],
            [
              -73.29996,
              10.11227
            ],
            [
              -73.30225,
              10.09138
            ],
            [
              -73.39149,
              10.08167
            ],
            [
              -73.42682,
              10.02086
            ],
            [
              -73.49825,
              10.01714
            ],
            [
              -73.54952,
              9.90508
            ],
            [
              -73.5647,
              9.90497
            ],
            [
              -73.57523,
              9.87168
            ],
            [
              -73.61728,
              9.84386
            ],
            [
              -73.62133,
              9.75779
            ],
            [
              -73.52196,
              9.83401
            ],
            [
              -73.50012,
              9.88196
            ],
            [
              -73.45431,
              9.90471
            ],
            [
              -73.43534,
              9.92823
            ],
            [
              -73.46786,
              9.95968
            ],
            [
              -73.45008,
              9.96126
            ],
            [
              -73.36731,
              10.05102
            ],
            [
              -73.31903,
              10.06576
            ],
            [
              -73.27758,
              10.04562
            ],
            [
              -73.22475,
              10.06516
            ],
            [
              -73.1915,
              10.04244
            ],
            [
              -73.15066,
              10.07857
            ],
            [
              -73.14139,
              10.11347
            ],
            [
              -73.11273,
              10.09921
            ],
            [
              -73.07569,
              10.11099
            ],
            [
              -73.03233,
              10.15611
            ],
            [
              -72.98141,
              10.17567
            ],
            [
              -72.91059,
              10.2493
            ],
            [
              -72.8961,
              10.31107
            ],
            [
              -72.91035,
              10.35743
            ],
            [
              -72.96355,
              10.3709
            ],
            [
              -73.04733,
              10.35368
            ],
            [
              -73.09878,
              10.39523
            ],
            [
              -73.14432,
              10.39809
            ],
            [
              -73.14233,
              10.43678
            ],
            [
              -73.1694,
              10.46183
            ]
          ]
        ]
      },
      "properties": {
        "code": "20621",
        "departmentCode": "20",
        "name": "LA PAZ",
        "resultType": "observed",
        "source": "dane-divipola-mgn-2025",
        "year": 2025
      }
    },
    {
      "type": "Feature",
      "id": 2025,
      "geometry": {
        "type": "Polygon",
        "coordinates": [
          [
            [
              -73.28169,
              7.99249
            ],
            [
              -73.40622,
              7.91759
            ],
            [
              -73.41533,
              7.94321
            ],
            [
              -73.44162,
              7.9406
            ],
            [
              -73.48054,
              7.82656
            ],
            [
              -73.53095,
              7.82113
            ],
            [
              -73.54244,
              7.79213
            ],
            [
              -73.6039,
              7.81088
            ],
            [
              -73.63321,
              7.80278
            ],
            [
              -73.66089,
              7.82658
            ],
            [
              -73.66904,
              7.80139
            ],
            [
              -73.65232,
              7.76192
            ],
            [
              -73.55891,
              7.72832
            ],
            [
              -73.49083,
              7.67437
            ],
            [
              -73.43931,
              7.69655
            ],
            [
              -73.35247,
              7.79252
            ],
            [
              -73.35181,
              7.89221
            ],
            [
              -73.30346,
              7.90651
            ],
            [
              -73.27862,
              7.93621
            ],
            [
              -73.28169,
              7.99249
            ]
          ]
        ]
      },
      "properties": {
        "code": "20710",
        "departmentCode": "20",
        "name": "SAN ALBERTO",
        "resultType": "observed",
        "source": "dane-divipola-mgn-2025",
        "year": 2025
      }
    },
    {
      "type": "Feature",
      "id": 2026,
      "geometry": {
        "type": "Polygon",
        "coordinates": [
          [
            [
              -73.22549,
              10.35792
            ],
            [
              -73.25066,
              10.34379
            ],
            [
              -73.24301,
              10.30715
            ],
            [
              -73.26425,
              10.29808
            ],
            [
              -73.25572,
              10.28398
            ],
            [
              -73.27811,
              10.26736
            ],
            [
              -73.26492,
              10.2585
            ],
            [
              -73.29833,
              10.21464
            ],
            [
              -73.35307,
              10.18686
            ],
            [
              -73.42545,
              10.09137
            ],
            [
              -73.48289,
              10.064
            ],
            [
              -73.49853,
              10.02166
            ],
            [
              -73.5374,
              10.01468
            ],
            [
              -73.56688,
              9.93885
            ],
            [
              -73.58962,
              9.92501
            ],
            [
              -73.59042,
              9.86746
            ],
            [
              -73.57503,
              9.87194
            ],
            [
              -73.5647,
              9.90497
            ],
            [
              -73.54952,
              9.90508
            ],
            [
              -73.49825,
              10.01714
            ],
            [
              -73.42682,
              10.02086
            ],
            [
              -73.39039,
              10.0823
            ],
            [
              -73.30225,
              10.09138
            ],
            [
              -73.29386,
              10.11368
            ],
            [
              -73.16514,
              10.11048
            ],
            [
              -73.16488,
              10.20096
            ],
            [
              -73.11905,
              10.20086
            ],
            [
              -73.11885,
              10.34102
            ],
            [
              -73.14649,
              10.33262
            ],
            [
              -73.22549,
              10.35792
            ]
          ]
        ]
      },
      "properties": {
        "code": "20750",
        "departmentCode": "20",
        "name": "SAN DIEGO",
        "resultType": "observed",
        "source": "dane-divipola-mgn-2025",
        "year": 2025
      }
    },
    {
      "type": "Feature",
      "id": 2027,
      "geometry": {
        "type": "Polygon",
        "coordinates": [
          [
            [
              -73.30955,
              8.01567
            ],
            [
              -73.36703,
              8.01263
            ],
            [
              -73.38507,
              8.11197
            ],
            [
              -73.42457,
              8.08079
            ],
            [
              -73.47717,
              8.0874
            ],
            [
              -73.51752,
              8.06633
            ],
            [
              -73.59124,
              8.06036
            ],
            [
              -73.6359,
              8.06859
            ],
            [
              -73.61635,
              8.00995
            ],
            [
              -73.64202,
              7.99374
            ],
            [
              -73.70752,
              7.99064
            ],
            [
              -73.72559,
              8.00771
            ],
            [
              -73.72356,
              7.96783
            ],
            [
              -73.67444,
              7.94167
            ],
            [
              -73.6706,
              7.89292
            ],
            [
              -73.75117,
              7.81974
            ],
            [
              -73.73739,
              7.78503
            ],
            [
              -73.76187,
              7.77139
            ],
            [
              -73.75835,
              7.75103
            ],
            [
              -73.63304,
              7.74919
            ],
            [
              -73.66882,
              7.79984
            ],
            [
              -73.66065,
              7.82669
            ],
            [
              -73.63321,
              7.80278
            ],
            [
              -73.6039,
              7.81088
            ],
            [
              -73.55012,
              7.79177
            ],
            [
              -73.53095,
              7.82113
            ],
            [
              -73.48282,
              7.82458
            ],
            [
              -73.44334,
              7.93914
            ],
            [
              -73.41543,
              7.94327
            ],
            [
              -73.40453,
              7.91831
            ],
            [
              -73.29779,
              7.98458
            ],
            [
              -73.30955,
              8.01567
            ]
          ]
        ]
      },
      "properties": {
        "code": "20770",
        "departmentCode": "20",
        "name": "SAN MARTÍN",
        "resultType": "observed",
        "source": "dane-divipola-mgn-2025",
        "year": 2025
      }
    },
    {
      "type": "Feature",
      "id": 2028,
      "geometry": {
        "type": "Polygon",
        "coordinates": [
          [
            [
              -73.69674,
              8.87805
            ],
            [
              -73.69164,
              9.03777
            ],
            [
              -73.79896,
              9.05927
            ],
            [
              -73.87336,
              8.91182
            ],
            [
              -73.86003,
              8.87874
            ],
            [
              -73.79528,
              8.81677
            ],
            [
              -73.7948,
              8.76688
            ],
            [
              -73.77715,
              8.73698
            ],
            [
              -73.71348,
              8.74927
            ],
            [
              -73.69136,
              8.73993
            ],
            [
              -73.67303,
              8.83953
            ],
            [
              -73.69836,
              8.85745
            ],
            [
              -73.69674,
              8.87805
            ]
          ]
        ]
      },
      "properties": {
        "code": "20787",
        "departmentCode": "20",
        "name": "TAMALAMEQUE",
        "resultType": "observed",
        "source": "dane-divipola-mgn-2025",
        "year": 2025
      }
    }
  ]
}
