{
  "type": "FeatureCollection",
  "metadata": {
    "source": "DANE DIVIPOLA MGN 2025",
    "downloadedAt": "2026-07-27T01:49:40Z",
    "crs": "EPSG:4326",
    "simplification": "ArcGIS maxAllowableOffset=0.01 grados y geometryPrecision=5; solo visualización web"
  },
  "features": [
    {
      "type": "Feature",
      "id": 2029,
      "geometry": {
        "type": "Polygon",
        "coordinates": [
          [
            [
              -76.12448,
              8.94819
            ],
            [
              -76.18246,
              8.91798
            ],
            [
              -76.17193,
              8.89454
            ],
            [
              -76.13685,
              8.89652
            ],
            [
              -76.11296,
              8.87986
            ],
            [
              -76.11747,
              8.86181
            ],
            [
              -76.13751,
              8.86507
            ],
            [
              -76.14648,
              8.83773
            ],
            [
              -76.14538,
              8.79783
            ],
            [
              -76.11721,
              8.76027
            ],
            [
              -76.11985,
              8.72237
            ],
            [
              -76.1383,
              8.73597
            ],
            [
              -76.13517,
              8.69683
            ],
            [
              -76.14761,
              8.67359
            ],
            [
              -76.15412,
              8.68993
            ],
            [
              -76.16682,
              8.68067
            ],
            [
              -76.16033,
              8.65084
            ],
            [
              -76.1885,
              8.62343
            ],
            [
              -76.21111,
              8.6506
            ],
            [
              -76.20821,
              8.6316
            ],
            [
              -76.23392,
              8.63033
            ],
            [
              -76.26547,
              8.58445
            ],
            [
              -76.22209,
              8.57178
            ],
            [
              -76.23723,
              8.55633
            ],
            [
              -76.21,
              8.52292
            ],
            [
              -76.21248,
              8.43082
            ],
            [
              -76.16528,
              8.38044
            ],
            [
              -76.1259,
              8.3942
            ],
            [
              -76.09982,
              8.38261
            ],
            [
              -76.08148,
              8.34542
            ],
            [
              -76.0543,
              8.35108
            ],
            [
              -76.06336,
              8.33234
            ],
            [
              -75.89104,
              8.32794
            ],
            [
              -75.87191,
              8.31707
            ],
            [
              -75.87069,
              8.27364
            ],
            [
              -75.83576,
              8.27356
            ],
            [
              -75.80941,
              8.32038
            ],
            [
              -75.7535,
              8.28483
            ],
            [
              -75.70976,
              8.29189
            ],
            [
              -75.70482,
              8.31493
            ],
            [
              -75.68478,
              8.30153
            ],
            [
              -75.68329,
              8.32183
            ],
            [
              -75.66245,
              8.32728
            ],
            [
              -75.6785,
              8.34261
            ],
            [
              -75.65811,
              8.35589
            ],
            [
              -75.66968,
              8.36859
            ],
            [
              -75.64525,
              8.3968
            ],
            [
              -75.68597,
              8.43341
            ],
            [
              -75.66775,
              8.46054
            ],
            [
              -75.66635,
              8.50053
            ],
            [
              -75.69142,
              8.51226
            ],
            [
              -75.67682,
              8.52883
            ],
            [
              -75.69331,
              8.55499
            ],
            [
              -75.67794,
              8.57862
            ],
            [
              -75.70863,
              8.58889
            ],
            [
              -75.70634,
              8.61182
            ],
            [
              -75.73974,
              8.61995
            ],
            [
              -75.77208,
              8.65677
            ],
            [
              -75.76063,
              8.71823
            ],
            [
              -75.79957,
              8.75342
            ],
            [
              -75.79063,
              8.80628
            ],
            [
              -75.84207,
              8.84014
            ],
            [
              -75.84219,
              8.82662
            ],
            [
              -75.85282,
              8.83181
            ],
            [
              -75.85095,
              8.85433
            ],
            [
              -75.87742,
              8.87556
            ],
            [
              -75.89263,
              8.8624
            ],
            [
              -75.93397,
              8.88794
            ],
            [
              -75.94972,
              8.8799
            ],
            [
              -75.94441,
              8.89163
            ],
            [
              -75.99535,
              8.89488
            ],
            [
              -76.02797,
              8.94809
            ],
            [
              -76.0775,
              8.9363
            ],
            [
              -76.12448,
              8.94819
            ]
          ]
        ]
      },
      "properties": {
        "code": "23001",
        "departmentCode": "23",
        "name": "MONTERÍA",
        "originalCode": "001",
        "originalName": "MONTERÍA",
        "type": "MUNICIPIO",
        "areaName": 3136.76057804,
        "creationYear": 2024,
        "creationResolution": "Ordenanza 42 del 27 de Abril de 1923",
        "resultType": "observed",
        "source": "dane-divipola-mgn-2025",
        "year": 2025,
        "MPIO_TIPO": "MUNICIPIO",
        "unitType": "municipio",
        "MPIO_NAREA": 3136.76057804,
        "MPIO_NANO": 2024,
        "MPIO_CRSLCION": "Ordenanza 42 del 27 de Abril de 1923"
      }
    },
    {
      "type": "Feature",
      "id": 2030,
      "geometry": {
        "type": "Polygon",
        "coordinates": [
          [
            [
              -75.00565,
              8.52277
            ],
            [
              -75.03349,
              8.49892
            ],
            [
              -75.03964,
              8.45934
            ],
            [
              -75.12805,
              8.46828
            ],
            [
              -75.13621,
              8.42993
            ],
            [
              -75.15654,
              8.43332
            ],
            [
              -75.15879,
              8.41634
            ],
            [
              -75.23847,
              8.35548
            ],
            [
              -75.23468,
              8.33108
            ],
            [
              -75.25171,
              8.3245
            ],
            [
              -75.24089,
              8.31186
            ],
            [
              -75.28782,
              8.27438
            ],
            [
              -75.28307,
              8.26396
            ],
            [
              -75.29269,
              8.27145
            ],
            [
              -75.31166,
              8.20556
            ],
            [
              -75.33275,
              8.20288
            ],
            [
              -75.32972,
              8.14332
            ],
            [
              -75.24699,
              8.13512
            ],
            [
              -75.22376,
              8.10448
            ],
            [
              -75.21221,
              8.12702
            ],
            [
              -75.18872,
              8.12427
            ],
            [
              -75.16842,
              8.05274
            ],
            [
              -75.13354,
              8.05393
            ],
            [
              -75.12699,
              8.04022
            ],
            [
              -75.09465,
              8.0706
            ],
            [
              -75.04741,
              8.0424
            ],
            [
              -74.96836,
              8.09058
            ],
            [
              -74.92635,
              8.07543
            ],
            [
              -74.86711,
              8.15916
            ],
            [
              -74.86788,
              8.19607
            ],
            [
              -74.83058,
              8.19995
            ],
            [
              -74.83298,
              8.22299
            ],
            [
              -74.79492,
              8.24656
            ],
            [
              -74.80877,
              8.27428
            ],
            [
              -74.78095,
              8.27788
            ],
            [
              -74.80056,
              8.29621
            ],
            [
              -74.79556,
              8.3282
            ],
            [
              -74.82802,
              8.35975
            ],
            [
              -74.80374,
              8.36881
            ],
            [
              -74.80818,
              8.38661
            ],
            [
              -74.85227,
              8.38471
            ],
            [
              -74.89977,
              8.45429
            ],
            [
              -74.92745,
              8.45334
            ],
            [
              -74.92599,
              8.49961
            ],
            [
              -75.00565,
              8.52277
            ]
          ]
        ]
      },
      "properties": {
        "code": "23068",
        "departmentCode": "23",
        "name": "AYAPEL",
        "originalCode": "068",
        "originalName": "AYAPEL",
        "type": "MUNICIPIO",
        "areaName": 1963.61461935,
        "creationYear": 2024,
        "creationResolution": "Ordenanza 42 del 27 de Abril de 1923",
        "resultType": "observed",
        "source": "dane-divipola-mgn-2025",
        "year": 2025,
        "MPIO_TIPO": "MUNICIPIO",
        "unitType": "municipio",
        "MPIO_NAREA": 1963.61461935,
        "MPIO_NANO": 2024,
        "MPIO_CRSLCION": "Ordenanza 42 del 27 de Abril de 1923"
      }
    },
    {
      "type": "Feature",
      "id": 2031,
      "geometry": {
        "type": "Polygon",
        "coordinates": [
          [
            [
              -75.35428,
              8.37582
            ],
            [
              -75.40824,
              8.32047
            ],
            [
              -75.47989,
              8.31599
            ],
            [
              -75.50008,
              8.28752
            ],
            [
              -75.55601,
              8.28208
            ],
            [
              -75.58747,
              8.25461
            ],
            [
              -75.57395,
              8.1751
            ],
            [
              -75.58467,
              8.1207
            ],
            [
              -75.5687,
              8.08865
            ],
            [
              -75.49475,
              8.07609
            ],
            [
              -75.45911,
              8.03051
            ],
            [
              -75.3984,
              8.00385
            ],
            [
              -75.38687,
              8.00791
            ],
            [
              -75.38439,
              8.05516
            ],
            [
              -75.34923,
              8.05434
            ],
            [
              -75.35721,
              8.08624
            ],
            [
              -75.3218,
              8.10417
            ],
            [
              -75.33275,
              8.20288
            ],
            [
              -75.31166,
              8.20556
            ],
            [
              -75.29269,
              8.27145
            ],
            [
              -75.28307,
              8.26396
            ],
            [
              -75.28782,
              8.27438
            ],
            [
              -75.23969,
              8.31497
            ],
            [
              -75.25324,
              8.33358
            ],
            [
              -75.28275,
              8.30372
            ],
            [
              -75.31604,
              8.32825
            ],
            [
              -75.34483,
              8.32214
            ],
            [
              -75.36525,
              8.34421
            ],
            [
              -75.34778,
              8.3559
            ],
            [
              -75.35428,
              8.37582
            ]
          ]
        ]
      },
      "properties": {
        "code": "23079",
        "departmentCode": "23",
        "name": "BUENAVISTA",
        "originalCode": "079",
        "originalName": "BUENAVISTA",
        "type": "MUNICIPIO",
        "areaName": 834.61538337,
        "creationYear": 2024,
        "creationResolution": "Ordenanza 10  de Diciembre de 1969",
        "resultType": "observed",
        "source": "dane-divipola-mgn-2025",
        "year": 2025,
        "MPIO_TIPO": "MUNICIPIO",
        "unitType": "municipio",
        "MPIO_NAREA": 834.61538337,
        "MPIO_NANO": 2024,
        "MPIO_CRSLCION": "Ordenanza 10  de Diciembre de 1969"
      }
    },
    {
      "type": "Feature",
      "id": 2032,
      "geometry": {
        "type": "Polygon",
        "coordinates": [
          [
            [
              -76.19951,
              8.82918
            ],
            [
              -76.21114,
              8.81248
            ],
            [
              -76.27605,
              8.82244
            ],
            [
              -76.26972,
              8.80894
            ],
            [
              -76.28622,
              8.81372
            ],
            [
              -76.30473,
              8.77147
            ],
            [
              -76.3249,
              8.76977
            ],
            [
              -76.31834,
              8.75288
            ],
            [
              -76.36257,
              8.72297
            ],
            [
              -76.34563,
              8.63982
            ],
            [
              -76.314,
              8.65649
            ],
            [
              -76.28147,
              8.64887
            ],
            [
              -76.25107,
              8.61131
            ],
            [
              -76.22557,
              8.63429
            ],
            [
              -76.21288,
              8.62663
            ],
            [
              -76.21111,
              8.6506
            ],
            [
              -76.18891,
              8.62309
            ],
            [
              -76.16033,
              8.65084
            ],
            [
              -76.16682,
              8.68067
            ],
            [
              -76.15412,
              8.68993
            ],
            [
              -76.14761,
              8.67359
            ],
            [
              -76.13514,
              8.69699
            ],
            [
              -76.14394,
              8.72281
            ],
            [
              -76.1383,
              8.73597
            ],
            [
              -76.11985,
              8.72237
            ],
            [
              -76.11721,
              8.76027
            ],
            [
              -76.14874,
              8.80391
            ],
            [
              -76.18168,
              8.80731
            ],
            [
              -76.19951,
              8.82918
            ]
          ]
        ]
      },
      "properties": {
        "code": "23090",
        "departmentCode": "23",
        "name": "CANALETE",
        "originalCode": "090",
        "originalName": "CANALETE",
        "type": "MUNICIPIO",
        "areaName": 420.10165072,
        "creationYear": 2024,
        "creationResolution": "Ordenanza 28 de 1978",
        "resultType": "observed",
        "source": "dane-divipola-mgn-2025",
        "year": 2025,
        "MPIO_TIPO": "MUNICIPIO",
        "unitType": "municipio",
        "MPIO_NAREA": 420.10165072,
        "MPIO_NANO": 2024,
        "MPIO_CRSLCION": "Ordenanza 28 de 1978"
      }
    },
    {
      "type": "Feature",
      "id": 2033,
      "geometry": {
        "type": "Polygon",
        "coordinates": [
          [
            [
              -75.75363,
              8.9751
            ],
            [
              -75.76795,
              8.9446
            ],
            [
              -75.81319,
              8.94389
            ],
            [
              -75.8277,
              8.9043
            ],
            [
              -75.85629,
              8.92047
            ],
            [
              -75.92733,
              8.9084
            ],
            [
              -75.95882,
              8.94474
            ],
            [
              -76.00076,
              8.96012
            ],
            [
              -76.05164,
              8.94823
            ],
            [
              -76.02797,
              8.94809
            ],
            [
              -76.01306,
              8.90783
            ],
            [
              -75.98022,
              8.88834
            ],
            [
              -75.94441,
              8.89163
            ],
            [
              -75.94972,
              8.8799
            ],
            [
              -75.93397,
              8.88794
            ],
            [
              -75.87982,
              8.86046
            ],
            [
              -75.87742,
              8.87556
            ],
            [
              -75.85095,
              8.85433
            ],
            [
              -75.85282,
              8.83181
            ],
            [
              -75.84219,
              8.82662
            ],
            [
              -75.84207,
              8.84014
            ],
            [
              -75.8107,
              8.82444
            ],
            [
              -75.77624,
              8.78591
            ],
            [
              -75.74382,
              8.80883
            ],
            [
              -75.74409,
              8.84894
            ],
            [
              -75.71809,
              8.86109
            ],
            [
              -75.7447,
              8.89141
            ],
            [
              -75.7053,
              8.94432
            ],
            [
              -75.73397,
              8.95531
            ],
            [
              -75.71789,
              8.97528
            ],
            [
              -75.75363,
              8.9751
            ]
          ]
        ]
      },
      "properties": {
        "code": "23162",
        "departmentCode": "23",
        "name": "CERETÉ",
        "originalCode": "162",
        "originalName": "CERETÉ",
        "type": "MUNICIPIO",
        "areaName": 290.84733066,
        "creationYear": 2024,
        "creationResolution": "1923",
        "resultType": "observed",
        "source": "dane-divipola-mgn-2025",
        "year": 2025,
        "MPIO_TIPO": "MUNICIPIO",
        "unitType": "municipio",
        "MPIO_NAREA": 290.84733066,
        "MPIO_NANO": 2024,
        "MPIO_CRSLCION": "1923"
      }
    },
    {
      "type": "Feature",
      "id": 2034,
      "geometry": {
        "type": "Polygon",
        "coordinates": [
          [
            [
              -75.64157,
              9.02076
            ],
            [
              -75.61513,
              9.04167
            ],
            [
              -75.58743,
              9.04158
            ],
            [
              -75.59575,
              9.07649
            ],
            [
              -75.56175,
              9.15801
            ],
            [
              -75.6027,
              9.23931
            ],
            [
              -75.62856,
              9.20866
            ],
            [
              -75.66827,
              9.19812
            ],
            [
              -75.69979,
              9.15131
            ],
            [
              -75.71163,
              9.15821
            ],
            [
              -75.74831,
              9.13214
            ],
            [
              -75.7248,
              9.07892
            ],
            [
              -75.72387,
              8.989
            ],
            [
              -75.70767,
              8.98329
            ],
            [
              -75.68436,
              9.01197
            ],
            [
              -75.64157,
              9.02076
            ]
          ]
        ]
      },
      "properties": {
        "code": "23168",
        "departmentCode": "23",
        "name": "CHIMÁ",
        "originalCode": "168",
        "originalName": "CHIMÁ",
        "type": "MUNICIPIO",
        "areaName": 323.89201948,
        "creationYear": 2025,
        "creationResolution": "1927",
        "resultType": "observed",
        "source": "dane-divipola-mgn-2025",
        "year": 2025,
        "MPIO_TIPO": "MUNICIPIO",
        "unitType": "municipio",
        "MPIO_NAREA": 323.89201948,
        "MPIO_NANO": 2025,
        "MPIO_CRSLCION": "1927"
      }
    },
    {
      "type": "Feature",
      "id": 2035,
      "geometry": {
        "type": "Polygon",
        "coordinates": [
          [
            [
              -75.48935,
              9.08196
            ],
            [
              -75.5108,
              9.06781
            ],
            [
              -75.50975,
              9.0337
            ],
            [
              -75.58331,
              9.02134
            ],
            [
              -75.58472,
              8.98132
            ],
            [
              -75.52131,
              8.96939
            ],
            [
              -75.5113,
              8.98978
            ],
            [
              -75.47573,
              8.98914
            ],
            [
              -75.45621,
              9.01159
            ],
            [
              -75.3455,
              8.94527
            ],
            [
              -75.32546,
              8.95398
            ],
            [
              -75.28205,
              8.93169
            ],
            [
              -75.27473,
              8.94689
            ],
            [
              -75.26308,
              8.94142
            ],
            [
              -75.27042,
              8.92708
            ],
            [
              -75.24465,
              8.88227
            ],
            [
              -75.21699,
              8.91576
            ],
            [
              -75.18634,
              8.91425
            ],
            [
              -75.18797,
              8.94417
            ],
            [
              -75.17175,
              8.92828
            ],
            [
              -75.15611,
              8.9436
            ],
            [
              -75.18783,
              8.96748
            ],
            [
              -75.2237,
              9.07273
            ],
            [
              -75.28109,
              9.07289
            ],
            [
              -75.29913,
              9.08251
            ],
            [
              -75.29357,
              9.0962
            ],
            [
              -75.30997,
              9.0888
            ],
            [
              -75.31008,
              9.11756
            ],
            [
              -75.38169,
              9.13807
            ],
            [
              -75.39087,
              9.16127
            ],
            [
              -75.478,
              9.11875
            ],
            [
              -75.48935,
              9.08196
            ]
          ]
        ]
      },
      "properties": {
        "code": "23182",
        "departmentCode": "23",
        "name": "CHINÚ",
        "originalCode": "182",
        "originalName": "CHINÚ",
        "type": "MUNICIPIO",
        "areaName": 625.96229503,
        "creationYear": 2024,
        "creationResolution": "Ordenanza 42 del 27 de Abril de 1923",
        "resultType": "observed",
        "source": "dane-divipola-mgn-2025",
        "year": 2025,
        "MPIO_TIPO": "MUNICIPIO",
        "unitType": "municipio",
        "MPIO_NAREA": 625.96229503,
        "MPIO_NANO": 2024,
        "MPIO_CRSLCION": "Ordenanza 42 del 27 de Abril de 1923"
      }
    },
    {
      "type": "Feature",
      "id": 2036,
      "geometry": {
        "type": "Polygon",
        "coordinates": [
          [
            [
              -75.64157,
              9.02076
            ],
            [
              -75.68436,
              9.01197
            ],
            [
              -75.71133,
              8.98325
            ],
            [
              -75.70215,
              8.97173
            ],
            [
              -75.72924,
              8.96177
            ],
            [
              -75.7053,
              8.94432
            ],
            [
              -75.74369,
              8.88661
            ],
            [
              -75.726,
              8.88481
            ],
            [
              -75.70469,
              8.83007
            ],
            [
              -75.6825,
              8.83636
            ],
            [
              -75.63637,
              8.80116
            ],
            [
              -75.63906,
              8.77456
            ],
            [
              -75.59312,
              8.73717
            ],
            [
              -75.61003,
              8.72869
            ],
            [
              -75.59458,
              8.71458
            ],
            [
              -75.60378,
              8.70129
            ],
            [
              -75.61756,
              8.70249
            ],
            [
              -75.61666,
              8.65125
            ],
            [
              -75.52711,
              8.57996
            ],
            [
              -75.51049,
              8.58809
            ],
            [
              -75.5334,
              8.59535
            ],
            [
              -75.53412,
              8.61012
            ],
            [
              -75.49819,
              8.62112
            ],
            [
              -75.51344,
              8.65924
            ],
            [
              -75.4999,
              8.68807
            ],
            [
              -75.52945,
              8.71208
            ],
            [
              -75.57053,
              8.71882
            ],
            [
              -75.52953,
              8.74901
            ],
            [
              -75.54522,
              8.88689
            ],
            [
              -75.52865,
              8.91895
            ],
            [
              -75.54745,
              8.93012
            ],
            [
              -75.54101,
              8.9626
            ],
            [
              -75.59164,
              8.9941
            ],
            [
              -75.56846,
              9.02952
            ],
            [
              -75.61513,
              9.04167
            ],
            [
              -75.64157,
              9.02076
            ]
          ]
        ]
      },
      "properties": {
        "code": "23189",
        "departmentCode": "23",
        "name": "CIÉNAGA DE ORO",
        "originalCode": "189",
        "originalName": "CIÉNAGA DE ORO",
        "type": "MUNICIPIO",
        "areaName": 641.06955235,
        "creationYear": 2025,
        "creationResolution": "1923",
        "resultType": "observed",
        "source": "dane-divipola-mgn-2025",
        "year": 2025,
        "MPIO_TIPO": "MUNICIPIO",
        "unitType": "municipio",
        "MPIO_NAREA": 641.06955235,
        "MPIO_NANO": 2025,
        "MPIO_CRSLCION": "1923"
      }
    },
    {
      "type": "Feature",
      "id": 2037,
      "geometry": {
        "type": "Polygon",
        "coordinates": [
          [
            [
              -75.77023,
              9.11541
            ],
            [
              -75.80395,
              9.08587
            ],
            [
              -75.79163,
              9.04936
            ],
            [
              -75.81871,
              9.04848
            ],
            [
              -75.83048,
              9.06805
            ],
            [
              -75.84189,
              9.05945
            ],
            [
              -75.82811,
              9.00391
            ],
            [
              -75.78338,
              9.00256
            ],
            [
              -75.75978,
              9.03105
            ],
            [
              -75.74471,
              9.02434
            ],
            [
              -75.72533,
              9.08174
            ],
            [
              -75.73969,
              9.11347
            ],
            [
              -75.77023,
              9.11541
            ]
          ]
        ]
      },
      "properties": {
        "code": "23300",
        "departmentCode": "23",
        "name": "COTORRA",
        "originalCode": "300",
        "originalName": "COTORRA",
        "type": "MUNICIPIO",
        "areaName": 88.09851983,
        "creationYear": 2024,
        "creationResolution": "ORD 03 DE ABRIL 08 DE 1997",
        "resultType": "observed",
        "source": "dane-divipola-mgn-2025",
        "year": 2025,
        "MPIO_TIPO": "MUNICIPIO",
        "unitType": "municipio",
        "MPIO_NAREA": 88.09851983,
        "MPIO_NANO": 2024,
        "MPIO_CRSLCION": "ORD 03 DE ABRIL 08 DE 1997"
      }
    },
    {
      "type": "Feature",
      "id": 2038,
      "geometry": {
        "type": "Polygon",
        "coordinates": [
          [
            [
              -75.29656,
              8.14033
            ],
            [
              -75.32749,
              8.13866
            ],
            [
              -75.32208,
              8.10365
            ],
            [
              -75.35912,
              8.07935
            ],
            [
              -75.34923,
              8.05434
            ],
            [
              -75.38391,
              8.05544
            ],
            [
              -75.39077,
              8.04313
            ],
            [
              -75.38913,
              8.01567
            ],
            [
              -75.3268,
              7.94351
            ],
            [
              -75.24403,
              8.0076
            ],
            [
              -75.23582,
              8.02913
            ],
            [
              -75.24706,
              8.04211
            ],
            [
              -75.22024,
              8.06799
            ],
            [
              -75.18856,
              8.04451
            ],
            [
              -75.16842,
              8.05274
            ],
            [
              -75.18872,
              8.12427
            ],
            [
              -75.21221,
              8.12702
            ],
            [
              -75.22376,
              8.10448
            ],
            [
              -75.24699,
              8.13512
            ],
            [
              -75.29656,
              8.14033
            ]
          ]
        ]
      },
      "properties": {
        "code": "23350",
        "departmentCode": "23",
        "name": "LA APARTADA",
        "originalCode": "350",
        "originalName": "LA APARTADA",
        "type": "MUNICIPIO",
        "areaName": 286.90971332,
        "creationYear": 2024,
        "creationResolution": "ORD 07 DE MAYO 06 DE 1997",
        "resultType": "observed",
        "source": "dane-divipola-mgn-2025",
        "year": 2025,
        "MPIO_TIPO": "MUNICIPIO",
        "unitType": "municipio",
        "MPIO_NAREA": 286.90971332,
        "MPIO_NANO": 2024,
        "MPIO_CRSLCION": "ORD 07 DE MAYO 06 DE 1997"
      }
    },
    {
      "type": "Feature",
      "id": 2039,
      "geometry": {
        "type": "Polygon",
        "coordinates": [
          [
            [
              -75.88977,
              9.34354
            ],
            [
              -75.90454,
              9.32177
            ],
            [
              -75.92405,
              9.32293
            ],
            [
              -76.01001,
              9.21712
            ],
            [
              -76.07104,
              9.19901
            ],
            [
              -76.07471,
              9.18793
            ],
            [
              -76.04389,
              9.1765
            ],
            [
              -76.0489,
              9.15929
            ],
            [
              -76.08072,
              9.16517
            ],
            [
              -76.11353,
              9.15036
            ],
            [
              -76.12007,
              9.10178
            ],
            [
              -76.15421,
              9.08205
            ],
            [
              -76.12884,
              9.08344
            ],
            [
              -76.10023,
              9.05457
            ],
            [
              -76.0541,
              9.06021
            ],
            [
              -76.03467,
              9.04214
            ],
            [
              -76.04018,
              9.0292
            ],
            [
              -76.01342,
              9.02398
            ],
            [
              -75.98904,
              9.03702
            ],
            [
              -75.97255,
              9.02503
            ],
            [
              -75.93533,
              9.07248
            ],
            [
              -75.86721,
              9.04064
            ],
            [
              -75.84311,
              9.04518
            ],
            [
              -75.83048,
              9.06805
            ],
            [
              -75.81396,
              9.04623
            ],
            [
              -75.78627,
              9.05356
            ],
            [
              -75.80352,
              9.08642
            ],
            [
              -75.76443,
              9.11233
            ],
            [
              -75.77532,
              9.11545
            ],
            [
              -75.73979,
              9.11353
            ],
            [
              -75.74831,
              9.13214
            ],
            [
              -75.71163,
              9.15821
            ],
            [
              -75.69979,
              9.15131
            ],
            [
              -75.68713,
              9.17456
            ],
            [
              -75.70853,
              9.21628
            ],
            [
              -75.75634,
              9.20736
            ],
            [
              -75.78153,
              9.22187
            ],
            [
              -75.77067,
              9.2829
            ],
            [
              -75.79224,
              9.28374
            ],
            [
              -75.8147,
              9.31302
            ],
            [
              -75.84223,
              9.29178
            ],
            [
              -75.86417,
              9.33727
            ],
            [
              -75.88977,
              9.34354
            ]
          ]
        ]
      },
      "properties": {
        "code": "23417",
        "departmentCode": "23",
        "name": "LORICA",
        "originalCode": "417",
        "originalName": "LORICA",
        "type": "MUNICIPIO",
        "areaName": 950.98464286,
        "creationYear": 2024,
        "creationResolution": "1739",
        "resultType": "observed",
        "source": "dane-divipola-mgn-2025",
        "year": 2025,
        "MPIO_TIPO": "MUNICIPIO",
        "unitType": "municipio",
        "MPIO_NAREA": 950.98464286,
        "MPIO_NANO": 2024,
        "MPIO_CRSLCION": "1739"
      }
    },
    {
      "type": "Feature",
      "id": 2040,
      "geometry": {
        "type": "Polygon",
        "coordinates": [
          [
            [
              -76.31861,
              8.93199
            ],
            [
              -76.41662,
              8.88806
            ],
            [
              -76.38117,
              8.79421
            ],
            [
              -76.41957,
              8.75499
            ],
            [
              -76.36353,
              8.70948
            ],
            [
              -76.26706,
              8.82735
            ],
            [
              -76.24344,
              8.80996
            ],
            [
              -76.24252,
              8.82271
            ],
            [
              -76.21114,
              8.81248
            ],
            [
              -76.1912,
              8.82859
            ],
            [
              -76.18168,
              8.80731
            ],
            [
              -76.1446,
              8.79857
            ],
            [
              -76.14271,
              8.85632
            ],
            [
              -76.11736,
              8.86188
            ],
            [
              -76.11296,
              8.87986
            ],
            [
              -76.179,
              8.89932
            ],
            [
              -76.19175,
              8.88283
            ],
            [
              -76.20085,
              8.89263
            ],
            [
              -76.21207,
              8.87959
            ],
            [
              -76.26601,
              8.87825
            ],
            [
              -76.26947,
              8.90132
            ],
            [
              -76.28941,
              8.90069
            ],
            [
              -76.31861,
              8.93199
            ]
          ]
        ]
      },
      "properties": {
        "code": "23419",
        "departmentCode": "23",
        "name": "LOS CÓRDOBAS",
        "originalCode": "419",
        "originalName": "LOS CÓRDOBAS",
        "type": "MUNICIPIO",
        "areaName": 366.13028972,
        "creationYear": 2024,
        "creationResolution": "Ordenanza 6 de Junio 6 de 1963",
        "resultType": "observed",
        "source": "dane-divipola-mgn-2025",
        "year": 2025,
        "MPIO_TIPO": "MUNICIPIO",
        "unitType": "municipio",
        "MPIO_NAREA": 366.13028972,
        "MPIO_NANO": 2024,
        "MPIO_CRSLCION": "Ordenanza 6 de Junio 6 de 1963"
      }
    },
    {
      "type": "Feature",
      "id": 2041,
      "geometry": {
        "type": "Polygon",
        "coordinates": [
          [
            [
              -75.62547,
              9.34952
            ],
            [
              -75.6945,
              9.3121
            ],
            [
              -75.70971,
              9.2064
            ],
            [
              -75.68769,
              9.16168
            ],
            [
              -75.66827,
              9.19812
            ],
            [
              -75.62322,
              9.2126
            ],
            [
              -75.5846,
              9.26983
            ],
            [
              -75.60937,
              9.28099
            ],
            [
              -75.58767,
              9.30253
            ],
            [
              -75.62547,
              9.34952
            ]
          ]
        ]
      },
      "properties": {
        "code": "23464",
        "departmentCode": "23",
        "name": "MOMIL",
        "originalCode": "464",
        "originalName": "MOMIL",
        "type": "MUNICIPIO",
        "areaName": 158.7245875,
        "creationYear": 2024,
        "creationResolution": "Ordenanza 21 de 1963",
        "resultType": "observed",
        "source": "dane-divipola-mgn-2025",
        "year": 2025,
        "MPIO_TIPO": "MUNICIPIO",
        "unitType": "municipio",
        "MPIO_NAREA": 158.7245875,
        "MPIO_NANO": 2024,
        "MPIO_CRSLCION": "Ordenanza 21 de 1963"
      }
    },
    {
      "type": "Feature",
      "id": 2042,
      "geometry": {
        "type": "Polygon",
        "coordinates": [
          [
            [
              -75.84349,
              7.79477
            ],
            [
              -75.81856,
              7.83611
            ],
            [
              -75.85334,
              7.84452
            ],
            [
              -75.85328,
              7.88353
            ],
            [
              -75.82939,
              7.92199
            ],
            [
              -75.80697,
              7.91974
            ],
            [
              -75.81307,
              7.93081
            ],
            [
              -75.78066,
              7.95033
            ],
            [
              -75.79086,
              7.97474
            ],
            [
              -75.76168,
              7.9668
            ],
            [
              -75.7148,
              8.03072
            ],
            [
              -75.69519,
              8.03342
            ],
            [
              -75.6882,
              8.01442
            ],
            [
              -75.67656,
              8.02798
            ],
            [
              -75.63105,
              7.99958
            ],
            [
              -75.59346,
              8.00049
            ],
            [
              -75.58536,
              8.01418
            ],
            [
              -75.55509,
              7.9944
            ],
            [
              -75.54649,
              7.96483
            ],
            [
              -75.51475,
              7.95714
            ],
            [
              -75.51161,
              7.94012
            ],
            [
              -75.55175,
              7.93431
            ],
            [
              -75.56469,
              7.89115
            ],
            [
              -75.47993,
              7.92194
            ],
            [
              -75.46148,
              7.90526
            ],
            [
              -75.44539,
              7.91587
            ],
            [
              -75.44519,
              7.86723
            ],
            [
              -75.46555,
              7.84931
            ],
            [
              -75.43087,
              7.81846
            ],
            [
              -75.40435,
              7.85753
            ],
            [
              -75.34675,
              7.87497
            ],
            [
              -75.32861,
              7.93487
            ],
            [
              -75.38935,
              8.0194
            ],
            [
              -75.39552,
              8.0041
            ],
            [
              -75.42674,
              8.01056
            ],
            [
              -75.4942,
              8.07576
            ],
            [
              -75.53095,
              8.09091
            ],
            [
              -75.59398,
              8.09485
            ],
            [
              -75.60764,
              8.05262
            ],
            [
              -75.65149,
              8.06198
            ],
            [
              -75.66715,
              8.0437
            ],
            [
              -75.6864,
              8.06821
            ],
            [
              -75.69388,
              8.05556
            ],
            [
              -75.7244,
              8.06443
            ],
            [
              -75.74986,
              8.04329
            ],
            [
              -75.74098,
              8.12257
            ],
            [
              -75.75394,
              8.13356
            ],
            [
              -75.78851,
              8.11511
            ],
            [
              -75.80321,
              8.17211
            ],
            [
              -75.8355,
              8.14636
            ],
            [
              -75.84918,
              8.08276
            ],
            [
              -75.88048,
              8.06134
            ],
            [
              -75.89328,
              8.07564
            ],
            [
              -75.92722,
              8.03215
            ],
            [
              -75.95841,
              8.03849
            ],
            [
              -75.98142,
              7.94762
            ],
            [
              -76.00944,
              7.92292
            ],
            [
              -76.0016,
              7.85656
            ],
            [
              -75.96831,
              7.83904
            ],
            [
              -75.95363,
              7.72541
            ],
            [
              -75.97442,
              7.67663
            ],
            [
              -75.94363,
              7.62182
            ],
            [
              -75.95258,
              7.56274
            ],
            [
              -75.99568,
              7.50044
            ],
            [
              -76.03068,
              7.48316
            ],
            [
              -76.05504,
              7.36463
            ],
            [
              -75.96587,
              7.35756
            ],
            [
              -75.99614,
              7.48059
            ],
            [
              -75.95581,
              7.50668
            ],
            [
              -75.89065,
              7.65359
            ],
            [
              -75.86741,
              7.6742
            ],
            [
              -75.84349,
              7.79477
            ]
          ]
        ]
      },
      "properties": {
        "code": "23466",
        "departmentCode": "23",
        "name": "MONTELÍBANO",
        "originalCode": "466",
        "originalName": "MONTELÍBANO",
        "type": "MUNICIPIO",
        "areaName": 1550.75658308,
        "creationYear": 2025,
        "creationResolution": "Decreto 810 del 4 de Marzo de 1954",
        "resultType": "observed",
        "source": "dane-divipola-mgn-2025",
        "year": 2025,
        "MPIO_TIPO": "MUNICIPIO",
        "unitType": "municipio",
        "MPIO_NAREA": 1550.75658308,
        "MPIO_NANO": 2025,
        "MPIO_CRSLCION": "Decreto 810 del 4 de Marzo de 1954"
      }
    },
    {
      "type": "Feature",
      "id": 2043,
      "geometry": {
        "type": "Polygon",
        "coordinates": [
          [
            [
              -76.0964,
              9.30941
            ],
            [
              -76.11179,
              9.29803
            ],
            [
              -76.10856,
              9.26473
            ],
            [
              -76.17022,
              9.2297
            ],
            [
              -76.19332,
              9.1111
            ],
            [
              -76.17119,
              9.10829
            ],
            [
              -76.15437,
              9.08422
            ],
            [
              -76.12007,
              9.10178
            ],
            [
              -76.11353,
              9.15036
            ],
            [
              -76.08072,
              9.16517
            ],
            [
              -76.05044,
              9.15774
            ],
            [
              -76.04465,
              9.17105
            ],
            [
              -76.05321,
              9.18833
            ],
            [
              -76.07471,
              9.18793
            ],
            [
              -76.06562,
              9.21742
            ],
            [
              -76.04004,
              9.23327
            ],
            [
              -76.06333,
              9.24069
            ],
            [
              -76.06102,
              9.26783
            ],
            [
              -76.0964,
              9.30941
            ]
          ]
        ]
      },
      "properties": {
        "code": "23500",
        "departmentCode": "23",
        "name": "MOÑITOS",
        "originalCode": "500",
        "originalName": "MOÑITOS",
        "type": "MUNICIPIO",
        "areaName": 203.35671499,
        "creationYear": 2024,
        "creationResolution": "Ordenanza 2 Octubre 17 de 1978",
        "resultType": "observed",
        "source": "dane-divipola-mgn-2025",
        "year": 2025,
        "MPIO_TIPO": "MUNICIPIO",
        "unitType": "municipio",
        "MPIO_NAREA": 203.35671499,
        "MPIO_NANO": 2024,
        "MPIO_CRSLCION": "Ordenanza 2 Octubre 17 de 1978"
      }
    },
    {
      "type": "Feature",
      "id": 2044,
      "geometry": {
        "type": "Polygon",
        "coordinates": [
          [
            [
              -75.64214,
              8.56118
            ],
            [
              -75.65108,
              8.54045
            ],
            [
              -75.67321,
              8.53652
            ],
            [
              -75.66775,
              8.46054
            ],
            [
              -75.68597,
              8.43341
            ],
            [
              -75.64525,
              8.3968
            ],
            [
              -75.66968,
              8.36859
            ],
            [
              -75.65811,
              8.35589
            ],
            [
              -75.6785,
              8.34261
            ],
            [
              -75.66245,
              8.32728
            ],
            [
              -75.68329,
              8.32183
            ],
            [
              -75.68478,
              8.30153
            ],
            [
              -75.70482,
              8.31493
            ],
            [
              -75.70976,
              8.29189
            ],
            [
              -75.7535,
              8.28483
            ],
            [
              -75.76677,
              8.29769
            ],
            [
              -75.75199,
              8.23802
            ],
            [
              -75.80039,
              8.16807
            ],
            [
              -75.78851,
              8.11511
            ],
            [
              -75.75394,
              8.13356
            ],
            [
              -75.74098,
              8.12257
            ],
            [
              -75.74986,
              8.04329
            ],
            [
              -75.7244,
              8.06443
            ],
            [
              -75.69388,
              8.05556
            ],
            [
              -75.6864,
              8.06821
            ],
            [
              -75.66715,
              8.0437
            ],
            [
              -75.65149,
              8.06198
            ],
            [
              -75.60764,
              8.05262
            ],
            [
              -75.59398,
              8.09485
            ],
            [
              -75.57376,
              8.0996
            ],
            [
              -75.58568,
              8.15465
            ],
            [
              -75.57395,
              8.1751
            ],
            [
              -75.58732,
              8.23455
            ],
            [
              -75.57775,
              8.26929
            ],
            [
              -75.50021,
              8.28744
            ],
            [
              -75.47837,
              8.3165
            ],
            [
              -75.46269,
              8.30737
            ],
            [
              -75.40824,
              8.32047
            ],
            [
              -75.354,
              8.3761
            ],
            [
              -75.35866,
              8.40348
            ],
            [
              -75.41529,
              8.40441
            ],
            [
              -75.52142,
              8.45173
            ],
            [
              -75.54566,
              8.43409
            ],
            [
              -75.55238,
              8.46668
            ],
            [
              -75.5727,
              8.48842
            ],
            [
              -75.58676,
              8.47955
            ],
            [
              -75.59557,
              8.51312
            ],
            [
              -75.58319,
              8.53706
            ],
            [
              -75.64214,
              8.56118
            ]
          ]
        ]
      },
      "properties": {
        "code": "23555",
        "departmentCode": "23",
        "name": "PLANETA RICA",
        "originalCode": "555",
        "originalName": "PLANETA RICA",
        "type": "MUNICIPIO",
        "areaName": 1140.11603382,
        "creationYear": 2024,
        "creationResolution": "Decreto 81 del 2 de Febrero de 1955",
        "resultType": "observed",
        "source": "dane-divipola-mgn-2025",
        "year": 2025,
        "MPIO_TIPO": "MUNICIPIO",
        "unitType": "municipio",
        "MPIO_NAREA": 1140.11603382,
        "MPIO_NANO": 2024,
        "MPIO_CRSLCION": "Decreto 81 del 2 de Febrero de 1955"
      }
    },
    {
      "type": "Feature",
      "id": 2045,
      "geometry": {
        "type": "Polygon",
        "coordinates": [
          [
            [
              -75.50056,
              8.6175
            ],
            [
              -75.53412,
              8.61012
            ],
            [
              -75.5334,
              8.59535
            ],
            [
              -75.51049,
              8.58809
            ],
            [
              -75.53436,
              8.57879
            ],
            [
              -75.5865,
              8.62199
            ],
            [
              -75.58371,
              8.63545
            ],
            [
              -75.60988,
              8.63846
            ],
            [
              -75.60946,
              8.62515
            ],
            [
              -75.62664,
              8.62863
            ],
            [
              -75.64582,
              8.57025
            ],
            [
              -75.63667,
              8.55099
            ],
            [
              -75.58319,
              8.53706
            ],
            [
              -75.59557,
              8.51312
            ],
            [
              -75.58676,
              8.47955
            ],
            [
              -75.5727,
              8.48842
            ],
            [
              -75.55238,
              8.46668
            ],
            [
              -75.54566,
              8.43409
            ],
            [
              -75.52142,
              8.45173
            ],
            [
              -75.41529,
              8.40441
            ],
            [
              -75.35866,
              8.40348
            ],
            [
              -75.34778,
              8.3559
            ],
            [
              -75.36525,
              8.34421
            ],
            [
              -75.34256,
              8.32129
            ],
            [
              -75.31604,
              8.32825
            ],
            [
              -75.28275,
              8.30372
            ],
            [
              -75.25363,
              8.33344
            ],
            [
              -75.23488,
              8.33083
            ],
            [
              -75.23847,
              8.35548
            ],
            [
              -75.18534,
              8.39457
            ],
            [
              -75.2114,
              8.42534
            ],
            [
              -75.19245,
              8.44341
            ],
            [
              -75.21629,
              8.48537
            ],
            [
              -75.23194,
              8.46793
            ],
            [
              -75.2414,
              8.48728
            ],
            [
              -75.31436,
              8.50237
            ],
            [
              -75.30431,
              8.51775
            ],
            [
              -75.33032,
              8.55278
            ],
            [
              -75.31806,
              8.58816
            ],
            [
              -75.46318,
              8.58532
            ],
            [
              -75.50056,
              8.6175
            ]
          ]
        ]
      },
      "properties": {
        "code": "23570",
        "departmentCode": "23",
        "name": "PUEBLO NUEVO",
        "originalCode": "570",
        "originalName": "PUEBLO NUEVO",
        "type": "MUNICIPIO",
        "areaName": 848.94547079,
        "creationYear": 2025,
        "creationResolution": "Ordenanza 4 Enero 26 de 1957",
        "resultType": "observed",
        "source": "dane-divipola-mgn-2025",
        "year": 2025,
        "MPIO_TIPO": "MUNICIPIO",
        "unitType": "municipio",
        "MPIO_NAREA": 848.94547079,
        "MPIO_NANO": 2025,
        "MPIO_CRSLCION": "Ordenanza 4 Enero 26 de 1957"
      }
    },
    {
      "type": "Feature",
      "id": 2046,
      "geometry": {
        "type": "Polygon",
        "coordinates": [
          [
            [
              -76.15437,
              9.08422
            ],
            [
              -76.17119,
              9.10829
            ],
            [
              -76.19332,
              9.1111
            ],
            [
              -76.25438,
              9.0529
            ],
            [
              -76.26463,
              8.99791
            ],
            [
              -76.32283,
              8.95697
            ],
            [
              -76.32457,
              8.93662
            ],
            [
              -76.28941,
              8.90069
            ],
            [
              -76.26947,
              8.90132
            ],
            [
              -76.26601,
              8.87825
            ],
            [
              -76.21207,
              8.87959
            ],
            [
              -76.20085,
              8.89263
            ],
            [
              -76.19175,
              8.88283
            ],
            [
              -76.18246,
              8.91798
            ],
            [
              -76.14937,
              8.94408
            ],
            [
              -76.13012,
              8.9523
            ],
            [
              -76.09157,
              8.93763
            ],
            [
              -76.07359,
              8.95696
            ],
            [
              -76.09432,
              8.97864
            ],
            [
              -76.06677,
              9.00856
            ],
            [
              -76.06811,
              9.02941
            ],
            [
              -76.08214,
              9.01853
            ],
            [
              -76.07889,
              9.03458
            ],
            [
              -76.10854,
              9.06751
            ],
            [
              -76.15437,
              9.08422
            ]
          ]
        ]
      },
      "properties": {
        "code": "23574",
        "departmentCode": "23",
        "name": "PUERTO ESCONDIDO",
        "originalCode": "574",
        "originalName": "PUERTO ESCONDIDO",
        "type": "MUNICIPIO",
        "areaName": 411.16858659,
        "creationYear": 2025,
        "creationResolution": "Ordenanza 11 de Noviembre 24 de 1961",
        "resultType": "observed",
        "source": "dane-divipola-mgn-2025",
        "year": 2025,
        "MPIO_TIPO": "MUNICIPIO",
        "unitType": "municipio",
        "MPIO_NAREA": 411.16858659,
        "MPIO_NANO": 2025,
        "MPIO_CRSLCION": "Ordenanza 11 de Noviembre 24 de 1961"
      }
    },
    {
      "type": "Feature",
      "id": 2047,
      "geometry": {
        "type": "Polygon",
        "coordinates": [
          [
            [
              -75.84349,
              7.79477
            ],
            [
              -75.86741,
              7.6742
            ],
            [
              -75.89065,
              7.65359
            ],
            [
              -75.95581,
              7.50668
            ],
            [
              -75.99614,
              7.48059
            ],
            [
              -75.9661,
              7.3572
            ],
            [
              -75.8455,
              7.34709
            ],
            [
              -75.81766,
              7.41582
            ],
            [
              -75.82508,
              7.44219
            ],
            [
              -75.78778,
              7.45984
            ],
            [
              -75.76547,
              7.60154
            ],
            [
              -75.74811,
              7.61347
            ],
            [
              -75.71187,
              7.58129
            ],
            [
              -75.68065,
              7.58506
            ],
            [
              -75.69069,
              7.68322
            ],
            [
              -75.6708,
              7.69929
            ],
            [
              -75.65421,
              7.759
            ],
            [
              -75.60134,
              7.76039
            ],
            [
              -75.58188,
              7.79233
            ],
            [
              -75.59831,
              7.84211
            ],
            [
              -75.58559,
              7.90134
            ],
            [
              -75.55796,
              7.91705
            ],
            [
              -75.55644,
              7.93711
            ],
            [
              -75.51336,
              7.94329
            ],
            [
              -75.51444,
              7.95668
            ],
            [
              -75.54649,
              7.96483
            ],
            [
              -75.55509,
              7.9944
            ],
            [
              -75.58536,
              8.01418
            ],
            [
              -75.59346,
              8.00049
            ],
            [
              -75.63105,
              7.99958
            ],
            [
              -75.67656,
              8.02798
            ],
            [
              -75.6882,
              8.01442
            ],
            [
              -75.69519,
              8.03342
            ],
            [
              -75.71737,
              8.02999
            ],
            [
              -75.76168,
              7.9668
            ],
            [
              -75.79086,
              7.97474
            ],
            [
              -75.78066,
              7.95033
            ],
            [
              -75.81307,
              7.93081
            ],
            [
              -75.80697,
              7.91974
            ],
            [
              -75.82939,
              7.92199
            ],
            [
              -75.85328,
              7.88353
            ],
            [
              -75.85334,
              7.84452
            ],
            [
              -75.81856,
              7.83611
            ],
            [
              -75.84349,
              7.79477
            ]
          ]
        ]
      },
      "properties": {
        "code": "23580",
        "departmentCode": "23",
        "name": "PUERTO LIBERTADOR",
        "originalCode": "580",
        "originalName": "PUERTO LIBERTADOR",
        "type": "MUNICIPIO",
        "areaName": 1647.26988385,
        "creationYear": 2025,
        "creationResolution": "Ordenanza 006 del 20 de Octubre de 1980",
        "resultType": "observed",
        "source": "dane-divipola-mgn-2025",
        "year": 2025,
        "MPIO_TIPO": "MUNICIPIO",
        "unitType": "municipio",
        "MPIO_NAREA": 1647.26988385,
        "MPIO_NANO": 2025,
        "MPIO_CRSLCION": "Ordenanza 006 del 20 de Octubre de 1980"
      }
    },
    {
      "type": "Feature",
      "id": 2048,
      "geometry": {
        "type": "Polygon",
        "coordinates": [
          [
            [
              -75.7044,
              9.37221
            ],
            [
              -75.71757,
              9.3147
            ],
            [
              -75.747,
              9.29303
            ],
            [
              -75.75579,
              9.30595
            ],
            [
              -75.77589,
              9.29442
            ],
            [
              -75.78153,
              9.22187
            ],
            [
              -75.75746,
              9.20749
            ],
            [
              -75.70871,
              9.21635
            ],
            [
              -75.69393,
              9.31363
            ],
            [
              -75.62823,
              9.35129
            ],
            [
              -75.66101,
              9.36115
            ],
            [
              -75.67922,
              9.34426
            ],
            [
              -75.7044,
              9.37221
            ]
          ]
        ]
      },
      "properties": {
        "code": "23586",
        "departmentCode": "23",
        "name": "PURÍSIMA DE LA CONCEPCIÓN",
        "originalCode": "586",
        "originalName": "PURÍSIMA DE LA CONCEPCIÓN",
        "type": "MUNICIPIO",
        "areaName": 117.71157813,
        "creationYear": 2024,
        "creationResolution": "Ordenanza 21 de 1963",
        "resultType": "observed",
        "source": "dane-divipola-mgn-2025",
        "year": 2025,
        "MPIO_TIPO": "MUNICIPIO",
        "unitType": "municipio",
        "MPIO_NAREA": 117.71157813,
        "MPIO_NANO": 2024,
        "MPIO_CRSLCION": "Ordenanza 21 de 1963"
      }
    },
    {
      "type": "Feature",
      "id": 2049,
      "geometry": {
        "type": "Polygon",
        "coordinates": [
          [
            [
              -75.25847,
              8.89564
            ],
            [
              -75.26308,
              8.94142
            ],
            [
              -75.27473,
              8.94689
            ],
            [
              -75.28205,
              8.93169
            ],
            [
              -75.32546,
              8.95398
            ],
            [
              -75.3455,
              8.94527
            ],
            [
              -75.45621,
              9.01159
            ],
            [
              -75.47573,
              8.98914
            ],
            [
              -75.5113,
              8.98978
            ],
            [
              -75.52131,
              8.96939
            ],
            [
              -75.55818,
              8.9774
            ],
            [
              -75.54101,
              8.9626
            ],
            [
              -75.54745,
              8.93012
            ],
            [
              -75.52738,
              8.91044
            ],
            [
              -75.54522,
              8.88689
            ],
            [
              -75.52953,
              8.74901
            ],
            [
              -75.57053,
              8.71882
            ],
            [
              -75.52945,
              8.71208
            ],
            [
              -75.4999,
              8.68807
            ],
            [
              -75.51344,
              8.65924
            ],
            [
              -75.4827,
              8.59196
            ],
            [
              -75.3192,
              8.58594
            ],
            [
              -75.35962,
              8.6797
            ],
            [
              -75.34911,
              8.70075
            ],
            [
              -75.33675,
              8.69618
            ],
            [
              -75.34317,
              8.71519
            ],
            [
              -75.32419,
              8.75553
            ],
            [
              -75.36885,
              8.79123
            ],
            [
              -75.37161,
              8.82652
            ],
            [
              -75.33163,
              8.86554
            ],
            [
              -75.29976,
              8.85799
            ],
            [
              -75.29318,
              8.89735
            ],
            [
              -75.27269,
              8.91364
            ],
            [
              -75.25847,
              8.89564
            ]
          ]
        ]
      },
      "properties": {
        "code": "23660",
        "departmentCode": "23",
        "name": "SAHAGÚN",
        "originalCode": "660",
        "originalName": "SAHAGÚN",
        "type": "MUNICIPIO",
        "areaName": 964.45878899,
        "creationYear": 2025,
        "creationResolution": "1834",
        "resultType": "observed",
        "source": "dane-divipola-mgn-2025",
        "year": 2025,
        "MPIO_TIPO": "MUNICIPIO",
        "unitType": "municipio",
        "MPIO_NAREA": 964.45878899,
        "MPIO_NANO": 2025,
        "MPIO_CRSLCION": "1834"
      }
    },
    {
      "type": "Feature",
      "id": 2050,
      "geometry": {
        "type": "Polygon",
        "coordinates": [
          [
            [
              -75.4745,
              9.24699
            ],
            [
              -75.49625,
              9.20629
            ],
            [
              -75.51574,
              9.21269
            ],
            [
              -75.53973,
              9.15759
            ],
            [
              -75.5689,
              9.15553
            ],
            [
              -75.57777,
              9.09603
            ],
            [
              -75.59575,
              9.07649
            ],
            [
              -75.59103,
              9.03624
            ],
            [
              -75.57455,
              9.02218
            ],
            [
              -75.50975,
              9.0337
            ],
            [
              -75.5108,
              9.06781
            ],
            [
              -75.49666,
              9.06699
            ],
            [
              -75.48101,
              9.11472
            ],
            [
              -75.44956,
              9.13849
            ],
            [
              -75.4674,
              9.16475
            ],
            [
              -75.45442,
              9.17601
            ],
            [
              -75.4662,
              9.20851
            ],
            [
              -75.45734,
              9.2376
            ],
            [
              -75.4745,
              9.24699
            ]
          ]
        ]
      },
      "properties": {
        "code": "23670",
        "departmentCode": "23",
        "name": "SAN ANDRÉS DE SOTAVENTO",
        "originalCode": "670",
        "originalName": "SAN ANDRÉS DE SOTAVENTO",
        "type": "MUNICIPIO",
        "areaName": 206.68851358,
        "creationYear": 2024,
        "creationResolution": "1923",
        "resultType": "observed",
        "source": "dane-divipola-mgn-2025",
        "year": 2025,
        "MPIO_TIPO": "MUNICIPIO",
        "unitType": "municipio",
        "MPIO_NAREA": 206.68851358,
        "MPIO_NANO": 2024,
        "MPIO_CRSLCION": "1923"
      }
    },
    {
      "type": "Feature",
      "id": 2051,
      "geometry": {
        "type": "Polygon",
        "coordinates": [
          [
            [
              -75.79801,
              9.43192
            ],
            [
              -75.86172,
              9.42479
            ],
            [
              -75.87477,
              9.36152
            ],
            [
              -75.85598,
              9.3555
            ],
            [
              -75.85525,
              9.30051
            ],
            [
              -75.84223,
              9.29178
            ],
            [
              -75.8147,
              9.31302
            ],
            [
              -75.77729,
              9.28394
            ],
            [
              -75.76154,
              9.30605
            ],
            [
              -75.747,
              9.29303
            ],
            [
              -75.71499,
              9.31862
            ],
            [
              -75.7,
              9.41202
            ],
            [
              -75.74575,
              9.42129
            ],
            [
              -75.7842,
              9.393
            ],
            [
              -75.83769,
              9.39869
            ],
            [
              -75.82398,
              9.41643
            ],
            [
              -75.79151,
              9.40987
            ],
            [
              -75.79801,
              9.43192
            ]
          ]
        ]
      },
      "properties": {
        "code": "23672",
        "departmentCode": "23",
        "name": "SAN ANTERO",
        "originalCode": "672",
        "originalName": "SAN ANTERO",
        "type": "MUNICIPIO",
        "areaName": 207.42674387,
        "creationYear": 2024,
        "creationResolution": "Ordenanza 22 del 8 de Abril de 1929",
        "resultType": "observed",
        "source": "dane-divipola-mgn-2025",
        "year": 2025,
        "MPIO_TIPO": "MUNICIPIO",
        "unitType": "municipio",
        "MPIO_NAREA": 207.42674387,
        "MPIO_NANO": 2024,
        "MPIO_CRSLCION": "Ordenanza 22 del 8 de Abril de 1929"
      }
    },
    {
      "type": "Feature",
      "id": 2052,
      "geometry": {
        "type": "Polygon",
        "coordinates": [
          [
            [
              -75.88119,
              9.42363
            ],
            [
              -75.923,
              9.44775
            ],
            [
              -75.94551,
              9.44329
            ],
            [
              -75.97808,
              9.37641
            ],
            [
              -76.08532,
              9.33497
            ],
            [
              -76.09962,
              9.3134
            ],
            [
              -76.06102,
              9.26783
            ],
            [
              -76.06333,
              9.24069
            ],
            [
              -76.03893,
              9.2288
            ],
            [
              -76.07104,
              9.19901
            ],
            [
              -76.01001,
              9.21712
            ],
            [
              -75.90242,
              9.33903
            ],
            [
              -75.86417,
              9.33727
            ],
            [
              -75.85598,
              9.3555
            ],
            [
              -75.87476,
              9.36175
            ],
            [
              -75.86172,
              9.42479
            ],
            [
              -75.88119,
              9.42363
            ]
          ]
        ]
      },
      "properties": {
        "code": "23675",
        "departmentCode": "23",
        "name": "SAN BERNARDO DEL VIENTO",
        "originalCode": "675",
        "originalName": "SAN BERNARDO DEL VIENTO",
        "type": "MUNICIPIO",
        "areaName": 315.47938585,
        "creationYear": 2024,
        "creationResolution": "Ordenanza 13 del 23 de Mayo de 1945",
        "resultType": "observed",
        "source": "dane-divipola-mgn-2025",
        "year": 2025,
        "MPIO_TIPO": "MUNICIPIO",
        "unitType": "municipio",
        "MPIO_NAREA": 315.47938585,
        "MPIO_NANO": 2024,
        "MPIO_CRSLCION": "Ordenanza 13 del 23 de Mayo de 1945"
      }
    },
    {
      "type": "Feature",
      "id": 2053,
      "geometry": {
        "type": "Polygon",
        "coordinates": [
          [
            [
              -75.70698,
              8.8496
            ],
            [
              -75.71605,
              8.86189
            ],
            [
              -75.74409,
              8.84894
            ],
            [
              -75.74382,
              8.80883
            ],
            [
              -75.77624,
              8.78591
            ],
            [
              -75.79515,
              8.79951
            ],
            [
              -75.78743,
              8.7832
            ],
            [
              -75.80052,
              8.76833
            ],
            [
              -75.76063,
              8.71823
            ],
            [
              -75.77202,
              8.65665
            ],
            [
              -75.73974,
              8.61995
            ],
            [
              -75.70634,
              8.61182
            ],
            [
              -75.70863,
              8.58889
            ],
            [
              -75.67822,
              8.57939
            ],
            [
              -75.69331,
              8.55499
            ],
            [
              -75.67657,
              8.5315
            ],
            [
              -75.68715,
              8.5079
            ],
            [
              -75.67321,
              8.53652
            ],
            [
              -75.65108,
              8.54045
            ],
            [
              -75.62664,
              8.62863
            ],
            [
              -75.60946,
              8.62515
            ],
            [
              -75.60236,
              8.64145
            ],
            [
              -75.62442,
              8.66855
            ],
            [
              -75.61756,
              8.70249
            ],
            [
              -75.59458,
              8.71458
            ],
            [
              -75.61003,
              8.72869
            ],
            [
              -75.59312,
              8.73717
            ],
            [
              -75.63906,
              8.77456
            ],
            [
              -75.63637,
              8.80116
            ],
            [
              -75.6825,
              8.83636
            ],
            [
              -75.70469,
              8.83007
            ],
            [
              -75.70698,
              8.8496
            ]
          ]
        ]
      },
      "properties": {
        "code": "23678",
        "departmentCode": "23",
        "name": "SAN CARLOS",
        "originalCode": "678",
        "originalName": "SAN CARLOS",
        "type": "MUNICIPIO",
        "areaName": 446.5979458,
        "creationYear": 2024,
        "creationResolution": "REPORTE ALCALDIA MUNICIPAL",
        "resultType": "observed",
        "source": "dane-divipola-mgn-2025",
        "year": 2025,
        "MPIO_TIPO": "MUNICIPIO",
        "unitType": "municipio",
        "MPIO_NAREA": 446.5979458,
        "MPIO_NANO": 2024,
        "MPIO_CRSLCION": "REPORTE ALCALDIA MUNICIPAL"
      }
    },
    {
      "type": "Feature",
      "id": 2054,
      "geometry": {
        "type": "Polygon",
        "coordinates": [
          [
            [
              -75.5241,
              7.94534
            ],
            [
              -75.55644,
              7.93711
            ],
            [
              -75.55796,
              7.91705
            ],
            [
              -75.58559,
              7.90134
            ],
            [
              -75.59831,
              7.84211
            ],
            [
              -75.58188,
              7.79233
            ],
            [
              -75.60134,
              7.76039
            ],
            [
              -75.65421,
              7.759
            ],
            [
              -75.6708,
              7.69929
            ],
            [
              -75.69069,
              7.68322
            ],
            [
              -75.69382,
              7.6286
            ],
            [
              -75.64641,
              7.58584
            ],
            [
              -75.60556,
              7.58534
            ],
            [
              -75.60144,
              7.60215
            ],
            [
              -75.55522,
              7.62431
            ],
            [
              -75.53459,
              7.72174
            ],
            [
              -75.4957,
              7.72171
            ],
            [
              -75.45435,
              7.79754
            ],
            [
              -75.46577,
              7.85187
            ],
            [
              -75.44519,
              7.86723
            ],
            [
              -75.44539,
              7.91587
            ],
            [
              -75.46148,
              7.90526
            ],
            [
              -75.47993,
              7.92194
            ],
            [
              -75.56489,
              7.8913
            ],
            [
              -75.55175,
              7.93431
            ],
            [
              -75.50976,
              7.94416
            ],
            [
              -75.5241,
              7.94534
            ]
          ]
        ]
      },
      "properties": {
        "code": "23682",
        "departmentCode": "23",
        "name": "SAN JOSÉ DE URÉ",
        "originalCode": "682",
        "originalName": "SAN JOSÉ DE URÉ",
        "type": "MUNICIPIO",
        "areaName": 525.50100271,
        "creationYear": 2024,
        "creationResolution": "Ordenanza 11 de Julio 24 de 2007",
        "resultType": "observed",
        "source": "dane-divipola-mgn-2025",
        "year": 2025,
        "MPIO_TIPO": "MUNICIPIO",
        "unitType": "municipio",
        "MPIO_NAREA": 525.50100271,
        "MPIO_NANO": 2024,
        "MPIO_CRSLCION": "Ordenanza 11 de Julio 24 de 2007"
      }
    },
    {
      "type": "Feature",
      "id": 2055,
      "geometry": {
        "type": "Polygon",
        "coordinates": [
          [
            [
              -75.92689,
              9.0731
            ],
            [
              -75.97255,
              9.02503
            ],
            [
              -75.98904,
              9.03702
            ],
            [
              -75.99483,
              9.0243
            ],
            [
              -76.03891,
              9.02817
            ],
            [
              -76.0541,
              9.06021
            ],
            [
              -76.11032,
              9.06321
            ],
            [
              -76.07889,
              9.03458
            ],
            [
              -76.08214,
              9.01853
            ],
            [
              -76.06937,
              9.0299
            ],
            [
              -76.06542,
              9.01744
            ],
            [
              -76.09365,
              8.9868
            ],
            [
              -76.092,
              8.96529
            ],
            [
              -76.0729,
              8.96515
            ],
            [
              -76.08621,
              8.93978
            ],
            [
              -76.00076,
              8.96012
            ],
            [
              -75.95882,
              8.94474
            ],
            [
              -75.92733,
              8.9084
            ],
            [
              -75.85629,
              8.92047
            ],
            [
              -75.8277,
              8.9043
            ],
            [
              -75.81319,
              8.94389
            ],
            [
              -75.76795,
              8.9446
            ],
            [
              -75.75774,
              8.97813
            ],
            [
              -75.70215,
              8.97173
            ],
            [
              -75.72788,
              8.99386
            ],
            [
              -75.72422,
              9.06887
            ],
            [
              -75.74064,
              9.05895
            ],
            [
              -75.74516,
              9.0238
            ],
            [
              -75.75978,
              9.03105
            ],
            [
              -75.75951,
              9.01803
            ],
            [
              -75.79928,
              9.00012
            ],
            [
              -75.8058,
              9.01234
            ],
            [
              -75.82811,
              9.00391
            ],
            [
              -75.83107,
              9.03963
            ],
            [
              -75.86721,
              9.04064
            ],
            [
              -75.88981,
              9.06084
            ],
            [
              -75.89849,
              9.04744
            ],
            [
              -75.92689,
              9.0731
            ]
          ]
        ]
      },
      "properties": {
        "code": "23686",
        "departmentCode": "23",
        "name": "SAN PELAYO",
        "originalCode": "686",
        "originalName": "SAN PELAYO",
        "type": "MUNICIPIO",
        "areaName": 445.55599877,
        "creationYear": 2024,
        "creationResolution": "Ordenanza 43 de 1931",
        "resultType": "observed",
        "source": "dane-divipola-mgn-2025",
        "year": 2025,
        "MPIO_TIPO": "MUNICIPIO",
        "unitType": "municipio",
        "MPIO_NAREA": 445.55599877,
        "MPIO_NANO": 2024,
        "MPIO_CRSLCION": "Ordenanza 43 de 1931"
      }
    },
    {
      "type": "Feature",
      "id": 2056,
      "geometry": {
        "type": "Polygon",
        "coordinates": [
          [
            [
              -76.3363,
              8.04015
            ],
            [
              -76.37688,
              8.04973
            ],
            [
              -76.40822,
              8.0194
            ],
            [
              -76.42112,
              7.91183
            ],
            [
              -76.46261,
              7.87449
            ],
            [
              -76.48045,
              7.82477
            ],
            [
              -76.4835,
              7.75804
            ],
            [
              -76.49693,
              7.74776
            ],
            [
              -76.4923,
              7.64047
            ],
            [
              -76.51441,
              7.58835
            ],
            [
              -76.5021,
              7.55565
            ],
            [
              -76.45254,
              7.50113
            ],
            [
              -76.41629,
              7.4185
            ],
            [
              -76.38393,
              7.39229
            ],
            [
              -76.05504,
              7.36463
            ],
            [
              -76.03068,
              7.48316
            ],
            [
              -75.99568,
              7.50044
            ],
            [
              -75.95258,
              7.56274
            ],
            [
              -75.94363,
              7.62182
            ],
            [
              -75.97442,
              7.67663
            ],
            [
              -75.95363,
              7.72541
            ],
            [
              -75.96831,
              7.83904
            ],
            [
              -76.0016,
              7.85656
            ],
            [
              -76.00944,
              7.92292
            ],
            [
              -75.98142,
              7.94762
            ],
            [
              -75.95841,
              8.03849
            ],
            [
              -75.92722,
              8.03215
            ],
            [
              -75.89328,
              8.07564
            ],
            [
              -75.88048,
              8.06134
            ],
            [
              -75.84421,
              8.08707
            ],
            [
              -75.8355,
              8.14636
            ],
            [
              -75.80039,
              8.16807
            ],
            [
              -75.75199,
              8.23802
            ],
            [
              -75.76557,
              8.29698
            ],
            [
              -75.80941,
              8.32038
            ],
            [
              -75.84667,
              8.2694
            ],
            [
              -75.87069,
              8.27364
            ],
            [
              -75.87191,
              8.31707
            ],
            [
              -75.89104,
              8.32794
            ],
            [
              -76.06336,
              8.33234
            ],
            [
              -76.04712,
              8.26884
            ],
            [
              -76.07152,
              8.26715
            ],
            [
              -76.0453,
              8.21878
            ],
            [
              -76.06378,
              8.21383
            ],
            [
              -76.06193,
              8.17935
            ],
            [
              -76.09423,
              8.17253
            ],
            [
              -76.10914,
              8.14328
            ],
            [
              -76.12072,
              8.15576
            ],
            [
              -76.12327,
              8.14169
            ],
            [
              -76.18743,
              8.15061
            ],
            [
              -76.24383,
              8.07956
            ],
            [
              -76.3363,
              8.04015
            ]
          ]
        ]
      },
      "properties": {
        "code": "23807",
        "departmentCode": "23",
        "name": "TIERRALTA",
        "originalCode": "807",
        "originalName": "TIERRALTA",
        "type": "MUNICIPIO",
        "areaName": 4938.15616991,
        "creationYear": 2025,
        "creationResolution": "Ordenanza 63 del 13 de diciembre de 1948",
        "resultType": "observed",
        "source": "dane-divipola-mgn-2025",
        "year": 2025,
        "MPIO_TIPO": "MUNICIPIO",
        "unitType": "municipio",
        "MPIO_NAREA": 4938.15616991,
        "MPIO_NANO": 2025,
        "MPIO_CRSLCION": "Ordenanza 63 del 13 de diciembre de 1948"
      }
    },
    {
      "type": "Feature",
      "id": 2057,
      "geometry": {
        "type": "Polygon",
        "coordinates": [
          [
            [
              -75.4967,
              9.28462
            ],
            [
              -75.51231,
              9.2581
            ],
            [
              -75.54834,
              9.25978
            ],
            [
              -75.56933,
              9.27969
            ],
            [
              -75.59462,
              9.25489
            ],
            [
              -75.5938,
              9.21471
            ],
            [
              -75.55744,
              9.1549
            ],
            [
              -75.53399,
              9.16527
            ],
            [
              -75.51574,
              9.21269
            ],
            [
              -75.49132,
              9.21247
            ],
            [
              -75.47772,
              9.24725
            ],
            [
              -75.49977,
              9.25952
            ],
            [
              -75.4967,
              9.28462
            ]
          ]
        ]
      },
      "properties": {
        "code": "23815",
        "departmentCode": "23",
        "name": "TUCHÍN",
        "originalCode": "815",
        "originalName": "TUCHÍN",
        "type": "MUNICIPIO",
        "areaName": 106.35289287,
        "creationYear": 2025,
        "creationResolution": "Ordenanza 11 de Julio 24 de 2007",
        "resultType": "observed",
        "source": "dane-divipola-mgn-2025",
        "year": 2025,
        "MPIO_TIPO": "MUNICIPIO",
        "unitType": "municipio",
        "MPIO_NAREA": 106.35289287,
        "MPIO_NANO": 2025,
        "MPIO_CRSLCION": "Ordenanza 11 de Julio 24 de 2007"
      }
    },
    {
      "type": "Feature",
      "id": 2058,
      "geometry": {
        "type": "Polygon",
        "coordinates": [
          [
            [
              -76.06336,
              8.33234
            ],
            [
              -76.05456,
              8.35139
            ],
            [
              -76.08148,
              8.34542
            ],
            [
              -76.08535,
              8.36882
            ],
            [
              -76.11347,
              8.39135
            ],
            [
              -76.165,
              8.38039
            ],
            [
              -76.17981,
              8.40029
            ],
            [
              -76.26616,
              8.3533
            ],
            [
              -76.30343,
              8.31118
            ],
            [
              -76.30328,
              8.28452
            ],
            [
              -76.35141,
              8.20334
            ],
            [
              -76.33115,
              8.15146
            ],
            [
              -76.36815,
              8.15295
            ],
            [
              -76.37485,
              8.11154
            ],
            [
              -76.40853,
              8.09972
            ],
            [
              -76.40872,
              8.07393
            ],
            [
              -76.42497,
              8.07429
            ],
            [
              -76.42958,
              8.05672
            ],
            [
              -76.42711,
              8.01854
            ],
            [
              -76.41162,
              8.00712
            ],
            [
              -76.37688,
              8.04973
            ],
            [
              -76.3338,
              8.03869
            ],
            [
              -76.24383,
              8.07956
            ],
            [
              -76.18743,
              8.15061
            ],
            [
              -76.12327,
              8.14169
            ],
            [
              -76.12072,
              8.15576
            ],
            [
              -76.10914,
              8.14328
            ],
            [
              -76.09423,
              8.17253
            ],
            [
              -76.06238,
              8.17895
            ],
            [
              -76.06378,
              8.21383
            ],
            [
              -76.0453,
              8.21878
            ],
            [
              -76.07152,
              8.26715
            ],
            [
              -76.04712,
              8.26884
            ],
            [
              -76.06336,
              8.33234
            ]
          ]
        ]
      },
      "properties": {
        "code": "23855",
        "departmentCode": "23",
        "name": "VALENCIA",
        "originalCode": "855",
        "originalName": "VALENCIA",
        "type": "MUNICIPIO",
        "areaName": 919.47665805,
        "creationYear": 2025,
        "creationResolution": "Ordenanza 29 del 20 de Noviembre de 1959",
        "resultType": "observed",
        "source": "dane-divipola-mgn-2025",
        "year": 2025,
        "MPIO_TIPO": "MUNICIPIO",
        "unitType": "municipio",
        "MPIO_NAREA": 919.47665805,
        "MPIO_NANO": 2025,
        "MPIO_CRSLCION": "Ordenanza 29 del 20 de Noviembre de 1959"
      }
    }
  ]
}
