{
  "type": "FeatureCollection",
  "metadata": {
    "source": "DANE DIVIPOLA MGN 2025",
    "downloadedAt": "2026-07-27T01:49:40Z",
    "crs": "EPSG:4326",
    "simplification": "ArcGIS maxAllowableOffset=0.01 grados y geometryPrecision=5; solo visualización web"
  },
  "features": [
    {
      "type": "Feature",
      "id": 2206,
      "geometry": {
        "type": "Polygon",
        "coordinates": [
          [
            [
              -75.03801,
              2.94344
            ],
            [
              -75.06577,
              2.95268
            ],
            [
              -75.09878,
              2.94134
            ],
            [
              -75.11548,
              2.99806
            ],
            [
              -75.1771,
              2.99296
            ],
            [
              -75.25049,
              3.04003
            ],
            [
              -75.23232,
              3.06575
            ],
            [
              -75.26172,
              3.09156
            ],
            [
              -75.25784,
              3.1269
            ],
            [
              -75.26803,
              3.12975
            ],
            [
              -75.29674,
              3.0578
            ],
            [
              -75.33884,
              3.07167
            ],
            [
              -75.34449,
              3.09812
            ],
            [
              -75.36114,
              3.09263
            ],
            [
              -75.37039,
              3.11316
            ],
            [
              -75.40845,
              3.11252
            ],
            [
              -75.39008,
              3.2029
            ],
            [
              -75.33742,
              3.27173
            ],
            [
              -75.35503,
              3.28402
            ],
            [
              -75.40562,
              3.25008
            ],
            [
              -75.53032,
              3.23222
            ],
            [
              -75.5629,
              3.2017
            ],
            [
              -75.58255,
              3.1238
            ],
            [
              -75.62196,
              3.07638
            ],
            [
              -75.60001,
              3.04845
            ],
            [
              -75.58577,
              3.08799
            ],
            [
              -75.55781,
              3.10437
            ],
            [
              -75.52351,
              3.06874
            ],
            [
              -75.53143,
              3.0377
            ],
            [
              -75.46324,
              3.02115
            ],
            [
              -75.42501,
              3.09676
            ],
            [
              -75.39836,
              3.07278
            ],
            [
              -75.40321,
              3.05205
            ],
            [
              -75.33893,
              3.04157
            ],
            [
              -75.31606,
              2.96995
            ],
            [
              -75.30059,
              2.97116
            ],
            [
              -75.30906,
              2.93923
            ],
            [
              -75.29023,
              2.86839
            ],
            [
              -75.21628,
              2.861
            ],
            [
              -75.20119,
              2.83187
            ],
            [
              -75.16145,
              2.80929
            ],
            [
              -75.16701,
              2.76533
            ],
            [
              -75.13525,
              2.74963
            ],
            [
              -75.14529,
              2.72341
            ],
            [
              -75.07034,
              2.74215
            ],
            [
              -74.94464,
              2.89678
            ],
            [
              -74.97088,
              2.89839
            ],
            [
              -74.97067,
              2.93395
            ],
            [
              -75.03801,
              2.94344
            ]
          ]
        ]
      },
      "properties": {
        "code": "41001",
        "departmentCode": "41",
        "name": "NEIVA",
        "originalCode": "001",
        "originalName": "NEIVA",
        "type": "MUNICIPIO",
        "areaName": 1269.2178537,
        "creationYear": 2025,
        "creationResolution": "1612",
        "resultType": "observed",
        "source": "dane-divipola-mgn-2025",
        "year": 2025,
        "MPIO_TIPO": "MUNICIPIO",
        "unitType": "municipio",
        "MPIO_NAREA": 1269.2178537,
        "MPIO_NANO": 2025,
        "MPIO_CRSLCION": "1612"
      }
    },
    {
      "type": "Feature",
      "id": 2207,
      "geometry": {
        "type": "Polygon",
        "coordinates": [
          [
            [
              -75.90919,
              1.85422
            ],
            [
              -75.97832,
              1.84325
            ],
            [
              -76.02641,
              1.74331
            ],
            [
              -76.09931,
              1.71639
            ],
            [
              -76.11596,
              1.69276
            ],
            [
              -76.10294,
              1.67691
            ],
            [
              -76.12527,
              1.65051
            ],
            [
              -76.10099,
              1.64117
            ],
            [
              -76.16975,
              1.58798
            ],
            [
              -76.11982,
              1.55213
            ],
            [
              -76.07458,
              1.58483
            ],
            [
              -76.03438,
              1.58277
            ],
            [
              -75.98085,
              1.62436
            ],
            [
              -75.97999,
              1.65759
            ],
            [
              -75.95265,
              1.6638
            ],
            [
              -75.91224,
              1.71196
            ],
            [
              -75.84148,
              1.72427
            ],
            [
              -75.87086,
              1.83495
            ],
            [
              -75.90919,
              1.85422
            ]
          ]
        ]
      },
      "properties": {
        "code": "41006",
        "departmentCode": "41",
        "name": "ACEVEDO",
        "originalCode": "006",
        "originalName": "ACEVEDO",
        "type": "MUNICIPIO",
        "areaName": 521.80771888,
        "creationYear": 2024,
        "creationResolution": "1898",
        "resultType": "observed",
        "source": "dane-divipola-mgn-2025",
        "year": 2025,
        "MPIO_TIPO": "MUNICIPIO",
        "unitType": "municipio",
        "MPIO_NAREA": 521.80771888,
        "MPIO_NANO": 2024,
        "MPIO_CRSLCION": "1898"
      }
    },
    {
      "type": "Feature",
      "id": 2208,
      "geometry": {
        "type": "Polygon",
        "coordinates": [
          [
            [
              -75.77785,
              2.36345
            ],
            [
              -75.78166,
              2.32635
            ],
            [
              -75.79853,
              2.31265
            ],
            [
              -75.78145,
              2.2843
            ],
            [
              -75.78284,
              2.24449
            ],
            [
              -75.73273,
              2.23135
            ],
            [
              -75.78705,
              2.2196
            ],
            [
              -75.72959,
              2.16319
            ],
            [
              -75.67531,
              2.17262
            ],
            [
              -75.66033,
              2.19062
            ],
            [
              -75.67696,
              2.19976
            ],
            [
              -75.6714,
              2.2157
            ],
            [
              -75.64724,
              2.22683
            ],
            [
              -75.64001,
              2.33521
            ],
            [
              -75.66604,
              2.3557
            ],
            [
              -75.68415,
              2.3254
            ],
            [
              -75.72206,
              2.35995
            ],
            [
              -75.77785,
              2.36345
            ]
          ]
        ]
      },
      "properties": {
        "code": "41013",
        "departmentCode": "41",
        "name": "AGRADO",
        "originalCode": "013",
        "originalName": "AGRADO",
        "type": "MUNICIPIO",
        "areaName": 273.68705437,
        "creationYear": 2024,
        "creationResolution": "1837",
        "resultType": "observed",
        "source": "dane-divipola-mgn-2025",
        "year": 2025,
        "MPIO_TIPO": "MUNICIPIO",
        "unitType": "municipio",
        "MPIO_NAREA": 273.68705437,
        "MPIO_NANO": 2024,
        "MPIO_CRSLCION": "1837"
      }
    },
    {
      "type": "Feature",
      "id": 2209,
      "geometry": {
        "type": "Polygon",
        "coordinates": [
          [
            [
              -75.31817,
              3.41627
            ],
            [
              -75.34029,
              3.39797
            ],
            [
              -75.36646,
              3.40658
            ],
            [
              -75.37506,
              3.37515
            ],
            [
              -75.41497,
              3.37123
            ],
            [
              -75.44061,
              3.34516
            ],
            [
              -75.4788,
              3.36114
            ],
            [
              -75.49042,
              3.32591
            ],
            [
              -75.52508,
              3.32119
            ],
            [
              -75.52195,
              3.30123
            ],
            [
              -75.57592,
              3.22841
            ],
            [
              -75.5848,
              3.15015
            ],
            [
              -75.56274,
              3.20197
            ],
            [
              -75.53032,
              3.23222
            ],
            [
              -75.40562,
              3.25008
            ],
            [
              -75.35503,
              3.28402
            ],
            [
              -75.33742,
              3.27173
            ],
            [
              -75.39008,
              3.2029
            ],
            [
              -75.40944,
              3.11458
            ],
            [
              -75.37039,
              3.11316
            ],
            [
              -75.36114,
              3.09263
            ],
            [
              -75.34449,
              3.09812
            ],
            [
              -75.33884,
              3.07167
            ],
            [
              -75.29485,
              3.05815
            ],
            [
              -75.26704,
              3.10717
            ],
            [
              -75.27537,
              3.16141
            ],
            [
              -75.22937,
              3.20153
            ],
            [
              -75.23912,
              3.31032
            ],
            [
              -75.20382,
              3.33149
            ],
            [
              -75.21611,
              3.35309
            ],
            [
              -75.20212,
              3.34483
            ],
            [
              -75.17277,
              3.37833
            ],
            [
              -75.19988,
              3.38455
            ],
            [
              -75.20009,
              3.40911
            ],
            [
              -75.22674,
              3.41586
            ],
            [
              -75.25267,
              3.36572
            ],
            [
              -75.31817,
              3.41627
            ]
          ]
        ]
      },
      "properties": {
        "code": "41016",
        "departmentCode": "41",
        "name": "AIPE",
        "originalCode": "016",
        "originalName": "AIPE",
        "type": "MUNICIPIO",
        "areaName": 795.30817987,
        "creationYear": 2024,
        "creationResolution": "1912",
        "resultType": "observed",
        "source": "dane-divipola-mgn-2025",
        "year": 2025,
        "MPIO_TIPO": "MUNICIPIO",
        "unitType": "municipio",
        "MPIO_NAREA": 795.30817987,
        "MPIO_NANO": 2024,
        "MPIO_CRSLCION": "1912"
      }
    },
    {
      "type": "Feature",
      "id": 2210,
      "geometry": {
        "type": "Polygon",
        "coordinates": [
          [
            [
              -75.15409,
              2.70412
            ],
            [
              -75.17196,
              2.70331
            ],
            [
              -75.17429,
              2.67753
            ],
            [
              -75.28157,
              2.60022
            ],
            [
              -75.29814,
              2.56897
            ],
            [
              -75.34606,
              2.551
            ],
            [
              -75.4289,
              2.45184
            ],
            [
              -75.44508,
              2.38561
            ],
            [
              -75.38628,
              2.31458
            ],
            [
              -75.34809,
              2.32378
            ],
            [
              -75.32962,
              2.36531
            ],
            [
              -75.31015,
              2.36161
            ],
            [
              -75.27954,
              2.42271
            ],
            [
              -75.25059,
              2.44445
            ],
            [
              -75.2271,
              2.51167
            ],
            [
              -75.18056,
              2.50771
            ],
            [
              -75.15413,
              2.58119
            ],
            [
              -75.13269,
              2.59515
            ],
            [
              -75.1556,
              2.64593
            ],
            [
              -75.13317,
              2.69363
            ],
            [
              -75.15409,
              2.70412
            ]
          ]
        ]
      },
      "properties": {
        "code": "41020",
        "departmentCode": "41",
        "name": "ALGECIRAS",
        "originalCode": "020",
        "originalName": "ALGECIRAS",
        "type": "MUNICIPIO",
        "areaName": 589.42711259,
        "creationYear": 2024,
        "creationResolution": "Ordenanza 41 del 7 de Abril de 1924",
        "resultType": "observed",
        "source": "dane-divipola-mgn-2025",
        "year": 2025,
        "MPIO_TIPO": "MUNICIPIO",
        "unitType": "municipio",
        "MPIO_NAREA": 589.42711259,
        "MPIO_NANO": 2024,
        "MPIO_CRSLCION": "Ordenanza 41 del 7 de Abril de 1924"
      }
    },
    {
      "type": "Feature",
      "id": 2211,
      "geometry": {
        "type": "Polygon",
        "coordinates": [
          [
            [
              -75.68774,
              2.16521
            ],
            [
              -75.73321,
              2.16172
            ],
            [
              -75.74811,
              2.11352
            ],
            [
              -75.79341,
              2.12124
            ],
            [
              -75.83996,
              2.08645
            ],
            [
              -75.85991,
              2.04688
            ],
            [
              -75.83351,
              2.02507
            ],
            [
              -75.8286,
              1.99938
            ],
            [
              -75.78896,
              1.99161
            ],
            [
              -75.77508,
              2.02831
            ],
            [
              -75.74881,
              2.03335
            ],
            [
              -75.71025,
              2.0778
            ],
            [
              -75.7001,
              2.11831
            ],
            [
              -75.66849,
              2.14152
            ],
            [
              -75.68774,
              2.16521
            ]
          ]
        ]
      },
      "properties": {
        "code": "41026",
        "departmentCode": "41",
        "name": "ALTAMIRA",
        "originalCode": "026",
        "originalName": "ALTAMIRA",
        "type": "MUNICIPIO",
        "areaName": 180.95237477,
        "creationYear": 2024,
        "creationResolution": "1855",
        "resultType": "observed",
        "source": "dane-divipola-mgn-2025",
        "year": 2025,
        "MPIO_TIPO": "MUNICIPIO",
        "unitType": "municipio",
        "MPIO_NAREA": 180.95237477,
        "MPIO_NANO": 2024,
        "MPIO_CRSLCION": "1855"
      }
    },
    {
      "type": "Feature",
      "id": 2212,
      "geometry": {
        "type": "Polygon",
        "coordinates": [
          [
            [
              -74.91257,
              3.28987
            ],
            [
              -75.01757,
              3.27647
            ],
            [
              -75.0496,
              3.23038
            ],
            [
              -75.04265,
              3.2006
            ],
            [
              -75.09305,
              3.18364
            ],
            [
              -75.13422,
              3.20032
            ],
            [
              -75.16363,
              3.13758
            ],
            [
              -75.10012,
              3.06848
            ],
            [
              -75.06201,
              3.09812
            ],
            [
              -75.03368,
              3.07382
            ],
            [
              -74.94258,
              3.04642
            ],
            [
              -74.94097,
              2.97828
            ],
            [
              -74.91065,
              2.95734
            ],
            [
              -74.86905,
              2.97363
            ],
            [
              -74.81596,
              3.05303
            ],
            [
              -74.79181,
              3.05621
            ],
            [
              -74.76596,
              3.09686
            ],
            [
              -74.84824,
              3.14303
            ],
            [
              -74.84503,
              3.18345
            ],
            [
              -74.91257,
              3.28987
            ]
          ]
        ]
      },
      "properties": {
        "code": "41078",
        "departmentCode": "41",
        "name": "BARAYA",
        "originalCode": "078",
        "originalName": "BARAYA",
        "type": "MUNICIPIO",
        "areaName": 785.47926634,
        "creationYear": 2024,
        "creationResolution": "1844",
        "resultType": "observed",
        "source": "dane-divipola-mgn-2025",
        "year": 2025,
        "MPIO_TIPO": "MUNICIPIO",
        "unitType": "municipio",
        "MPIO_NAREA": 785.47926634,
        "MPIO_NANO": 2024,
        "MPIO_CRSLCION": "1844"
      }
    },
    {
      "type": "Feature",
      "id": 2213,
      "geometry": {
        "type": "Polygon",
        "coordinates": [
          [
            [
              -75.33338,
              2.76702
            ],
            [
              -75.33442,
              2.78031
            ],
            [
              -75.36284,
              2.76793
            ],
            [
              -75.39287,
              2.72261
            ],
            [
              -75.40534,
              2.74366
            ],
            [
              -75.43725,
              2.71726
            ],
            [
              -75.43765,
              2.62526
            ],
            [
              -75.38538,
              2.54995
            ],
            [
              -75.37877,
              2.50941
            ],
            [
              -75.34606,
              2.551
            ],
            [
              -75.29814,
              2.56897
            ],
            [
              -75.28157,
              2.60022
            ],
            [
              -75.17162,
              2.68252
            ],
            [
              -75.17196,
              2.70331
            ],
            [
              -75.214,
              2.6909
            ],
            [
              -75.2104,
              2.70298
            ],
            [
              -75.25604,
              2.74663
            ],
            [
              -75.31949,
              2.74049
            ],
            [
              -75.33338,
              2.76702
            ]
          ]
        ]
      },
      "properties": {
        "code": "41132",
        "departmentCode": "41",
        "name": "CAMPOALEGRE",
        "originalCode": "132",
        "originalName": "CAMPOALEGRE",
        "type": "MUNICIPIO",
        "areaName": 462.60528608,
        "creationYear": 2024,
        "creationResolution": "1912",
        "resultType": "observed",
        "source": "dane-divipola-mgn-2025",
        "year": 2025,
        "MPIO_TIPO": "MUNICIPIO",
        "unitType": "municipio",
        "MPIO_NAREA": 462.60528608,
        "MPIO_NANO": 2024,
        "MPIO_CRSLCION": "1912"
      }
    },
    {
      "type": "Feature",
      "id": 2214,
      "geometry": {
        "type": "Polygon",
        "coordinates": [
          [
            [
              -74.51853,
              3.836
            ],
            [
              -74.53474,
              3.84321
            ],
            [
              -74.5576,
              3.76707
            ],
            [
              -74.59078,
              3.72946
            ],
            [
              -74.67538,
              3.67172
            ],
            [
              -74.70098,
              3.61572
            ],
            [
              -74.73835,
              3.59076
            ],
            [
              -74.72863,
              3.55158
            ],
            [
              -74.78072,
              3.50971
            ],
            [
              -74.76451,
              3.44088
            ],
            [
              -74.81635,
              3.40643
            ],
            [
              -74.84849,
              3.34083
            ],
            [
              -74.9092,
              3.29053
            ],
            [
              -74.84503,
              3.18345
            ],
            [
              -74.85217,
              3.14866
            ],
            [
              -74.78375,
              3.0982
            ],
            [
              -74.75094,
              3.10816
            ],
            [
              -74.71302,
              3.16996
            ],
            [
              -74.67326,
              3.18635
            ],
            [
              -74.65658,
              3.24759
            ],
            [
              -74.61633,
              3.2878
            ],
            [
              -74.61787,
              3.33051
            ],
            [
              -74.63984,
              3.36837
            ],
            [
              -74.60567,
              3.41414
            ],
            [
              -74.63053,
              3.4713
            ],
            [
              -74.59067,
              3.52733
            ],
            [
              -74.56648,
              3.52241
            ],
            [
              -74.53739,
              3.55979
            ],
            [
              -74.50286,
              3.64628
            ],
            [
              -74.48243,
              3.66754
            ],
            [
              -74.4645,
              3.66419
            ],
            [
              -74.41331,
              3.72376
            ],
            [
              -74.41779,
              3.74196
            ],
            [
              -74.44212,
              3.73023
            ],
            [
              -74.46345,
              3.7409
            ],
            [
              -74.45023,
              3.81899
            ],
            [
              -74.4902,
              3.81761
            ],
            [
              -74.51853,
              3.836
            ]
          ]
        ]
      },
      "properties": {
        "code": "41206",
        "departmentCode": "41",
        "name": "COLOMBIA",
        "originalCode": "206",
        "originalName": "COLOMBIA",
        "type": "MUNICIPIO",
        "areaName": 1583.62305398,
        "creationYear": 2024,
        "creationResolution": "1886",
        "resultType": "observed",
        "source": "dane-divipola-mgn-2025",
        "year": 2025,
        "MPIO_TIPO": "MUNICIPIO",
        "unitType": "municipio",
        "MPIO_NAREA": 1583.62305398,
        "MPIO_NANO": 2024,
        "MPIO_CRSLCION": "1886"
      }
    },
    {
      "type": "Feature",
      "id": 2215,
      "geometry": {
        "type": "Polygon",
        "coordinates": [
          [
            [
              -75.94098,
              2.04807
            ],
            [
              -75.95866,
              2.0483
            ],
            [
              -76.0059,
              2.00108
            ],
            [
              -76.02612,
              1.9764
            ],
            [
              -76.01843,
              1.95995
            ],
            [
              -75.98713,
              1.95472
            ],
            [
              -75.96019,
              1.98905
            ],
            [
              -75.92118,
              1.98827
            ],
            [
              -75.86249,
              2.0433
            ],
            [
              -75.9191,
              2.03349
            ],
            [
              -75.94098,
              2.04807
            ]
          ]
        ]
      },
      "properties": {
        "code": "41244",
        "departmentCode": "41",
        "name": "ELÍAS",
        "originalCode": "244",
        "originalName": "ELÍAS",
        "type": "MUNICIPIO",
        "areaName": 80.44114384,
        "creationYear": 2024,
        "creationResolution": "1830",
        "resultType": "observed",
        "source": "dane-divipola-mgn-2025",
        "year": 2025,
        "MPIO_TIPO": "MUNICIPIO",
        "unitType": "municipio",
        "MPIO_NAREA": 80.44114384,
        "MPIO_NANO": 2024,
        "MPIO_CRSLCION": "1830"
      }
    },
    {
      "type": "Feature",
      "id": 2216,
      "geometry": {
        "type": "Polygon",
        "coordinates": [
          [
            [
              -75.61566,
              2.31766
            ],
            [
              -75.64785,
              2.30908
            ],
            [
              -75.63558,
              2.28531
            ],
            [
              -75.65215,
              2.26706
            ],
            [
              -75.64724,
              2.22683
            ],
            [
              -75.67045,
              2.21709
            ],
            [
              -75.67696,
              2.19976
            ],
            [
              -75.6614,
              2.18749
            ],
            [
              -75.68838,
              2.16674
            ],
            [
              -75.66849,
              2.14152
            ],
            [
              -75.7001,
              2.11831
            ],
            [
              -75.70816,
              2.08913
            ],
            [
              -75.61133,
              2.00791
            ],
            [
              -75.5879,
              2.01358
            ],
            [
              -75.53498,
              2.11766
            ],
            [
              -75.44236,
              2.14702
            ],
            [
              -75.42627,
              2.18813
            ],
            [
              -75.43864,
              2.22363
            ],
            [
              -75.41041,
              2.24565
            ],
            [
              -75.39054,
              2.29371
            ],
            [
              -75.45956,
              2.26117
            ],
            [
              -75.50457,
              2.26498
            ],
            [
              -75.52328,
              2.25172
            ],
            [
              -75.61566,
              2.31766
            ]
          ]
        ]
      },
      "properties": {
        "code": "41298",
        "departmentCode": "41",
        "name": "GARZÓN",
        "originalCode": "298",
        "originalName": "GARZÓN",
        "type": "MUNICIPIO",
        "areaName": 606.35457875,
        "creationYear": 2024,
        "creationResolution": "1783",
        "resultType": "observed",
        "source": "dane-divipola-mgn-2025",
        "year": 2025,
        "MPIO_TIPO": "MUNICIPIO",
        "unitType": "municipio",
        "MPIO_NAREA": 606.35457875,
        "MPIO_NANO": 2024,
        "MPIO_CRSLCION": "1783"
      }
    },
    {
      "type": "Feature",
      "id": 2217,
      "geometry": {
        "type": "Polygon",
        "coordinates": [
          [
            [
              -75.52383,
              2.51243
            ],
            [
              -75.53616,
              2.53158
            ],
            [
              -75.54284,
              2.49898
            ],
            [
              -75.56975,
              2.48655
            ],
            [
              -75.56366,
              2.44831
            ],
            [
              -75.59988,
              2.41676
            ],
            [
              -75.60838,
              2.38168
            ],
            [
              -75.63833,
              2.38067
            ],
            [
              -75.66523,
              2.34904
            ],
            [
              -75.64001,
              2.33521
            ],
            [
              -75.64659,
              2.31089
            ],
            [
              -75.60641,
              2.31514
            ],
            [
              -75.52641,
              2.25227
            ],
            [
              -75.50104,
              2.26535
            ],
            [
              -75.48355,
              2.25421
            ],
            [
              -75.39574,
              2.29575
            ],
            [
              -75.38643,
              2.31606
            ],
            [
              -75.44508,
              2.38561
            ],
            [
              -75.43541,
              2.46864
            ],
            [
              -75.49592,
              2.48427
            ],
            [
              -75.50526,
              2.50929
            ],
            [
              -75.52383,
              2.51243
            ]
          ]
        ]
      },
      "properties": {
        "code": "41306",
        "departmentCode": "41",
        "name": "GIGANTE",
        "originalCode": "306",
        "originalName": "GIGANTE",
        "type": "MUNICIPIO",
        "areaName": 503.56427139,
        "creationYear": 2024,
        "creationResolution": "1789",
        "resultType": "observed",
        "source": "dane-divipola-mgn-2025",
        "year": 2025,
        "MPIO_TIPO": "MUNICIPIO",
        "unitType": "municipio",
        "MPIO_NAREA": 503.56427139,
        "MPIO_NANO": 2024,
        "MPIO_CRSLCION": "1789"
      }
    },
    {
      "type": "Feature",
      "id": 2218,
      "geometry": {
        "type": "Polygon",
        "coordinates": [
          [
            [
              -75.70495,
              2.08465
            ],
            [
              -75.74881,
              2.03335
            ],
            [
              -75.77508,
              2.02831
            ],
            [
              -75.79076,
              1.99651
            ],
            [
              -75.7655,
              1.94769
            ],
            [
              -75.72409,
              1.93822
            ],
            [
              -75.68815,
              1.88072
            ],
            [
              -75.65176,
              1.90105
            ],
            [
              -75.64104,
              1.95803
            ],
            [
              -75.5877,
              2.01236
            ],
            [
              -75.61485,
              2.00878
            ],
            [
              -75.70495,
              2.08465
            ]
          ]
        ]
      },
      "properties": {
        "code": "41319",
        "departmentCode": "41",
        "name": "GUADALUPE",
        "originalCode": "319",
        "originalName": "GUADALUPE",
        "type": "MUNICIPIO",
        "areaName": 249.56357746,
        "creationYear": 2024,
        "creationResolution": "Ordenanza 02, y sancionado según Decreto 476 de 1964",
        "resultType": "observed",
        "source": "dane-divipola-mgn-2025",
        "year": 2025,
        "MPIO_TIPO": "MUNICIPIO",
        "unitType": "municipio",
        "MPIO_NAREA": 249.56357746,
        "MPIO_NANO": 2024,
        "MPIO_CRSLCION": "Ordenanza 02, y sancionado según Decreto 476 de 1964"
      }
    },
    {
      "type": "Feature",
      "id": 2219,
      "geometry": {
        "type": "Polygon",
        "coordinates": [
          [
            [
              -75.44193,
              2.67707
            ],
            [
              -75.45353,
              2.64981
            ],
            [
              -75.44416,
              2.63839
            ],
            [
              -75.46617,
              2.63152
            ],
            [
              -75.48137,
              2.59981
            ],
            [
              -75.47596,
              2.57745
            ],
            [
              -75.4936,
              2.5803
            ],
            [
              -75.49854,
              2.54979
            ],
            [
              -75.53081,
              2.5441
            ],
            [
              -75.52706,
              2.51548
            ],
            [
              -75.50526,
              2.50929
            ],
            [
              -75.49592,
              2.48427
            ],
            [
              -75.43892,
              2.4715
            ],
            [
              -75.4289,
              2.45184
            ],
            [
              -75.37818,
              2.51127
            ],
            [
              -75.38538,
              2.54995
            ],
            [
              -75.43765,
              2.62526
            ],
            [
              -75.44193,
              2.67707
            ]
          ]
        ]
      },
      "properties": {
        "code": "41349",
        "departmentCode": "41",
        "name": "HOBO",
        "originalCode": "349",
        "originalName": "HOBO",
        "type": "MUNICIPIO",
        "areaName": 194.1671999,
        "creationYear": 2024,
        "creationResolution": "1884",
        "resultType": "observed",
        "source": "dane-divipola-mgn-2025",
        "year": 2025,
        "MPIO_TIPO": "MUNICIPIO",
        "unitType": "municipio",
        "MPIO_NAREA": 194.1671999,
        "MPIO_NANO": 2024,
        "MPIO_CRSLCION": "1884"
      }
    },
    {
      "type": "Feature",
      "id": 2220,
      "geometry": {
        "type": "Polygon",
        "coordinates": [
          [
            [
              -75.67548,
              2.79714
            ],
            [
              -75.8118,
              2.77904
            ],
            [
              -75.7512,
              2.74249
            ],
            [
              -75.76081,
              2.67898
            ],
            [
              -75.72306,
              2.66353
            ],
            [
              -75.72124,
              2.63215
            ],
            [
              -75.69996,
              2.62268
            ],
            [
              -75.65644,
              2.64508
            ],
            [
              -75.64549,
              2.63506
            ],
            [
              -75.64194,
              2.54227
            ],
            [
              -75.60346,
              2.53387
            ],
            [
              -75.58433,
              2.54905
            ],
            [
              -75.58768,
              2.68373
            ],
            [
              -75.61583,
              2.69401
            ],
            [
              -75.63965,
              2.78991
            ],
            [
              -75.67548,
              2.79714
            ]
          ]
        ]
      },
      "properties": {
        "code": "41357",
        "departmentCode": "41",
        "name": "ÍQUIRA",
        "originalCode": "357",
        "originalName": "ÍQUIRA",
        "type": "MUNICIPIO",
        "areaName": 356.44701796,
        "creationYear": 2024,
        "creationResolution": "1887",
        "resultType": "observed",
        "source": "dane-divipola-mgn-2025",
        "year": 2025,
        "MPIO_TIPO": "MUNICIPIO",
        "unitType": "municipio",
        "MPIO_NAREA": 356.44701796,
        "MPIO_NANO": 2024,
        "MPIO_CRSLCION": "1887"
      }
    },
    {
      "type": "Feature",
      "id": 2221,
      "geometry": {
        "type": "Polygon",
        "coordinates": [
          [
            [
              -76.37725,
              2.21414
            ],
            [
              -76.36845,
              2.27909
            ],
            [
              -76.4261,
              2.17871
            ],
            [
              -76.38281,
              2.11387
            ],
            [
              -76.37896,
              2.07677
            ],
            [
              -76.27409,
              2.01082
            ],
            [
              -76.28259,
              1.93128
            ],
            [
              -76.22774,
              1.85463
            ],
            [
              -76.16796,
              1.86656
            ],
            [
              -76.15137,
              1.91675
            ],
            [
              -76.1007,
              1.93784
            ],
            [
              -76.16046,
              1.96262
            ],
            [
              -76.13223,
              1.99687
            ],
            [
              -76.34563,
              2.08514
            ],
            [
              -76.37919,
              2.15138
            ],
            [
              -76.36495,
              2.16966
            ],
            [
              -76.37725,
              2.21414
            ]
          ]
        ]
      },
      "properties": {
        "code": "41359",
        "departmentCode": "41",
        "name": "ISNOS",
        "originalCode": "359",
        "originalName": "ISNOS",
        "type": "MUNICIPIO",
        "areaName": 370.7286939,
        "creationYear": 2024,
        "creationResolution": "Ordenanza 24 de Diciembre 6 de 1958",
        "resultType": "observed",
        "source": "dane-divipola-mgn-2025",
        "year": 2025,
        "MPIO_TIPO": "MUNICIPIO",
        "unitType": "municipio",
        "MPIO_NAREA": 370.7286939,
        "MPIO_NANO": 2024,
        "MPIO_CRSLCION": "Ordenanza 24 de Diciembre 6 de 1958"
      }
    },
    {
      "type": "Feature",
      "id": 2222,
      "geometry": {
        "type": "Polygon",
        "coordinates": [
          [
            [
              -76.29833,
              2.28166
            ],
            [
              -76.36048,
              2.2707
            ],
            [
              -76.31453,
              2.21181
            ],
            [
              -76.22087,
              2.16787
            ],
            [
              -76.1681,
              2.11091
            ],
            [
              -76.12856,
              2.12971
            ],
            [
              -76.10389,
              2.09707
            ],
            [
              -76.05759,
              2.09046
            ],
            [
              -76.0274,
              2.09591
            ],
            [
              -75.97309,
              2.14403
            ],
            [
              -75.97715,
              2.16363
            ],
            [
              -75.91377,
              2.20552
            ],
            [
              -75.91985,
              2.21825
            ],
            [
              -75.8889,
              2.26034
            ],
            [
              -75.92888,
              2.2511
            ],
            [
              -75.96095,
              2.21608
            ],
            [
              -75.97382,
              2.24114
            ],
            [
              -76.01608,
              2.18948
            ],
            [
              -76.12127,
              2.18291
            ],
            [
              -76.16094,
              2.15146
            ],
            [
              -76.29833,
              2.28166
            ]
          ]
        ]
      },
      "properties": {
        "code": "41378",
        "departmentCode": "41",
        "name": "LA ARGENTINA",
        "originalCode": "378",
        "originalName": "LA ARGENTINA",
        "type": "MUNICIPIO",
        "areaName": 356.45765858,
        "creationYear": 2024,
        "creationResolution": "Ordenanza 36 del 2 de Diciembre de 1959",
        "resultType": "observed",
        "source": "dane-divipola-mgn-2025",
        "year": 2025,
        "MPIO_TIPO": "MUNICIPIO",
        "unitType": "municipio",
        "MPIO_NAREA": 356.45765858,
        "MPIO_NANO": 2024,
        "MPIO_CRSLCION": "Ordenanza 36 del 2 de Diciembre de 1959"
      }
    },
    {
      "type": "Feature",
      "id": 2223,
      "geometry": {
        "type": "Polygon",
        "coordinates": [
          [
            [
              -75.97459,
              2.50222
            ],
            [
              -76.01981,
              2.44736
            ],
            [
              -76.03254,
              2.40263
            ],
            [
              -76.08925,
              2.41592
            ],
            [
              -76.12022,
              2.39053
            ],
            [
              -76.14645,
              2.29402
            ],
            [
              -76.12114,
              2.22481
            ],
            [
              -76.15362,
              2.19877
            ],
            [
              -76.20821,
              2.198
            ],
            [
              -76.18161,
              2.15732
            ],
            [
              -76.14671,
              2.15277
            ],
            [
              -76.12167,
              2.1828
            ],
            [
              -76.07508,
              2.19273
            ],
            [
              -76.01608,
              2.18948
            ],
            [
              -75.97382,
              2.24114
            ],
            [
              -75.95912,
              2.21655
            ],
            [
              -75.92888,
              2.2511
            ],
            [
              -75.8889,
              2.26034
            ],
            [
              -75.90864,
              2.27239
            ],
            [
              -75.89653,
              2.3141
            ],
            [
              -75.87619,
              2.30793
            ],
            [
              -75.84073,
              2.32768
            ],
            [
              -75.81633,
              2.42164
            ],
            [
              -75.84129,
              2.45913
            ],
            [
              -75.86348,
              2.42635
            ],
            [
              -75.8875,
              2.42511
            ],
            [
              -75.924,
              2.48123
            ],
            [
              -75.97459,
              2.50222
            ]
          ]
        ]
      },
      "properties": {
        "code": "41396",
        "departmentCode": "41",
        "name": "LA PLATA",
        "originalCode": "396",
        "originalName": "LA PLATA",
        "type": "MUNICIPIO",
        "areaName": 814.67135451,
        "creationYear": 2024,
        "creationResolution": "Ordenanza 25 de 1825",
        "resultType": "observed",
        "source": "dane-divipola-mgn-2025",
        "year": 2025,
        "MPIO_TIPO": "MUNICIPIO",
        "unitType": "municipio",
        "MPIO_NAREA": 814.67135451,
        "MPIO_NANO": 2024,
        "MPIO_CRSLCION": "Ordenanza 25 de 1825"
      }
    },
    {
      "type": "Feature",
      "id": 2224,
      "geometry": {
        "type": "Polygon",
        "coordinates": [
          [
            [
              -75.76081,
              2.67898
            ],
            [
              -75.78909,
              2.6582
            ],
            [
              -75.79102,
              2.6304
            ],
            [
              -75.83997,
              2.55922
            ],
            [
              -75.82211,
              2.49251
            ],
            [
              -75.80295,
              2.47523
            ],
            [
              -75.7694,
              2.50925
            ],
            [
              -75.75937,
              2.58587
            ],
            [
              -75.73559,
              2.58854
            ],
            [
              -75.76082,
              2.6204
            ],
            [
              -75.73076,
              2.66626
            ],
            [
              -75.76081,
              2.67898
            ]
          ]
        ]
      },
      "properties": {
        "code": "41483",
        "departmentCode": "41",
        "name": "NÁTAGA",
        "originalCode": "483",
        "originalName": "NÁTAGA",
        "type": "MUNICIPIO",
        "areaName": 131.92458585,
        "creationYear": 2024,
        "creationResolution": "Ordenanza 25 del 27 de Noviembre de 1967",
        "resultType": "observed",
        "source": "dane-divipola-mgn-2025",
        "year": 2025,
        "MPIO_TIPO": "MUNICIPIO",
        "unitType": "municipio",
        "MPIO_NAREA": 131.92458585,
        "MPIO_NANO": 2024,
        "MPIO_CRSLCION": "Ordenanza 25 del 27 de Noviembre de 1967"
      }
    },
    {
      "type": "Feature",
      "id": 2225,
      "geometry": {
        "type": "Polygon",
        "coordinates": [
          [
            [
              -76.11391,
              2.11077
            ],
            [
              -76.12856,
              2.12971
            ],
            [
              -76.15023,
              2.11808
            ],
            [
              -76.10895,
              2.08919
            ],
            [
              -76.11501,
              2.05206
            ],
            [
              -76.09647,
              2.01865
            ],
            [
              -76.07086,
              2.0278
            ],
            [
              -76.00092,
              2.00038
            ],
            [
              -75.96246,
              2.03464
            ],
            [
              -75.97955,
              2.06612
            ],
            [
              -75.97286,
              2.11004
            ],
            [
              -76.00629,
              2.11468
            ],
            [
              -76.05759,
              2.09046
            ],
            [
              -76.11391,
              2.11077
            ]
          ]
        ]
      },
      "properties": {
        "code": "41503",
        "departmentCode": "41",
        "name": "OPORAPA",
        "originalCode": "503",
        "originalName": "OPORAPA",
        "type": "MUNICIPIO",
        "areaName": 155.82072211,
        "creationYear": 2024,
        "creationResolution": "Ordenanza 10 del 18 de Noviembre de 1963",
        "resultType": "observed",
        "source": "dane-divipola-mgn-2025",
        "year": 2025,
        "MPIO_TIPO": "MUNICIPIO",
        "unitType": "municipio",
        "MPIO_NAREA": 155.82072211,
        "MPIO_NANO": 2024,
        "MPIO_CRSLCION": "Ordenanza 10 del 18 de Noviembre de 1963"
      }
    },
    {
      "type": "Feature",
      "id": 2226,
      "geometry": {
        "type": "Polygon",
        "coordinates": [
          [
            [
              -75.81117,
              2.48388
            ],
            [
              -75.8431,
              2.46634
            ],
            [
              -75.84282,
              2.44842
            ],
            [
              -75.81654,
              2.4245
            ],
            [
              -75.83104,
              2.35476
            ],
            [
              -75.79982,
              2.32754
            ],
            [
              -75.78175,
              2.32616
            ],
            [
              -75.78055,
              2.3639
            ],
            [
              -75.72206,
              2.35995
            ],
            [
              -75.68415,
              2.3254
            ],
            [
              -75.68129,
              2.34643
            ],
            [
              -75.64582,
              2.37601
            ],
            [
              -75.61509,
              2.3741
            ],
            [
              -75.59988,
              2.41676
            ],
            [
              -75.56366,
              2.44831
            ],
            [
              -75.56871,
              2.46231
            ],
            [
              -75.57911,
              2.44708
            ],
            [
              -75.59229,
              2.45807
            ],
            [
              -75.63667,
              2.42249
            ],
            [
              -75.63745,
              2.44168
            ],
            [
              -75.65714,
              2.43146
            ],
            [
              -75.67434,
              2.46045
            ],
            [
              -75.71417,
              2.44272
            ],
            [
              -75.81117,
              2.48388
            ]
          ]
        ]
      },
      "properties": {
        "code": "41518",
        "departmentCode": "41",
        "name": "PAICOL",
        "originalCode": "518",
        "originalName": "PAICOL",
        "type": "MUNICIPIO",
        "areaName": 278.26742359,
        "creationYear": 2024,
        "creationResolution": "1810",
        "resultType": "observed",
        "source": "dane-divipola-mgn-2025",
        "year": 2025,
        "MPIO_TIPO": "MUNICIPIO",
        "unitType": "municipio",
        "MPIO_NAREA": 278.26742359,
        "MPIO_NANO": 2024,
        "MPIO_CRSLCION": "1810"
      }
    },
    {
      "type": "Feature",
      "id": 2227,
      "geometry": {
        "type": "Polygon",
        "coordinates": [
          [
            [
              -75.53966,
              3.07531
            ],
            [
              -75.55781,
              3.10437
            ],
            [
              -75.57603,
              3.0964
            ],
            [
              -75.61382,
              3.02351
            ],
            [
              -75.57704,
              2.97879
            ],
            [
              -75.50491,
              2.972
            ],
            [
              -75.49455,
              2.95744
            ],
            [
              -75.54465,
              2.88205
            ],
            [
              -75.59971,
              2.8899
            ],
            [
              -75.6217,
              2.87822
            ],
            [
              -75.62224,
              2.85334
            ],
            [
              -75.58663,
              2.84404
            ],
            [
              -75.57595,
              2.81371
            ],
            [
              -75.54706,
              2.83088
            ],
            [
              -75.51782,
              2.82321
            ],
            [
              -75.5166,
              2.80117
            ],
            [
              -75.49464,
              2.80422
            ],
            [
              -75.49827,
              2.76722
            ],
            [
              -75.43707,
              2.77533
            ],
            [
              -75.42826,
              2.73225
            ],
            [
              -75.40464,
              2.74356
            ],
            [
              -75.39287,
              2.72261
            ],
            [
              -75.36424,
              2.76671
            ],
            [
              -75.33577,
              2.77834
            ],
            [
              -75.2979,
              2.84322
            ],
            [
              -75.30059,
              2.97116
            ],
            [
              -75.31606,
              2.96995
            ],
            [
              -75.33893,
              3.04157
            ],
            [
              -75.40321,
              3.05205
            ],
            [
              -75.39836,
              3.07278
            ],
            [
              -75.42501,
              3.09676
            ],
            [
              -75.46324,
              3.02115
            ],
            [
              -75.53143,
              3.0377
            ],
            [
              -75.52346,
              3.0686
            ],
            [
              -75.53966,
              3.07531
            ]
          ]
        ]
      },
      "properties": {
        "code": "41524",
        "departmentCode": "41",
        "name": "PALERMO",
        "originalCode": "524",
        "originalName": "PALERMO",
        "type": "MUNICIPIO",
        "areaName": 883.95689021,
        "creationYear": 2024,
        "creationResolution": "1774",
        "resultType": "observed",
        "source": "dane-divipola-mgn-2025",
        "year": 2025,
        "MPIO_TIPO": "MUNICIPIO",
        "unitType": "municipio",
        "MPIO_NAREA": 883.95689021,
        "MPIO_NANO": 2024,
        "MPIO_CRSLCION": "1774"
      }
    },
    {
      "type": "Feature",
      "id": 2228,
      "geometry": {
        "type": "Polygon",
        "coordinates": [
          [
            [
              -76.11218,
              1.77544
            ],
            [
              -76.13924,
              1.76694
            ],
            [
              -76.18432,
              1.6918
            ],
            [
              -76.2277,
              1.66306
            ],
            [
              -76.19146,
              1.57192
            ],
            [
              -76.10099,
              1.64117
            ],
            [
              -76.12527,
              1.65051
            ],
            [
              -76.10294,
              1.67691
            ],
            [
              -76.11596,
              1.69276
            ],
            [
              -76.05779,
              1.73798
            ],
            [
              -76.06733,
              1.76762
            ],
            [
              -76.11218,
              1.77544
            ]
          ]
        ]
      },
      "properties": {
        "code": "41530",
        "departmentCode": "41",
        "name": "PALESTINA",
        "originalCode": "530",
        "originalName": "PALESTINA",
        "type": "MUNICIPIO",
        "areaName": 196.96122927,
        "creationYear": 2024,
        "creationResolution": "Ordenanza 002 de Noviembre de 1984",
        "resultType": "observed",
        "source": "dane-divipola-mgn-2025",
        "year": 2025,
        "MPIO_TIPO": "MUNICIPIO",
        "unitType": "municipio",
        "MPIO_NAREA": 196.96122927,
        "MPIO_NANO": 2024,
        "MPIO_CRSLCION": "Ordenanza 002 de Noviembre de 1984"
      }
    },
    {
      "type": "Feature",
      "id": 2229,
      "geometry": {
        "type": "Polygon",
        "coordinates": [
          [
            [
              -75.82627,
              2.35319
            ],
            [
              -75.87048,
              2.30965
            ],
            [
              -75.89774,
              2.31261
            ],
            [
              -75.90864,
              2.27239
            ],
            [
              -75.88888,
              2.2604
            ],
            [
              -75.91931,
              2.21277
            ],
            [
              -75.89606,
              2.20085
            ],
            [
              -75.87316,
              2.2207
            ],
            [
              -75.81822,
              2.19319
            ],
            [
              -75.78688,
              2.20038
            ],
            [
              -75.72959,
              2.16319
            ],
            [
              -75.78992,
              2.22724
            ],
            [
              -75.73281,
              2.23284
            ],
            [
              -75.7794,
              2.23519
            ],
            [
              -75.79853,
              2.31265
            ],
            [
              -75.78205,
              2.32596
            ],
            [
              -75.82627,
              2.35319
            ]
          ]
        ]
      },
      "properties": {
        "code": "41548",
        "departmentCode": "41",
        "name": "PITAL",
        "originalCode": "548",
        "originalName": "PITAL",
        "type": "MUNICIPIO",
        "areaName": 193.6432746,
        "creationYear": 2024,
        "creationResolution": "1780",
        "resultType": "observed",
        "source": "dane-divipola-mgn-2025",
        "year": 2025,
        "MPIO_TIPO": "MUNICIPIO",
        "unitType": "municipio",
        "MPIO_NAREA": 193.6432746,
        "MPIO_NANO": 2024,
        "MPIO_CRSLCION": "1780"
      }
    },
    {
      "type": "Feature",
      "id": 2230,
      "geometry": {
        "type": "Polygon",
        "coordinates": [
          [
            [
              -76.12712,
              1.99672
            ],
            [
              -76.16123,
              1.96419
            ],
            [
              -76.1007,
              1.93784
            ],
            [
              -76.15137,
              1.91675
            ],
            [
              -76.1668,
              1.8676
            ],
            [
              -76.20024,
              1.85843
            ],
            [
              -76.19744,
              1.83627
            ],
            [
              -76.25224,
              1.74661
            ],
            [
              -76.32066,
              1.71255
            ],
            [
              -76.31618,
              1.68438
            ],
            [
              -76.24234,
              1.68312
            ],
            [
              -76.22641,
              1.66468
            ],
            [
              -76.18432,
              1.6918
            ],
            [
              -76.13783,
              1.76818
            ],
            [
              -76.06733,
              1.76762
            ],
            [
              -76.05441,
              1.73544
            ],
            [
              -76.0091,
              1.76458
            ],
            [
              -76.01393,
              1.7838
            ],
            [
              -75.96224,
              1.85191
            ],
            [
              -75.99675,
              1.90446
            ],
            [
              -75.98682,
              1.95874
            ],
            [
              -76.01821,
              1.95982
            ],
            [
              -76.02486,
              1.97695
            ],
            [
              -76.05201,
              1.95976
            ],
            [
              -76.12712,
              1.99672
            ]
          ]
        ]
      },
      "properties": {
        "code": "41551",
        "departmentCode": "41",
        "name": "PITALITO",
        "originalCode": "551",
        "originalName": "PITALITO",
        "type": "MUNICIPIO",
        "areaName": 630.73166155,
        "creationYear": 2024,
        "creationResolution": "1818",
        "resultType": "observed",
        "source": "dane-divipola-mgn-2025",
        "year": 2025,
        "MPIO_TIPO": "MUNICIPIO",
        "unitType": "municipio",
        "MPIO_NAREA": 630.73166155,
        "MPIO_NANO": 2024,
        "MPIO_CRSLCION": "1818"
      }
    },
    {
      "type": "Feature",
      "id": 2231,
      "geometry": {
        "type": "Polygon",
        "coordinates": [
          [
            [
              -75.28655,
              2.86508
            ],
            [
              -75.33474,
              2.78926
            ],
            [
              -75.3196,
              2.74056
            ],
            [
              -75.25604,
              2.74663
            ],
            [
              -75.2104,
              2.70298
            ],
            [
              -75.214,
              2.6909
            ],
            [
              -75.15662,
              2.70495
            ],
            [
              -75.13525,
              2.74963
            ],
            [
              -75.16701,
              2.76533
            ],
            [
              -75.16064,
              2.80838
            ],
            [
              -75.20119,
              2.83187
            ],
            [
              -75.21628,
              2.861
            ],
            [
              -75.28655,
              2.86508
            ]
          ]
        ]
      },
      "properties": {
        "code": "41615",
        "departmentCode": "41",
        "name": "RIVERA",
        "originalCode": "615",
        "originalName": "RIVERA",
        "type": "MUNICIPIO",
        "areaName": 251.10959736,
        "creationYear": 2024,
        "creationResolution": "1888",
        "resultType": "observed",
        "source": "dane-divipola-mgn-2025",
        "year": 2025,
        "MPIO_TIPO": "MUNICIPIO",
        "unitType": "municipio",
        "MPIO_NAREA": 251.10959736,
        "MPIO_NANO": 2024,
        "MPIO_CRSLCION": "1888"
      }
    },
    {
      "type": "Feature",
      "id": 2232,
      "geometry": {
        "type": "Polygon",
        "coordinates": [
          [
            [
              -76.31453,
              2.21358
            ],
            [
              -76.36048,
              2.2707
            ],
            [
              -76.38466,
              2.21028
            ],
            [
              -76.36506,
              2.1714
            ],
            [
              -76.37919,
              2.15138
            ],
            [
              -76.34309,
              2.08314
            ],
            [
              -76.05201,
              1.95976
            ],
            [
              -76.0067,
              1.98974
            ],
            [
              -76.00784,
              2.00303
            ],
            [
              -76.06807,
              2.02707
            ],
            [
              -76.09657,
              2.01871
            ],
            [
              -76.1253,
              2.10941
            ],
            [
              -76.1681,
              2.11091
            ],
            [
              -76.22087,
              2.16787
            ],
            [
              -76.31453,
              2.21358
            ]
          ]
        ]
      },
      "properties": {
        "code": "41660",
        "departmentCode": "41",
        "name": "SALADOBLANCO",
        "originalCode": "660",
        "originalName": "SALADOBLANCO",
        "type": "MUNICIPIO",
        "areaName": 466.72716475,
        "creationYear": 2024,
        "creationResolution": "Ordenanza 10 del 14 de diciembre de 1948",
        "resultType": "observed",
        "source": "dane-divipola-mgn-2025",
        "year": 2025,
        "MPIO_TIPO": "MUNICIPIO",
        "unitType": "municipio",
        "MPIO_NAREA": 466.72716475,
        "MPIO_NANO": 2024,
        "MPIO_CRSLCION": "Ordenanza 10 del 14 de diciembre de 1948"
      }
    },
    {
      "type": "Feature",
      "id": 2233,
      "geometry": {
        "type": "Polygon",
        "coordinates": [
          [
            [
              -76.421,
              2.16555
            ],
            [
              -76.41948,
              2.19181
            ],
            [
              -76.43674,
              2.17792
            ],
            [
              -76.42474,
              2.12888
            ],
            [
              -76.46639,
              2.10026
            ],
            [
              -76.48742,
              2.12906
            ],
            [
              -76.55292,
              2.13972
            ],
            [
              -76.59017,
              2.10808
            ],
            [
              -76.58606,
              2.03464
            ],
            [
              -76.57251,
              2.01974
            ],
            [
              -76.62426,
              1.97385
            ],
            [
              -76.61046,
              1.94673
            ],
            [
              -76.61967,
              1.92813
            ],
            [
              -76.57872,
              1.89873
            ],
            [
              -76.59031,
              1.86816
            ],
            [
              -76.55731,
              1.83916
            ],
            [
              -76.53045,
              1.82354
            ],
            [
              -76.48878,
              1.82581
            ],
            [
              -76.43513,
              1.7918
            ],
            [
              -76.41949,
              1.71777
            ],
            [
              -76.37191,
              1.74252
            ],
            [
              -76.38192,
              1.66768
            ],
            [
              -76.3256,
              1.66309
            ],
            [
              -76.32066,
              1.71255
            ],
            [
              -76.25224,
              1.74661
            ],
            [
              -76.19457,
              1.86247
            ],
            [
              -76.22714,
              1.85407
            ],
            [
              -76.23018,
              1.87259
            ],
            [
              -76.25979,
              1.89046
            ],
            [
              -76.28264,
              1.93152
            ],
            [
              -76.27409,
              2.01082
            ],
            [
              -76.37839,
              2.07606
            ],
            [
              -76.38281,
              2.11387
            ],
            [
              -76.421,
              2.16555
            ]
          ]
        ]
      },
      "properties": {
        "code": "41668",
        "departmentCode": "41",
        "name": "SAN AGUSTÍN",
        "originalCode": "668",
        "originalName": "SAN AGUSTÍN",
        "type": "MUNICIPIO",
        "areaName": 1390.85045984,
        "creationYear": 2024,
        "creationResolution": "Ordenanza 24 del 8 de Abril de 1926",
        "resultType": "observed",
        "source": "dane-divipola-mgn-2025",
        "year": 2025,
        "MPIO_TIPO": "MUNICIPIO",
        "unitType": "municipio",
        "MPIO_NAREA": 1390.85045984,
        "MPIO_NANO": 2024,
        "MPIO_CRSLCION": "Ordenanza 24 del 8 de Abril de 1926"
      }
    },
    {
      "type": "Feature",
      "id": 2234,
      "geometry": {
        "type": "Polygon",
        "coordinates": [
          [
            [
              -75.58269,
              2.99423
            ],
            [
              -75.61027,
              3.02445
            ],
            [
              -75.63551,
              2.99412
            ],
            [
              -75.69321,
              2.99339
            ],
            [
              -75.70271,
              2.96997
            ],
            [
              -75.7615,
              2.94232
            ],
            [
              -75.76755,
              2.91529
            ],
            [
              -75.72844,
              2.90104
            ],
            [
              -75.68674,
              2.83267
            ],
            [
              -75.63995,
              2.82392
            ],
            [
              -75.61859,
              2.85001
            ],
            [
              -75.6217,
              2.87822
            ],
            [
              -75.58527,
              2.89236
            ],
            [
              -75.54699,
              2.88043
            ],
            [
              -75.49452,
              2.95752
            ],
            [
              -75.50491,
              2.972
            ],
            [
              -75.57704,
              2.97879
            ],
            [
              -75.58269,
              2.99423
            ]
          ]
        ]
      },
      "properties": {
        "code": "41676",
        "departmentCode": "41",
        "name": "SANTA MARÍA",
        "originalCode": "676",
        "originalName": "SANTA MARÍA",
        "type": "MUNICIPIO",
        "areaName": 339.30521757,
        "creationYear": 2024,
        "creationResolution": "Ordenanza 6 del 26 de Noviembre de 1965",
        "resultType": "observed",
        "source": "dane-divipola-mgn-2025",
        "year": 2025,
        "MPIO_TIPO": "MUNICIPIO",
        "unitType": "municipio",
        "MPIO_NAREA": 339.30521757,
        "MPIO_NANO": 2024,
        "MPIO_CRSLCION": "Ordenanza 6 del 26 de Noviembre de 1965"
      }
    },
    {
      "type": "Feature",
      "id": 2235,
      "geometry": {
        "type": "Polygon",
        "coordinates": [
          [
            [
              -75.82093,
              1.99762
            ],
            [
              -75.84191,
              1.97427
            ],
            [
              -75.83462,
              1.96284
            ],
            [
              -75.88657,
              1.93774
            ],
            [
              -75.95088,
              1.85677
            ],
            [
              -75.87765,
              1.84763
            ],
            [
              -75.83728,
              1.74023
            ],
            [
              -75.73715,
              1.78246
            ],
            [
              -75.73067,
              1.82335
            ],
            [
              -75.68815,
              1.88072
            ],
            [
              -75.72409,
              1.93822
            ],
            [
              -75.7655,
              1.94769
            ],
            [
              -75.78025,
              1.98584
            ],
            [
              -75.82093,
              1.99762
            ]
          ]
        ]
      },
      "properties": {
        "code": "41770",
        "departmentCode": "41",
        "name": "SUAZA",
        "originalCode": "770",
        "originalName": "SUAZA",
        "type": "MUNICIPIO",
        "areaName": 429.62347226,
        "creationYear": 2024,
        "creationResolution": "1842",
        "resultType": "observed",
        "source": "dane-divipola-mgn-2025",
        "year": 2025,
        "MPIO_TIPO": "MUNICIPIO",
        "unitType": "municipio",
        "MPIO_NAREA": 429.62347226,
        "MPIO_NANO": 2024,
        "MPIO_CRSLCION": "1842"
      }
    },
    {
      "type": "Feature",
      "id": 2236,
      "geometry": {
        "type": "Polygon",
        "coordinates": [
          [
            [
              -75.87243,
              2.21972
            ],
            [
              -75.97152,
              2.17024
            ],
            [
              -75.97309,
              2.14403
            ],
            [
              -76.00629,
              2.11468
            ],
            [
              -75.97037,
              2.10712
            ],
            [
              -75.97955,
              2.06612
            ],
            [
              -75.96285,
              2.04129
            ],
            [
              -75.85967,
              2.04239
            ],
            [
              -75.83996,
              2.08645
            ],
            [
              -75.79484,
              2.12053
            ],
            [
              -75.76731,
              2.10671
            ],
            [
              -75.74329,
              2.12146
            ],
            [
              -75.73349,
              2.16147
            ],
            [
              -75.76458,
              2.18893
            ],
            [
              -75.81822,
              2.19319
            ],
            [
              -75.87243,
              2.21972
            ]
          ]
        ]
      },
      "properties": {
        "code": "41791",
        "departmentCode": "41",
        "name": "TARQUI",
        "originalCode": "791",
        "originalName": "TARQUI",
        "type": "MUNICIPIO",
        "areaName": 362.79091684,
        "creationYear": 2024,
        "creationResolution": "1757",
        "resultType": "observed",
        "source": "dane-divipola-mgn-2025",
        "year": 2025,
        "MPIO_TIPO": "MUNICIPIO",
        "unitType": "municipio",
        "MPIO_NAREA": 362.79091684,
        "MPIO_NANO": 2024,
        "MPIO_CRSLCION": "1757"
      }
    },
    {
      "type": "Feature",
      "id": 2237,
      "geometry": {
        "type": "Polygon",
        "coordinates": [
          [
            [
              -75.72008,
              2.63147
            ],
            [
              -75.73076,
              2.66626
            ],
            [
              -75.76082,
              2.6204
            ],
            [
              -75.73559,
              2.58854
            ],
            [
              -75.76862,
              2.56937
            ],
            [
              -75.76624,
              2.51885
            ],
            [
              -75.79492,
              2.47566
            ],
            [
              -75.71417,
              2.44272
            ],
            [
              -75.67434,
              2.46045
            ],
            [
              -75.65714,
              2.43146
            ],
            [
              -75.63745,
              2.44168
            ],
            [
              -75.63667,
              2.42249
            ],
            [
              -75.59229,
              2.45807
            ],
            [
              -75.57841,
              2.44725
            ],
            [
              -75.55833,
              2.46912
            ],
            [
              -75.58433,
              2.54905
            ],
            [
              -75.60364,
              2.53383
            ],
            [
              -75.64194,
              2.54227
            ],
            [
              -75.64549,
              2.63506
            ],
            [
              -75.65644,
              2.64508
            ],
            [
              -75.69996,
              2.62268
            ],
            [
              -75.72008,
              2.63147
            ]
          ]
        ]
      },
      "properties": {
        "code": "41797",
        "departmentCode": "41",
        "name": "TESALIA",
        "originalCode": "797",
        "originalName": "TESALIA",
        "type": "MUNICIPIO",
        "areaName": 366.95722576000003,
        "creationYear": 2024,
        "creationResolution": "1887",
        "resultType": "observed",
        "source": "dane-divipola-mgn-2025",
        "year": 2025,
        "MPIO_TIPO": "MUNICIPIO",
        "unitType": "municipio",
        "MPIO_NAREA": 366.95722576000003,
        "MPIO_NANO": 2024,
        "MPIO_CRSLCION": "1887"
      }
    },
    {
      "type": "Feature",
      "id": 2238,
      "geometry": {
        "type": "Polygon",
        "coordinates": [
          [
            [
              -75.03801,
              2.94344
            ],
            [
              -74.97067,
              2.93395
            ],
            [
              -74.97088,
              2.89839
            ],
            [
              -74.94464,
              2.89678
            ],
            [
              -74.90246,
              2.95169
            ],
            [
              -74.94097,
              2.97828
            ],
            [
              -74.9341,
              3.03904
            ],
            [
              -74.98884,
              3.06955
            ],
            [
              -75.03368,
              3.07382
            ],
            [
              -75.06149,
              3.09804
            ],
            [
              -75.10012,
              3.06848
            ],
            [
              -75.18252,
              3.16192
            ],
            [
              -75.21437,
              3.1656
            ],
            [
              -75.22019,
              3.18323
            ],
            [
              -75.2285,
              3.13317
            ],
            [
              -75.26604,
              3.1396
            ],
            [
              -75.26172,
              3.09156
            ],
            [
              -75.23232,
              3.06575
            ],
            [
              -75.25049,
              3.04003
            ],
            [
              -75.1771,
              2.99296
            ],
            [
              -75.11548,
              2.99806
            ],
            [
              -75.09878,
              2.94134
            ],
            [
              -75.06577,
              2.95268
            ],
            [
              -75.03801,
              2.94344
            ]
          ]
        ]
      },
      "properties": {
        "code": "41799",
        "departmentCode": "41",
        "name": "TELLO",
        "originalCode": "799",
        "originalName": "TELLO",
        "type": "MUNICIPIO",
        "areaName": 530.12226769,
        "creationYear": 2025,
        "creationResolution": "1836",
        "resultType": "observed",
        "source": "dane-divipola-mgn-2025",
        "year": 2025,
        "MPIO_TIPO": "MUNICIPIO",
        "unitType": "municipio",
        "MPIO_NAREA": 530.12226769,
        "MPIO_NANO": 2025,
        "MPIO_CRSLCION": "1836"
      }
    },
    {
      "type": "Feature",
      "id": 2239,
      "geometry": {
        "type": "Polygon",
        "coordinates": [
          [
            [
              -75.9712,
              2.94513
            ],
            [
              -75.99128,
              2.98245
            ],
            [
              -76.02899,
              2.94049
            ],
            [
              -75.87918,
              2.83377
            ],
            [
              -75.82543,
              2.83824
            ],
            [
              -75.80555,
              2.81913
            ],
            [
              -75.81045,
              2.78674
            ],
            [
              -75.63977,
              2.79001
            ],
            [
              -75.61583,
              2.69401
            ],
            [
              -75.59434,
              2.68211
            ],
            [
              -75.55954,
              2.68236
            ],
            [
              -75.49497,
              2.7718
            ],
            [
              -75.49464,
              2.80422
            ],
            [
              -75.5166,
              2.80117
            ],
            [
              -75.51782,
              2.82321
            ],
            [
              -75.54706,
              2.83088
            ],
            [
              -75.57595,
              2.81371
            ],
            [
              -75.58663,
              2.84404
            ],
            [
              -75.61469,
              2.85004
            ],
            [
              -75.64617,
              2.82187
            ],
            [
              -75.68674,
              2.83267
            ],
            [
              -75.69485,
              2.8615
            ],
            [
              -75.74657,
              2.91634
            ],
            [
              -75.85739,
              2.87151
            ],
            [
              -75.92741,
              2.92142
            ],
            [
              -75.9534,
              2.91775
            ],
            [
              -75.9712,
              2.94513
            ]
          ]
        ]
      },
      "properties": {
        "code": "41801",
        "departmentCode": "41",
        "name": "TERUEL",
        "originalCode": "801",
        "originalName": "TERUEL",
        "type": "MUNICIPIO",
        "areaName": 471.6562079,
        "creationYear": 2024,
        "creationResolution": "1937",
        "resultType": "observed",
        "source": "dane-divipola-mgn-2025",
        "year": 2025,
        "MPIO_TIPO": "MUNICIPIO",
        "unitType": "municipio",
        "MPIO_NAREA": 471.6562079,
        "MPIO_NANO": 2024,
        "MPIO_CRSLCION": "1937"
      }
    },
    {
      "type": "Feature",
      "id": 2240,
      "geometry": {
        "type": "Polygon",
        "coordinates": [
          [
            [
              -75.85681,
              2.04644
            ],
            [
              -75.92118,
              1.98827
            ],
            [
              -75.96019,
              1.98905
            ],
            [
              -75.98713,
              1.95472
            ],
            [
              -75.99675,
              1.90446
            ],
            [
              -75.96832,
              1.85352
            ],
            [
              -75.89658,
              1.91094
            ],
            [
              -75.88657,
              1.93774
            ],
            [
              -75.83462,
              1.96284
            ],
            [
              -75.84191,
              1.97427
            ],
            [
              -75.82084,
              1.99747
            ],
            [
              -75.85681,
              2.04644
            ]
          ]
        ]
      },
      "properties": {
        "code": "41807",
        "departmentCode": "41",
        "name": "TIMANÁ",
        "originalCode": "807",
        "originalName": "TIMANÁ",
        "type": "MUNICIPIO",
        "areaName": 185.72162667999999,
        "creationYear": 2024,
        "creationResolution": "1538",
        "resultType": "observed",
        "source": "dane-divipola-mgn-2025",
        "year": 2025,
        "MPIO_TIPO": "MUNICIPIO",
        "unitType": "municipio",
        "MPIO_NAREA": 185.72162667999999,
        "MPIO_NANO": 2024,
        "MPIO_CRSLCION": "1538"
      }
    },
    {
      "type": "Feature",
      "id": 2241,
      "geometry": {
        "type": "Polygon",
        "coordinates": [
          [
            [
              -75.13757,
              3.4323
            ],
            [
              -75.17184,
              3.41222
            ],
            [
              -75.17295,
              3.37595
            ],
            [
              -75.20212,
              3.34483
            ],
            [
              -75.21611,
              3.35309
            ],
            [
              -75.20445,
              3.33051
            ],
            [
              -75.23912,
              3.31032
            ],
            [
              -75.22937,
              3.20153
            ],
            [
              -75.27563,
              3.15879
            ],
            [
              -75.25465,
              3.13274
            ],
            [
              -75.2285,
              3.13317
            ],
            [
              -75.22019,
              3.18323
            ],
            [
              -75.16287,
              3.13464
            ],
            [
              -75.13422,
              3.20032
            ],
            [
              -75.09335,
              3.18364
            ],
            [
              -75.04583,
              3.19829
            ],
            [
              -75.0496,
              3.23038
            ],
            [
              -75.00794,
              3.2804
            ],
            [
              -75.07061,
              3.2953
            ],
            [
              -75.05688,
              3.37799
            ],
            [
              -75.02765,
              3.39139
            ],
            [
              -75.04273,
              3.40844
            ],
            [
              -75.03446,
              3.42792
            ],
            [
              -75.13757,
              3.4323
            ]
          ]
        ]
      },
      "properties": {
        "code": "41872",
        "departmentCode": "41",
        "name": "VILLAVIEJA",
        "originalCode": "872",
        "originalName": "VILLAVIEJA",
        "type": "MUNICIPIO",
        "areaName": 543.62965786,
        "creationYear": 2024,
        "creationResolution": "1795",
        "resultType": "observed",
        "source": "dane-divipola-mgn-2025",
        "year": 2025,
        "MPIO_TIPO": "MUNICIPIO",
        "unitType": "municipio",
        "MPIO_NAREA": 543.62965786,
        "MPIO_NANO": 2024,
        "MPIO_CRSLCION": "1795"
      }
    },
    {
      "type": "Feature",
      "id": 2242,
      "geometry": {
        "type": "Polygon",
        "coordinates": [
          [
            [
              -75.45041,
              2.77639
            ],
            [
              -75.49827,
              2.76722
            ],
            [
              -75.55954,
              2.68236
            ],
            [
              -75.58768,
              2.68373
            ],
            [
              -75.59025,
              2.57527
            ],
            [
              -75.56767,
              2.48668
            ],
            [
              -75.54284,
              2.49898
            ],
            [
              -75.53066,
              2.54517
            ],
            [
              -75.4958,
              2.55282
            ],
            [
              -75.46617,
              2.63152
            ],
            [
              -75.44416,
              2.63839
            ],
            [
              -75.45353,
              2.64981
            ],
            [
              -75.43563,
              2.67862
            ],
            [
              -75.43725,
              2.71726
            ],
            [
              -75.41944,
              2.72785
            ],
            [
              -75.43647,
              2.77474
            ],
            [
              -75.45041,
              2.77639
            ]
          ]
        ]
      },
      "properties": {
        "code": "41885",
        "departmentCode": "41",
        "name": "YAGUARÁ",
        "originalCode": "885",
        "originalName": "YAGUARÁ",
        "type": "MUNICIPIO",
        "areaName": 332.81672578,
        "creationYear": 2024,
        "creationResolution": "1623",
        "resultType": "observed",
        "source": "dane-divipola-mgn-2025",
        "year": 2025,
        "MPIO_TIPO": "MUNICIPIO",
        "unitType": "municipio",
        "MPIO_NAREA": 332.81672578,
        "MPIO_NANO": 2024,
        "MPIO_CRSLCION": "1623"
      }
    }
  ]
}
