{
  "type": "FeatureCollection",
  "metadata": {
    "source": "DANE DIVIPOLA MGN 2025",
    "downloadedAt": "2026-07-27T05:06:31Z",
    "crs": "EPSG:4326",
    "simplification": "ArcGIS maxAllowableOffset=0.01 grados y geometryPrecision=5; solo visualización web"
  },
  "features": [
    {
      "type": "Feature",
      "id": 2243,
      "geometry": {
        "type": "Polygon",
        "coordinates": [
          [
            [
              -72.89025,
              11.55973
            ],
            [
              -73.02922,
              11.49176
            ],
            [
              -73.09394,
              11.42625
            ],
            [
              -73.143,
              11.40759
            ],
            [
              -73.18914,
              11.36588
            ],
            [
              -73.21682,
              11.32988
            ],
            [
              -73.14552,
              11.25372
            ],
            [
              -73.16382,
              11.22741
            ],
            [
              -73.16449,
              11.18737
            ],
            [
              -73.1823,
              11.16198
            ],
            [
              -73.21118,
              11.15544
            ],
            [
              -73.23691,
              11.09667
            ],
            [
              -73.32311,
              11.04225
            ],
            [
              -73.32066,
              10.98637
            ],
            [
              -73.36079,
              10.96681
            ],
            [
              -73.38584,
              10.91647
            ],
            [
              -73.34145,
              10.91018
            ],
            [
              -73.28207,
              10.93963
            ],
            [
              -73.19831,
              10.93264
            ],
            [
              -73.1147,
              10.98709
            ],
            [
              -73.07835,
              10.97126
            ],
            [
              -73.07604,
              10.99084
            ],
            [
              -72.98593,
              11.03037
            ],
            [
              -72.93193,
              11.01778
            ],
            [
              -72.86951,
              11.07701
            ],
            [
              -72.86751,
              11.09589
            ],
            [
              -72.70938,
              11.16285
            ],
            [
              -72.64727,
              11.16283
            ],
            [
              -72.64772,
              11.21136
            ],
            [
              -72.62146,
              11.2097
            ],
            [
              -72.60229,
              11.2444
            ],
            [
              -72.61293,
              11.35118
            ],
            [
              -72.64086,
              11.42291
            ],
            [
              -72.69819,
              11.44516
            ],
            [
              -72.71402,
              11.48202
            ],
            [
              -72.75747,
              11.47805
            ],
            [
              -72.76816,
              11.4922
            ],
            [
              -72.78525,
              11.48735
            ],
            [
              -72.78604,
              11.50619
            ],
            [
              -72.85491,
              11.51005
            ],
            [
              -72.89025,
              11.55973
            ]
          ]
        ]
      },
      "properties": {
        "code": "44001",
        "departmentCode": "44",
        "name": "RIOHACHA",
        "originalCode": "001",
        "originalName": "RIOHACHA",
        "MPIO_TIPO": "MUNICIPIO",
        "type": "MUNICIPIO",
        "unitType": "municipio",
        "MPIO_NAREA": 3082.55855711,
        "MPIO_NANO": 2024,
        "MPIO_CRSLCION": "1954",
        "areaName": 3082.55855711,
        "creationYear": 2024,
        "creationResolution": "1954",
        "resultType": "observed",
        "source": "dane-divipola-mgn-2025",
        "year": 2025
      }
    },
    {
      "type": "Feature",
      "id": 2244,
      "geometry": {
        "type": "Polygon",
        "coordinates": [
          [
            [
              -72.52248,
              11.40721
            ],
            [
              -72.58511,
              11.38744
            ],
            [
              -72.56583,
              11.37613
            ],
            [
              -72.57609,
              11.33719
            ],
            [
              -72.61833,
              11.31955
            ],
            [
              -72.60286,
              11.23922
            ],
            [
              -72.62146,
              11.2097
            ],
            [
              -72.64529,
              11.21553
            ],
            [
              -72.65863,
              11.1538
            ],
            [
              -72.63932,
              11.1375
            ],
            [
              -72.64641,
              11.12219
            ],
            [
              -72.62167,
              11.11945
            ],
            [
              -72.59113,
              11.14354
            ],
            [
              -72.59221,
              11.11257
            ],
            [
              -72.51029,
              11.09657
            ],
            [
              -72.49701,
              11.08092
            ],
            [
              -72.4593,
              11.11815
            ],
            [
              -72.52795,
              11.16125
            ],
            [
              -72.50489,
              11.1588
            ],
            [
              -72.49907,
              11.14228
            ],
            [
              -72.40382,
              11.16842
            ],
            [
              -72.43908,
              11.28405
            ],
            [
              -72.48831,
              11.31956
            ],
            [
              -72.52248,
              11.40721
            ]
          ]
        ]
      },
      "properties": {
        "code": "44035",
        "departmentCode": "44",
        "name": "ALBANIA",
        "originalCode": "035",
        "originalName": "ALBANIA",
        "MPIO_TIPO": "MUNICIPIO",
        "type": "MUNICIPIO",
        "unitType": "municipio",
        "MPIO_NAREA": 544.80449064,
        "MPIO_NANO": 2024,
        "MPIO_CRSLCION": "Ordenanza 001 del 27 de Marzo del 2000",
        "areaName": 544.80449064,
        "creationYear": 2024,
        "creationResolution": "Ordenanza 001 del 27 de Marzo del 2000",
        "resultType": "observed",
        "source": "dane-divipola-mgn-2025",
        "year": 2025
      }
    },
    {
      "type": "Feature",
      "id": 2245,
      "geometry": {
        "type": "Polygon",
        "coordinates": [
          [
            [
              -72.59885,
              11.12929
            ],
            [
              -72.62278,
              11.1138
            ],
            [
              -72.63878,
              11.12293
            ],
            [
              -72.72632,
              11.02331
            ],
            [
              -72.83479,
              11.07028
            ],
            [
              -72.85684,
              11.09704
            ],
            [
              -72.91242,
              11.03418
            ],
            [
              -72.85404,
              10.97829
            ],
            [
              -72.8372,
              10.93389
            ],
            [
              -72.8093,
              10.92592
            ],
            [
              -72.78365,
              10.87779
            ],
            [
              -72.72056,
              10.86511
            ],
            [
              -72.67598,
              10.81934
            ],
            [
              -72.64798,
              10.88043
            ],
            [
              -72.6124,
              10.8827
            ],
            [
              -72.56336,
              10.92795
            ],
            [
              -72.51888,
              11.00066
            ],
            [
              -72.52606,
              11.0118
            ],
            [
              -72.48151,
              11.05942
            ],
            [
              -72.5103,
              11.09353
            ],
            [
              -72.59322,
              11.11
            ],
            [
              -72.59885,
              11.12929
            ]
          ]
        ]
      },
      "properties": {
        "code": "44078",
        "departmentCode": "44",
        "name": "BARRANCAS",
        "originalCode": "078",
        "originalName": "BARRANCAS",
        "MPIO_TIPO": "MUNICIPIO",
        "type": "MUNICIPIO",
        "unitType": "municipio",
        "MPIO_NAREA": 799.22704816,
        "MPIO_NANO": 2024,
        "MPIO_CRSLCION": "1935",
        "areaName": 799.22704816,
        "creationYear": 2024,
        "creationResolution": "1935",
        "resultType": "observed",
        "source": "dane-divipola-mgn-2025",
        "year": 2025
      }
    },
    {
      "type": "Feature",
      "id": 2246,
      "geometry": {
        "type": "Polygon",
        "coordinates": [
          [
            [
              -73.64265,
              10.95432
            ],
            [
              -73.63355,
              10.90051
            ],
            [
              -73.59859,
              10.83596
            ],
            [
              -73.43105,
              10.87861
            ],
            [
              -73.36444,
              10.94329
            ],
            [
              -73.36079,
              10.96681
            ],
            [
              -73.3259,
              10.97648
            ],
            [
              -73.31424,
              11.00727
            ],
            [
              -73.32311,
              11.04225
            ],
            [
              -73.23691,
              11.09667
            ],
            [
              -73.21118,
              11.15544
            ],
            [
              -73.16916,
              11.17771
            ],
            [
              -73.14559,
              11.25386
            ],
            [
              -73.21682,
              11.32988
            ],
            [
              -73.27561,
              11.2863
            ],
            [
              -73.34773,
              11.26392
            ],
            [
              -73.5749,
              11.2597
            ],
            [
              -73.56538,
              11.25361
            ],
            [
              -73.58393,
              11.18935
            ],
            [
              -73.62747,
              11.1417
            ],
            [
              -73.65337,
              11.13752
            ],
            [
              -73.6374,
              11.10875
            ],
            [
              -73.65003,
              11.0608
            ],
            [
              -73.63545,
              11.04163
            ],
            [
              -73.66494,
              10.98981
            ],
            [
              -73.64265,
              10.95432
            ]
          ]
        ]
      },
      "properties": {
        "code": "44090",
        "departmentCode": "44",
        "name": "DIBULLA",
        "originalCode": "090",
        "originalName": "DIBULLA",
        "MPIO_TIPO": "MUNICIPIO",
        "type": "MUNICIPIO",
        "unitType": "municipio",
        "MPIO_NAREA": 1746.82321919,
        "MPIO_NANO": 2025,
        "MPIO_CRSLCION": "Ordenanza 30 de Noviembre 15 de 1995",
        "areaName": 1746.82321919,
        "creationYear": 2025,
        "creationResolution": "Ordenanza 30 de Noviembre 15 de 1995",
        "resultType": "observed",
        "source": "dane-divipola-mgn-2025",
        "year": 2025
      }
    },
    {
      "type": "Feature",
      "id": 2247,
      "geometry": {
        "type": "Polygon",
        "coordinates": [
          [
            [
              -72.91502,
              11.03184
            ],
            [
              -72.93714,
              11.01733
            ],
            [
              -72.98593,
              11.03037
            ],
            [
              -73.01864,
              11.0073
            ],
            [
              -72.9987,
              10.95414
            ],
            [
              -73.0198,
              10.91041
            ],
            [
              -72.99684,
              10.90354
            ],
            [
              -73.00144,
              10.87925
            ],
            [
              -72.97868,
              10.89413
            ],
            [
              -72.94662,
              10.88448
            ],
            [
              -72.9436,
              10.82465
            ],
            [
              -72.89886,
              10.79021
            ],
            [
              -72.8805,
              10.79472
            ],
            [
              -72.89707,
              10.82125
            ],
            [
              -72.87234,
              10.83968
            ],
            [
              -72.87177,
              10.91435
            ],
            [
              -72.92156,
              10.95066
            ],
            [
              -72.91502,
              11.03184
            ]
          ]
        ]
      },
      "properties": {
        "code": "44098",
        "departmentCode": "44",
        "name": "DISTRACCIÓN",
        "originalCode": "098",
        "originalName": "DISTRACCIÓN",
        "MPIO_TIPO": "MUNICIPIO",
        "type": "MUNICIPIO",
        "unitType": "municipio",
        "MPIO_NAREA": 231.4143632,
        "MPIO_NANO": 2024,
        "MPIO_CRSLCION": "Ordenanza 41 de Noviembre 30 de 1995",
        "areaName": 231.4143632,
        "creationYear": 2024,
        "creationResolution": "Ordenanza 41 de Noviembre 30 de 1995",
        "resultType": "observed",
        "source": "dane-divipola-mgn-2025",
        "year": 2025
      }
    },
    {
      "type": "Feature",
      "id": 2248,
      "geometry": {
        "type": "Polygon",
        "coordinates": [
          [
            [
              -72.96901,
              10.71645
            ],
            [
              -73.01332,
              10.66811
            ],
            [
              -72.98683,
              10.66945
            ],
            [
              -72.95461,
              10.62037
            ],
            [
              -72.83432,
              10.54005
            ],
            [
              -72.78141,
              10.61239
            ],
            [
              -72.82123,
              10.68143
            ],
            [
              -72.86219,
              10.67844
            ],
            [
              -72.96901,
              10.71645
            ]
          ]
        ]
      },
      "properties": {
        "code": "44110",
        "departmentCode": "44",
        "name": "EL MOLINO",
        "originalCode": "110",
        "originalName": "EL MOLINO",
        "MPIO_TIPO": "MUNICIPIO",
        "type": "MUNICIPIO",
        "unitType": "municipio",
        "MPIO_NAREA": 241.69672951,
        "MPIO_NANO": 2024,
        "MPIO_CRSLCION": "Ordenanza015 del 29 de Noviembre de 1989",
        "areaName": 241.69672951,
        "creationYear": 2024,
        "creationResolution": "Ordenanza015 del 29 de Noviembre de 1989",
        "resultType": "observed",
        "source": "dane-divipola-mgn-2025",
        "year": 2025
      }
    },
    {
      "type": "Feature",
      "id": 2249,
      "geometry": {
        "type": "Polygon",
        "coordinates": [
          [
            [
              -72.91056,
              11.03339
            ],
            [
              -72.92156,
              10.95066
            ],
            [
              -72.87177,
              10.91435
            ],
            [
              -72.87234,
              10.83968
            ],
            [
              -72.89707,
              10.82125
            ],
            [
              -72.8805,
              10.79472
            ],
            [
              -72.89886,
              10.79021
            ],
            [
              -72.8752,
              10.76998
            ],
            [
              -72.83431,
              10.77526
            ],
            [
              -72.82373,
              10.70542
            ],
            [
              -72.77084,
              10.69894
            ],
            [
              -72.7401,
              10.65204
            ],
            [
              -72.71136,
              10.75211
            ],
            [
              -72.67986,
              10.76422
            ],
            [
              -72.67598,
              10.81934
            ],
            [
              -72.72056,
              10.86511
            ],
            [
              -72.78365,
              10.87779
            ],
            [
              -72.8093,
              10.92592
            ],
            [
              -72.8372,
              10.93389
            ],
            [
              -72.85404,
              10.97829
            ],
            [
              -72.91056,
              11.03339
            ]
          ]
        ]
      },
      "properties": {
        "code": "44279",
        "departmentCode": "44",
        "name": "FONSECA",
        "originalCode": "279",
        "originalName": "FONSECA",
        "MPIO_TIPO": "MUNICIPIO",
        "type": "MUNICIPIO",
        "unitType": "municipio",
        "MPIO_NAREA": 472.54303551,
        "MPIO_NANO": 2024,
        "MPIO_CRSLCION": "1954",
        "areaName": 472.54303551,
        "creationYear": 2024,
        "creationResolution": "1954",
        "resultType": "observed",
        "source": "dane-divipola-mgn-2025",
        "year": 2025
      }
    },
    {
      "type": "Feature",
      "id": 2250,
      "geometry": {
        "type": "MultiPolygon",
        "coordinates": [
          [
            [
              [
                -72.6568,
                11.16627
              ],
              [
                -72.78252,
                11.13779
              ],
              [
                -72.85684,
                11.09704
              ],
              [
                -72.8534,
                11.08492
              ],
              [
                -72.76277,
                11.03259
              ],
              [
                -72.71576,
                11.02698
              ],
              [
                -72.68659,
                11.0649
              ],
              [
                -72.69309,
                11.07468
              ],
              [
                -72.63754,
                11.12243
              ],
              [
                -72.6568,
                11.16627
              ]
            ]
          ],
          [
            [
              [
                -72.59,
                11.14226
              ],
              [
                -72.62935,
                11.11756
              ],
              [
                -72.59501,
                11.13659
              ],
              [
                -72.59381,
                11.11029
              ],
              [
                -72.49244,
                11.07965
              ],
              [
                -72.51029,
                11.09657
              ],
              [
                -72.59221,
                11.11257
              ],
              [
                -72.59,
                11.14226
              ]
            ]
          ]
        ]
      },
      "properties": {
        "code": "44378",
        "departmentCode": "44",
        "name": "HATONUEVO",
        "originalCode": "378",
        "originalName": "HATONUEVO",
        "MPIO_TIPO": "MUNICIPIO",
        "type": "MUNICIPIO",
        "unitType": "municipio",
        "MPIO_NAREA": 214.18672248,
        "MPIO_NANO": 2024,
        "MPIO_CRSLCION": "Ordenanza 57 de Noviembre 9 de 1994",
        "areaName": 214.18672248,
        "creationYear": 2024,
        "creationResolution": "Ordenanza 57 de Noviembre 9 de 1994",
        "resultType": "observed",
        "source": "dane-divipola-mgn-2025",
        "year": 2025
      }
    },
    {
      "type": "Feature",
      "id": 2251,
      "geometry": {
        "type": "Polygon",
        "coordinates": [
          [
            [
              -73.08581,
              10.53504
            ],
            [
              -73.11072,
              10.49511
            ],
            [
              -73.16761,
              10.49241
            ],
            [
              -73.18162,
              10.46647
            ],
            [
              -73.14233,
              10.43678
            ],
            [
              -73.14226,
              10.39681
            ],
            [
              -73.08447,
              10.42634
            ],
            [
              -72.98675,
              10.40049
            ],
            [
              -72.90103,
              10.43435
            ],
            [
              -72.88683,
              10.45324
            ],
            [
              -72.9176,
              10.45335
            ],
            [
              -72.98168,
              10.41744
            ],
            [
              -73.02733,
              10.41753
            ],
            [
              -73.02711,
              10.51715
            ],
            [
              -73.07267,
              10.51713
            ],
            [
              -73.08581,
              10.53504
            ]
          ]
        ]
      },
      "properties": {
        "code": "44420",
        "departmentCode": "44",
        "name": "LA JAGUA DEL PILAR",
        "originalCode": "420",
        "originalName": "LA JAGUA DEL PILAR",
        "MPIO_TIPO": "MUNICIPIO",
        "type": "MUNICIPIO",
        "unitType": "municipio",
        "MPIO_NAREA": 179.25010935,
        "MPIO_NANO": 2024,
        "MPIO_CRSLCION": "Decreto presidencial 609 del 26 de Marzo de 1996 y ratificad",
        "areaName": 179.25010935,
        "creationYear": 2024,
        "creationResolution": "Decreto presidencial 609 del 26 de Marzo de 1996 y ratificad",
        "resultType": "observed",
        "source": "dane-divipola-mgn-2025",
        "year": 2025
      }
    },
    {
      "type": "Feature",
      "id": 2252,
      "geometry": {
        "type": "Polygon",
        "coordinates": [
          [
            [
              -72.55875,
              11.44842
            ],
            [
              -72.60514,
              11.45895
            ],
            [
              -72.61577,
              11.42803
            ],
            [
              -72.64835,
              11.42703
            ],
            [
              -72.61408,
              11.32268
            ],
            [
              -72.57609,
              11.33719
            ],
            [
              -72.56634,
              11.37869
            ],
            [
              -72.58673,
              11.38394
            ],
            [
              -72.57351,
              11.39902
            ],
            [
              -72.5229,
              11.40884
            ],
            [
              -72.48831,
              11.31956
            ],
            [
              -72.43908,
              11.28405
            ],
            [
              -72.40433,
              11.17446
            ],
            [
              -72.43666,
              11.15158
            ],
            [
              -72.49907,
              11.14228
            ],
            [
              -72.50489,
              11.1588
            ],
            [
              -72.52795,
              11.16125
            ],
            [
              -72.51514,
              11.14225
            ],
            [
              -72.45885,
              11.11593
            ],
            [
              -72.44231,
              11.12732
            ],
            [
              -72.43882,
              11.11528
            ],
            [
              -72.34931,
              11.15137
            ],
            [
              -72.24982,
              11.13978
            ],
            [
              -71.97945,
              11.63093
            ],
            [
              -71.97592,
              11.66927
            ],
            [
              -71.99359,
              11.69442
            ],
            [
              -72.02297,
              11.68989
            ],
            [
              -72.12483,
              11.53279
            ],
            [
              -72.38183,
              11.52551
            ],
            [
              -72.39832,
              11.50127
            ],
            [
              -72.49004,
              11.45363
            ],
            [
              -72.55875,
              11.44842
            ]
          ]
        ]
      },
      "properties": {
        "code": "44430",
        "departmentCode": "44",
        "name": "MAICAO",
        "originalCode": "430",
        "originalName": "MAICAO",
        "MPIO_TIPO": "MUNICIPIO",
        "type": "MUNICIPIO",
        "unitType": "municipio",
        "MPIO_NAREA": 1764.50970792,
        "MPIO_NANO": 2024,
        "MPIO_CRSLCION": "1956",
        "areaName": 1764.50970792,
        "creationYear": 2024,
        "creationResolution": "1956",
        "resultType": "observed",
        "source": "dane-divipola-mgn-2025",
        "year": 2025
      }
    },
    {
      "type": "Feature",
      "id": 2253,
      "geometry": {
        "type": "Polygon",
        "coordinates": [
          [
            [
              -72.66443,
              11.71559
            ],
            [
              -72.76513,
              11.68101
            ],
            [
              -72.83104,
              11.63203
            ],
            [
              -72.8906,
              11.56029
            ],
            [
              -72.87778,
              11.52815
            ],
            [
              -72.85429,
              11.50983
            ],
            [
              -72.78591,
              11.50614
            ],
            [
              -72.78525,
              11.48735
            ],
            [
              -72.76816,
              11.4922
            ],
            [
              -72.75747,
              11.47805
            ],
            [
              -72.71402,
              11.48202
            ],
            [
              -72.69811,
              11.4451
            ],
            [
              -72.63202,
              11.42391
            ],
            [
              -72.61577,
              11.42803
            ],
            [
              -72.60514,
              11.45895
            ],
            [
              -72.5367,
              11.44344
            ],
            [
              -72.49004,
              11.45363
            ],
            [
              -72.39832,
              11.50127
            ],
            [
              -72.38183,
              11.52551
            ],
            [
              -72.26136,
              11.52693
            ],
            [
              -72.31976,
              11.55425
            ],
            [
              -72.32833,
              11.6009
            ],
            [
              -72.37826,
              11.63465
            ],
            [
              -72.36803,
              11.70969
            ],
            [
              -72.33099,
              11.77227
            ],
            [
              -72.35514,
              11.82807
            ],
            [
              -72.44447,
              11.7798
            ],
            [
              -72.5148,
              11.77691
            ],
            [
              -72.56145,
              11.74507
            ],
            [
              -72.59246,
              11.74679
            ],
            [
              -72.623,
              11.72177
            ],
            [
              -72.66443,
              11.71559
            ]
          ]
        ]
      },
      "properties": {
        "code": "44560",
        "departmentCode": "44",
        "name": "MANAURE",
        "originalCode": "560",
        "originalName": "MANAURE",
        "MPIO_TIPO": "MUNICIPIO",
        "type": "MUNICIPIO",
        "unitType": "municipio",
        "MPIO_NAREA": 1615.54764155,
        "MPIO_NANO": 2025,
        "MPIO_CRSLCION": "Ordenanza 15 de Noviembre 27 de 1973",
        "areaName": 1615.54764155,
        "creationYear": 2025,
        "creationResolution": "Ordenanza 15 de Noviembre 27 de 1973",
        "resultType": "observed",
        "source": "dane-divipola-mgn-2025",
        "year": 2025
      }
    },
    {
      "type": "Feature",
      "id": 2254,
      "geometry": {
        "type": "Polygon",
        "coordinates": [
          [
            [
              -72.74988,
              10.65054
            ],
            [
              -72.77081,
              10.69891
            ],
            [
              -72.82373,
              10.70542
            ],
            [
              -72.83431,
              10.77526
            ],
            [
              -72.88395,
              10.77314
            ],
            [
              -72.9436,
              10.82465
            ],
            [
              -72.94875,
              10.88654
            ],
            [
              -72.97868,
              10.89413
            ],
            [
              -73.00144,
              10.87925
            ],
            [
              -72.99684,
              10.90354
            ],
            [
              -73.0198,
              10.91041
            ],
            [
              -72.99871,
              10.95472
            ],
            [
              -73.02649,
              11.01289
            ],
            [
              -73.0786,
              10.98904
            ],
            [
              -73.07835,
              10.97126
            ],
            [
              -73.1147,
              10.98709
            ],
            [
              -73.19831,
              10.93264
            ],
            [
              -73.28207,
              10.93963
            ],
            [
              -73.34145,
              10.91018
            ],
            [
              -73.38584,
              10.91647
            ],
            [
              -73.46701,
              10.86643
            ],
            [
              -73.33755,
              10.86256
            ],
            [
              -73.31232,
              10.84615
            ],
            [
              -73.27994,
              10.85699
            ],
            [
              -73.25154,
              10.8043
            ],
            [
              -73.27783,
              10.72643
            ],
            [
              -73.23732,
              10.74047
            ],
            [
              -73.20763,
              10.70746
            ],
            [
              -73.15715,
              10.71543
            ],
            [
              -73.14614,
              10.69151
            ],
            [
              -73.10656,
              10.6771
            ],
            [
              -73.08171,
              10.62758
            ],
            [
              -73.01367,
              10.66727
            ],
            [
              -72.97375,
              10.71643
            ],
            [
              -72.86219,
              10.67844
            ],
            [
              -72.82132,
              10.6815
            ],
            [
              -72.78141,
              10.61239
            ],
            [
              -72.75014,
              10.63413
            ],
            [
              -72.74988,
              10.65054
            ]
          ]
        ]
      },
      "properties": {
        "code": "44650",
        "departmentCode": "44",
        "name": "SAN JUAN DEL CESAR",
        "originalCode": "650",
        "originalName": "SAN JUAN DEL CESAR",
        "MPIO_TIPO": "MUNICIPIO",
        "type": "MUNICIPIO",
        "unitType": "municipio",
        "MPIO_NAREA": 1308.55679668,
        "MPIO_NANO": 2024,
        "MPIO_CRSLCION": "1954",
        "areaName": 1308.55679668,
        "creationYear": 2024,
        "creationResolution": "1954",
        "resultType": "observed",
        "source": "dane-divipola-mgn-2025",
        "year": 2025
      }
    },
    {
      "type": "Feature",
      "id": 2255,
      "geometry": {
        "type": "Polygon",
        "coordinates": [
          [
            [
              -71.65195,
              12.45582
            ],
            [
              -71.73047,
              12.42686
            ],
            [
              -71.73498,
              12.40872
            ],
            [
              -71.68467,
              12.44293
            ],
            [
              -71.7001,
              12.41766
            ],
            [
              -71.64715,
              12.43107
            ],
            [
              -71.67633,
              12.40457
            ],
            [
              -71.62857,
              12.41301
            ],
            [
              -71.69573,
              12.39232
            ],
            [
              -71.6933,
              12.36408
            ],
            [
              -71.70288,
              12.37667
            ],
            [
              -71.72218,
              12.37039
            ],
            [
              -71.71131,
              12.40038
            ],
            [
              -71.72463,
              12.41146
            ],
            [
              -71.76189,
              12.38097
            ],
            [
              -71.73734,
              12.36838
            ],
            [
              -71.75629,
              12.33279
            ],
            [
              -71.79375,
              12.32861
            ],
            [
              -71.80292,
              12.30576
            ],
            [
              -71.82066,
              12.3104
            ],
            [
              -71.83977,
              12.33982
            ],
            [
              -71.80648,
              12.36685
            ],
            [
              -71.82269,
              12.372
            ],
            [
              -71.95572,
              12.27288
            ],
            [
              -71.94406,
              12.25936
            ],
            [
              -71.93993,
              12.27583
            ],
            [
              -71.89121,
              12.27528
            ],
            [
              -71.89027,
              12.25145
            ],
            [
              -71.87026,
              12.24758
            ],
            [
              -71.87985,
              12.23593
            ],
            [
              -71.86154,
              12.21727
            ],
            [
              -71.86855,
              12.19091
            ],
            [
              -71.92492,
              12.18388
            ],
            [
              -71.92996,
              12.15112
            ],
            [
              -71.94459,
              12.16064
            ],
            [
              -71.96315,
              12.14946
            ],
            [
              -71.96084,
              12.17975
            ],
            [
              -71.96583,
              12.14692
            ],
            [
              -71.98651,
              12.14756
            ],
            [
              -71.97888,
              12.17229
            ],
            [
              -72.00085,
              12.18632
            ],
            [
              -71.96426,
              12.22818
            ],
            [
              -71.96121,
              12.25772
            ],
            [
              -72.08368,
              12.23091
            ],
            [
              -72.14315,
              12.23944
            ],
            [
              -72.1788,
              12.2167
            ],
            [
              -72.14825,
              12.19949
            ],
            [
              -72.13875,
              12.10464
            ],
            [
              -72.21472,
              11.93038
            ],
            [
              -72.24669,
              11.89234
            ],
            [
              -72.22572,
              11.89337
            ],
            [
              -72.35514,
              11.82807
            ],
            [
              -72.33099,
              11.77227
            ],
            [
              -72.36803,
              11.70969
            ],
            [
              -72.37866,
              11.63718
            ],
            [
              -72.32833,
              11.6009
            ],
            [
              -72.31976,
              11.55425
            ],
            [
              -72.23178,
              11.52333
            ],
            [
              -72.12483,
              11.53279
            ],
            [
              -72.01957,
              11.69258
            ],
            [
              -71.99359,
              11.69442
            ],
            [
              -71.97767,
              11.67254
            ],
            [
              -71.97945,
              11.63093
            ],
            [
              -71.97136,
              11.64627
            ],
            [
              -71.80219,
              11.68005
            ],
            [
              -71.37841,
              11.81213
            ],
            [
              -71.38849,
              11.82799
            ],
            [
              -71.36241,
              11.82701
            ],
            [
              -71.36315,
              11.84107
            ],
            [
              -71.33322,
              11.85043
            ],
            [
              -71.32387,
              11.83349
            ],
            [
              -71.29006,
              11.91403
            ],
            [
              -71.32629,
              11.90159
            ],
            [
              -71.32704,
              11.92115
            ],
            [
              -71.31197,
              11.915
            ],
            [
              -71.31094,
              11.92887
            ],
            [
              -71.2822,
              11.90611
            ],
            [
              -71.21901,
              11.96423
            ],
            [
              -71.13613,
              12.00271
            ],
            [
              -71.11614,
              12.03474
            ],
            [
              -71.11514,
              12.08604
            ],
            [
              -71.21962,
              12.26032
            ],
            [
              -71.22833,
              12.30058
            ],
            [
              -71.30172,
              12.35337
            ],
            [
              -71.32272,
              12.34776
            ],
            [
              -71.40258,
              12.384
            ],
            [
              -71.43662,
              12.38066
            ],
            [
              -71.52605,
              12.43734
            ],
            [
              -71.61072,
              12.43698
            ],
            [
              -71.65195,
              12.45582
            ]
          ]
        ]
      },
      "properties": {
        "code": "44847",
        "departmentCode": "44",
        "name": "URIBIA",
        "originalCode": "847",
        "originalName": "URIBIA",
        "MPIO_TIPO": "MUNICIPIO",
        "type": "MUNICIPIO",
        "unitType": "municipio",
        "MPIO_NAREA": 7866.02090942,
        "MPIO_NANO": 2024,
        "MPIO_CRSLCION": "1954",
        "areaName": 7866.02090942,
        "creationYear": 2024,
        "creationResolution": "1954",
        "resultType": "observed",
        "source": "dane-divipola-mgn-2025",
        "year": 2025
      }
    },
    {
      "type": "Feature",
      "id": 2256,
      "geometry": {
        "type": "Polygon",
        "coordinates": [
          [
            [
              -73.00927,
              10.5693
            ],
            [
              -73.09816,
              10.5533
            ],
            [
              -73.13755,
              10.53034
            ],
            [
              -73.1625,
              10.48809
            ],
            [
              -73.11072,
              10.49511
            ],
            [
              -73.08628,
              10.53529
            ],
            [
              -73.07267,
              10.51713
            ],
            [
              -73.02711,
              10.51715
            ],
            [
              -73.02733,
              10.41753
            ],
            [
              -72.98168,
              10.41744
            ],
            [
              -72.9176,
              10.45335
            ],
            [
              -72.8761,
              10.45374
            ],
            [
              -72.84467,
              10.48517
            ],
            [
              -72.84333,
              10.50793
            ],
            [
              -72.91268,
              10.50717
            ],
            [
              -73.00298,
              10.55199
            ],
            [
              -73.00927,
              10.5693
            ]
          ]
        ]
      },
      "properties": {
        "code": "44855",
        "departmentCode": "44",
        "name": "URUMITA",
        "originalCode": "855",
        "originalName": "URUMITA",
        "MPIO_TIPO": "MUNICIPIO",
        "type": "MUNICIPIO",
        "unitType": "municipio",
        "MPIO_NAREA": 245.79394937,
        "MPIO_NANO": 2024,
        "MPIO_CRSLCION": "Ordenanza 36 de Diciembre 20 de 1983",
        "areaName": 245.79394937,
        "creationYear": 2024,
        "creationResolution": "Ordenanza 36 de Diciembre 20 de 1983",
        "resultType": "observed",
        "source": "dane-divipola-mgn-2025",
        "year": 2025
      }
    },
    {
      "type": "Feature",
      "id": 2257,
      "geometry": {
        "type": "Polygon",
        "coordinates": [
          [
            [
              -72.9918,
              10.66989
            ],
            [
              -73.02597,
              10.6668
            ],
            [
              -73.0793,
              10.63418
            ],
            [
              -73.0991,
              10.55237
            ],
            [
              -73.01131,
              10.5727
            ],
            [
              -73.00366,
              10.55243
            ],
            [
              -72.91268,
              10.50717
            ],
            [
              -72.83869,
              10.50924
            ],
            [
              -72.85805,
              10.5578
            ],
            [
              -72.95461,
              10.62037
            ],
            [
              -72.9918,
              10.66989
            ]
          ]
        ]
      },
      "properties": {
        "code": "44874",
        "departmentCode": "44",
        "name": "VILLANUEVA",
        "originalCode": "874",
        "originalName": "VILLANUEVA",
        "MPIO_TIPO": "MUNICIPIO",
        "type": "MUNICIPIO",
        "unitType": "municipio",
        "MPIO_NAREA": 259.58652713,
        "MPIO_NANO": 2024,
        "MPIO_CRSLCION": "1888",
        "areaName": 259.58652713,
        "creationYear": 2024,
        "creationResolution": "1888",
        "resultType": "observed",
        "source": "dane-divipola-mgn-2025",
        "year": 2025
      }
    }
  ]
}
