{
  "type": "FeatureCollection",
  "metadata": {
    "source": "DANE DIVIPOLA MGN 2025",
    "downloadedAt": "2026-07-25T07:50:10Z",
    "crs": "EPSG:4326",
    "simplification": "ArcGIS maxAllowableOffset=0.01 grados y geometryPrecision=5; solo visualización web"
  },
  "features": [
    {
      "type": "Feature",
      "id": 2258,
      "geometry": {
        "type": "Polygon",
        "coordinates": [
          [
            [
              -73.64265,
              10.95432
            ],
            [
              -73.66494,
              10.98981
            ],
            [
              -73.63545,
              11.04163
            ],
            [
              -73.65003,
              11.0608
            ],
            [
              -73.6374,
              11.10875
            ],
            [
              -73.65337,
              11.13752
            ],
            [
              -73.62747,
              11.1417
            ],
            [
              -73.591,
              11.17864
            ],
            [
              -73.5678,
              11.25813
            ],
            [
              -73.79069,
              11.25643
            ],
            [
              -73.858,
              11.27419
            ],
            [
              -73.97516,
              11.3387
            ],
            [
              -74.04541,
              11.34889
            ],
            [
              -74.05702,
              11.32809
            ],
            [
              -74.06496,
              11.34528
            ],
            [
              -74.08291,
              11.31554
            ],
            [
              -74.10728,
              11.34792
            ],
            [
              -74.10536,
              11.31891
            ],
            [
              -74.12425,
              11.33439
            ],
            [
              -74.13497,
              11.31551
            ],
            [
              -74.14475,
              11.33697
            ],
            [
              -74.16091,
              11.32416
            ],
            [
              -74.14895,
              11.29813
            ],
            [
              -74.19428,
              11.30366
            ],
            [
              -74.20658,
              11.27419
            ],
            [
              -74.19139,
              11.2644
            ],
            [
              -74.21981,
              11.25411
            ],
            [
              -74.21805,
              11.23827
            ],
            [
              -74.24158,
              11.2211
            ],
            [
              -74.22806,
              11.20447
            ],
            [
              -74.24123,
              11.17583
            ],
            [
              -74.22668,
              11.14887
            ],
            [
              -74.23349,
              11.11653
            ],
            [
              -74.21468,
              11.07536
            ],
            [
              -74.17757,
              11.09917
            ],
            [
              -74.1129,
              11.1039
            ],
            [
              -74.10935,
              11.0775
            ],
            [
              -74.07739,
              11.05771
            ],
            [
              -74.04588,
              11.06404
            ],
            [
              -74.04157,
              11.03666
            ],
            [
              -74.00194,
              11.03601
            ],
            [
              -73.98435,
              11.01384
            ],
            [
              -73.91635,
              11.01335
            ],
            [
              -73.90858,
              10.99419
            ],
            [
              -73.86996,
              10.98999
            ],
            [
              -73.86458,
              10.93036
            ],
            [
              -73.88227,
              10.89494
            ],
            [
              -73.85558,
              10.86439
            ],
            [
              -73.75298,
              10.87892
            ],
            [
              -73.70739,
              10.84067
            ],
            [
              -73.66034,
              10.82571
            ],
            [
              -73.59937,
              10.83561
            ],
            [
              -73.64265,
              10.95432
            ]
          ]
        ]
      },
      "properties": {
        "code": "47001",
        "departmentCode": "47",
        "name": "SANTA MARTA",
        "resultType": "observed",
        "source": "dane-divipola-mgn-2025",
        "year": 2025
      }
    },
    {
      "type": "Feature",
      "id": 2259,
      "geometry": {
        "type": "Polygon",
        "coordinates": [
          [
            [
              -74.08572,
              10.06638
            ],
            [
              -74.07396,
              10.05174
            ],
            [
              -74.08437,
              10.07306
            ],
            [
              -74.04259,
              10.21649
            ],
            [
              -73.97809,
              10.27719
            ],
            [
              -74.00436,
              10.27896
            ],
            [
              -74.04152,
              10.34608
            ],
            [
              -74.05718,
              10.32457
            ],
            [
              -74.11041,
              10.39318
            ],
            [
              -74.15025,
              10.37042
            ],
            [
              -74.18186,
              10.31878
            ],
            [
              -74.21305,
              10.19673
            ],
            [
              -74.1964,
              10.18632
            ],
            [
              -74.12741,
              10.20656
            ],
            [
              -74.11404,
              10.12368
            ],
            [
              -74.08572,
              10.06638
            ]
          ]
        ]
      },
      "properties": {
        "code": "47030",
        "departmentCode": "47",
        "name": "ALGARROBO",
        "resultType": "observed",
        "source": "dane-divipola-mgn-2025",
        "year": 2025
      }
    },
    {
      "type": "Feature",
      "id": 2260,
      "geometry": {
        "type": "Polygon",
        "coordinates": [
          [
            [
              -73.59859,
              10.83596
            ],
            [
              -73.66034,
              10.82571
            ],
            [
              -73.76511,
              10.87562
            ],
            [
              -73.80798,
              10.8539
            ],
            [
              -73.82946,
              10.80739
            ],
            [
              -73.89822,
              10.75259
            ],
            [
              -74.08302,
              10.65295
            ],
            [
              -74.10249,
              10.60775
            ],
            [
              -74.12003,
              10.63313
            ],
            [
              -74.18319,
              10.64071
            ],
            [
              -74.20891,
              10.66486
            ],
            [
              -74.25754,
              10.66514
            ],
            [
              -74.22328,
              10.60401
            ],
            [
              -74.19231,
              10.58564
            ],
            [
              -74.18805,
              10.55409
            ],
            [
              -74.21564,
              10.53622
            ],
            [
              -74.1725,
              10.50897
            ],
            [
              -74.138,
              10.51154
            ],
            [
              -74.13459,
              10.48481
            ],
            [
              -74.09171,
              10.47065
            ],
            [
              -74.08022,
              10.43738
            ],
            [
              -74.04739,
              10.42485
            ],
            [
              -73.98486,
              10.4467
            ],
            [
              -73.96567,
              10.48939
            ],
            [
              -73.93027,
              10.48577
            ],
            [
              -73.9098,
              10.51611
            ],
            [
              -73.86536,
              10.50118
            ],
            [
              -73.8597,
              10.51463
            ],
            [
              -73.80024,
              10.52457
            ],
            [
              -73.73463,
              10.5714
            ],
            [
              -73.71542,
              10.56525
            ],
            [
              -73.65244,
              10.61512
            ],
            [
              -73.65384,
              10.63992
            ],
            [
              -73.61618,
              10.64534
            ],
            [
              -73.59379,
              10.70526
            ],
            [
              -73.56313,
              10.71596
            ],
            [
              -73.56232,
              10.74085
            ],
            [
              -73.54184,
              10.75437
            ],
            [
              -73.58899,
              10.78171
            ],
            [
              -73.63866,
              10.78779
            ],
            [
              -73.63522,
              10.80786
            ],
            [
              -73.59859,
              10.83596
            ]
          ]
        ]
      },
      "properties": {
        "code": "47053",
        "departmentCode": "47",
        "name": "ARACATACA",
        "resultType": "observed",
        "source": "dane-divipola-mgn-2025",
        "year": 2025
      }
    },
    {
      "type": "Feature",
      "id": 2261,
      "geometry": {
        "type": "Polygon",
        "coordinates": [
          [
            [
              -74.03381,
              9.99542
            ],
            [
              -74.06233,
              9.97991
            ],
            [
              -74.09221,
              9.98573
            ],
            [
              -74.10513,
              9.9665
            ],
            [
              -74.1303,
              9.96524
            ],
            [
              -74.1348,
              9.94512
            ],
            [
              -74.15447,
              9.97699
            ],
            [
              -74.18605,
              9.99186
            ],
            [
              -74.25217,
              9.96443
            ],
            [
              -74.27805,
              9.80705
            ],
            [
              -74.26721,
              9.77208
            ],
            [
              -74.23293,
              9.76162
            ],
            [
              -74.19426,
              9.72345
            ],
            [
              -74.19325,
              9.69808
            ],
            [
              -74.16756,
              9.6713
            ],
            [
              -74.17781,
              9.61898
            ],
            [
              -74.09461,
              9.70336
            ],
            [
              -74.02238,
              9.74075
            ],
            [
              -73.96693,
              9.75159
            ],
            [
              -73.86575,
              9.72466
            ],
            [
              -73.82806,
              9.74958
            ],
            [
              -73.84186,
              9.79742
            ],
            [
              -73.89496,
              9.83209
            ],
            [
              -73.95267,
              9.92694
            ],
            [
              -74.00183,
              9.9402
            ],
            [
              -74.03381,
              9.99542
            ]
          ]
        ]
      },
      "properties": {
        "code": "47058",
        "departmentCode": "47",
        "name": "ARIGUANÍ",
        "resultType": "observed",
        "source": "dane-divipola-mgn-2025",
        "year": 2025
      }
    },
    {
      "type": "Feature",
      "id": 2262,
      "geometry": {
        "type": "Polygon",
        "coordinates": [
          [
            [
              -74.85084,
              10.367
            ],
            [
              -74.86351,
              10.36675
            ],
            [
              -74.91568,
              10.23834
            ],
            [
              -74.87644,
              10.21371
            ],
            [
              -74.84381,
              10.27116
            ],
            [
              -74.81953,
              10.28114
            ],
            [
              -74.71777,
              10.24473
            ],
            [
              -74.70105,
              10.27445
            ],
            [
              -74.74943,
              10.3244
            ],
            [
              -74.85084,
              10.367
            ]
          ]
        ]
      },
      "properties": {
        "code": "47161",
        "departmentCode": "47",
        "name": "CERRO DE SAN ANTONIO",
        "resultType": "observed",
        "source": "dane-divipola-mgn-2025",
        "year": 2025
      }
    },
    {
      "type": "Feature",
      "id": 2263,
      "geometry": {
        "type": "Polygon",
        "coordinates": [
          [
            [
              -74.50895,
              10.02167
            ],
            [
              -74.48651,
              10.03328
            ],
            [
              -74.42669,
              10.01618
            ],
            [
              -74.40238,
              10.03414
            ],
            [
              -74.4145,
              10.04389
            ],
            [
              -74.38576,
              10.12732
            ],
            [
              -74.49541,
              10.23237
            ],
            [
              -74.55318,
              10.20576
            ],
            [
              -74.58702,
              10.21849
            ],
            [
              -74.59137,
              10.17449
            ],
            [
              -74.63687,
              10.14124
            ],
            [
              -74.62043,
              10.08497
            ],
            [
              -74.6473,
              10.07035
            ],
            [
              -74.64807,
              10.03707
            ],
            [
              -74.67243,
              10.05333
            ],
            [
              -74.66898,
              10.01814
            ],
            [
              -74.56421,
              9.96916
            ],
            [
              -74.55426,
              9.94788
            ],
            [
              -74.54883,
              10.02513
            ],
            [
              -74.50895,
              10.02167
            ]
          ]
        ]
      },
      "properties": {
        "code": "47170",
        "departmentCode": "47",
        "name": "CHIVOLO",
        "resultType": "observed",
        "source": "dane-divipola-mgn-2025",
        "year": 2025
      }
    },
    {
      "type": "Feature",
      "id": 2264,
      "geometry": {
        "type": "Polygon",
        "coordinates": [
          [
            [
              -73.76511,
              10.87562
            ],
            [
              -73.85801,
              10.86568
            ],
            [
              -73.88227,
              10.89494
            ],
            [
              -73.86458,
              10.93036
            ],
            [
              -73.86846,
              10.98888
            ],
            [
              -73.90858,
              10.99419
            ],
            [
              -73.91635,
              11.01335
            ],
            [
              -73.98435,
              11.01384
            ],
            [
              -74.00194,
              11.03601
            ],
            [
              -74.04157,
              11.03666
            ],
            [
              -74.04588,
              11.06404
            ],
            [
              -74.07739,
              11.05771
            ],
            [
              -74.12325,
              11.10559
            ],
            [
              -74.20966,
              11.08444
            ],
            [
              -74.26517,
              11.00652
            ],
            [
              -74.26137,
              10.91014
            ],
            [
              -74.2849,
              10.87449
            ],
            [
              -74.21849,
              10.86568
            ],
            [
              -74.22081,
              10.89529
            ],
            [
              -74.23831,
              10.89691
            ],
            [
              -74.21918,
              10.94637
            ],
            [
              -74.19452,
              10.95963
            ],
            [
              -74.15666,
              10.94692
            ],
            [
              -74.13596,
              10.85907
            ],
            [
              -74.10482,
              10.86926
            ],
            [
              -74.11365,
              10.82451
            ],
            [
              -74.10038,
              10.82403
            ],
            [
              -74.08666,
              10.75909
            ],
            [
              -74.13023,
              10.71196
            ],
            [
              -74.12108,
              10.68357
            ],
            [
              -74.15607,
              10.64477
            ],
            [
              -74.14066,
              10.62836
            ],
            [
              -74.11963,
              10.63296
            ],
            [
              -74.10267,
              10.60772
            ],
            [
              -74.08302,
              10.65295
            ],
            [
              -73.89822,
              10.75259
            ],
            [
              -73.82946,
              10.80739
            ],
            [
              -73.80798,
              10.8539
            ],
            [
              -73.76511,
              10.87562
            ]
          ]
        ]
      },
      "properties": {
        "code": "47189",
        "departmentCode": "47",
        "name": "CIÉNAGA",
        "resultType": "observed",
        "source": "dane-divipola-mgn-2025",
        "year": 2025
      }
    },
    {
      "type": "Feature",
      "id": 2265,
      "geometry": {
        "type": "Polygon",
        "coordinates": [
          [
            [
              -74.81188,
              10.27487
            ],
            [
              -74.84381,
              10.27116
            ],
            [
              -74.87644,
              10.21371
            ],
            [
              -74.82617,
              10.2346
            ],
            [
              -74.7539,
              10.18032
            ],
            [
              -74.72561,
              10.18708
            ],
            [
              -74.69269,
              10.22488
            ],
            [
              -74.7038,
              10.2452
            ],
            [
              -74.81188,
              10.27487
            ]
          ]
        ]
      },
      "properties": {
        "code": "47205",
        "departmentCode": "47",
        "name": "CONCORDIA",
        "resultType": "observed",
        "source": "dane-divipola-mgn-2025",
        "year": 2025
      }
    },
    {
      "type": "Feature",
      "id": 2266,
      "geometry": {
        "type": "Polygon",
        "coordinates": [
          [
            [
              -73.79896,
              9.05927
            ],
            [
              -73.87533,
              9.13054
            ],
            [
              -73.86662,
              9.18297
            ],
            [
              -73.89283,
              9.17359
            ],
            [
              -73.96203,
              9.18768
            ],
            [
              -73.94279,
              9.28956
            ],
            [
              -73.98557,
              9.31142
            ],
            [
              -73.9897,
              9.35112
            ],
            [
              -74.03593,
              9.29409
            ],
            [
              -74.04771,
              9.24196
            ],
            [
              -74.08719,
              9.21658
            ],
            [
              -74.10018,
              9.14839
            ],
            [
              -74.17818,
              9.08092
            ],
            [
              -74.15677,
              9.05701
            ],
            [
              -74.13466,
              9.0644
            ],
            [
              -74.11794,
              9.04888
            ],
            [
              -74.14069,
              9.0408
            ],
            [
              -74.13725,
              9.02863
            ],
            [
              -74.11328,
              9.041
            ],
            [
              -74.098,
              9.01582
            ],
            [
              -74.0571,
              9.01851
            ],
            [
              -74.03559,
              9.04439
            ],
            [
              -74.02835,
              9.02703
            ],
            [
              -74.00676,
              9.03183
            ],
            [
              -73.98501,
              9.01055
            ],
            [
              -74.00226,
              9.00973
            ],
            [
              -74.00184,
              8.99546
            ],
            [
              -73.90006,
              8.98072
            ],
            [
              -73.87039,
              8.96043
            ],
            [
              -73.86766,
              8.93649
            ],
            [
              -73.83219,
              8.97925
            ],
            [
              -73.82586,
              9.02258
            ],
            [
              -73.80825,
              9.02808
            ],
            [
              -73.79896,
              9.05927
            ]
          ]
        ]
      },
      "properties": {
        "code": "47245",
        "departmentCode": "47",
        "name": "EL BANCO",
        "resultType": "observed",
        "source": "dane-divipola-mgn-2025",
        "year": 2025
      }
    },
    {
      "type": "Feature",
      "id": 2267,
      "geometry": {
        "type": "Polygon",
        "coordinates": [
          [
            [
              -74.67476,
              10.46045
            ],
            [
              -74.68484,
              10.4709
            ],
            [
              -74.70519,
              10.45132
            ],
            [
              -74.80146,
              10.45742
            ],
            [
              -74.86513,
              10.36997
            ],
            [
              -74.74999,
              10.32481
            ],
            [
              -74.66705,
              10.23949
            ],
            [
              -74.64234,
              10.24703
            ],
            [
              -74.63292,
              10.23163
            ],
            [
              -74.5958,
              10.23187
            ],
            [
              -74.57592,
              10.20735
            ],
            [
              -74.55318,
              10.20576
            ],
            [
              -74.49541,
              10.23237
            ],
            [
              -74.5651,
              10.32551
            ],
            [
              -74.5656,
              10.35778
            ],
            [
              -74.6224,
              10.35574
            ],
            [
              -74.63096,
              10.4306
            ],
            [
              -74.67476,
              10.46045
            ]
          ]
        ]
      },
      "properties": {
        "code": "47258",
        "departmentCode": "47",
        "name": "EL PIÑÓN",
        "resultType": "observed",
        "source": "dane-divipola-mgn-2025",
        "year": 2025
      }
    },
    {
      "type": "Feature",
      "id": 2268,
      "geometry": {
        "type": "Polygon",
        "coordinates": [
          [
            [
              -74.38006,
              10.74207
            ],
            [
              -74.42623,
              10.728
            ],
            [
              -74.45019,
              10.67216
            ],
            [
              -74.43761,
              10.67758
            ],
            [
              -74.37431,
              10.62129
            ],
            [
              -74.2905,
              10.61942
            ],
            [
              -74.22011,
              10.53572
            ],
            [
              -74.18805,
              10.55409
            ],
            [
              -74.20143,
              10.60092
            ],
            [
              -74.22266,
              10.60338
            ],
            [
              -74.25375,
              10.64214
            ],
            [
              -74.2634,
              10.68352
            ],
            [
              -74.29127,
              10.70608
            ],
            [
              -74.31225,
              10.70146
            ],
            [
              -74.3557,
              10.76338
            ],
            [
              -74.37326,
              10.76677
            ],
            [
              -74.38006,
              10.74207
            ]
          ]
        ]
      },
      "properties": {
        "code": "47268",
        "departmentCode": "47",
        "name": "EL RETÉN",
        "resultType": "observed",
        "source": "dane-divipola-mgn-2025",
        "year": 2025
      }
    },
    {
      "type": "Feature",
      "id": 2269,
      "geometry": {
        "type": "Polygon",
        "coordinates": [
          [
            [
              -73.61674,
              10.64481
            ],
            [
              -73.65384,
              10.63992
            ],
            [
              -73.66315,
              10.60579
            ],
            [
              -73.80024,
              10.52457
            ],
            [
              -73.8597,
              10.51463
            ],
            [
              -73.86536,
              10.50118
            ],
            [
              -73.90961,
              10.51616
            ],
            [
              -73.93027,
              10.48577
            ],
            [
              -73.96558,
              10.48946
            ],
            [
              -73.98387,
              10.44739
            ],
            [
              -74.03106,
              10.42648
            ],
            [
              -74.08022,
              10.43738
            ],
            [
              -74.08807,
              10.46749
            ],
            [
              -74.13459,
              10.48481
            ],
            [
              -74.138,
              10.51154
            ],
            [
              -74.1725,
              10.50897
            ],
            [
              -74.18389,
              10.52781
            ],
            [
              -74.24599,
              10.54958
            ],
            [
              -74.2153,
              10.48913
            ],
            [
              -74.19494,
              10.47966
            ],
            [
              -74.17839,
              10.40506
            ],
            [
              -74.18732,
              10.39212
            ],
            [
              -74.16977,
              10.36582
            ],
            [
              -74.15796,
              10.35629
            ],
            [
              -74.11041,
              10.39318
            ],
            [
              -74.05718,
              10.32457
            ],
            [
              -74.04522,
              10.34583
            ],
            [
              -74.03313,
              10.33929
            ],
            [
              -74.00436,
              10.27896
            ],
            [
              -73.98506,
              10.27408
            ],
            [
              -73.96353,
              10.29044
            ],
            [
              -73.96132,
              10.33678
            ],
            [
              -73.91675,
              10.37861
            ],
            [
              -73.83052,
              10.40264
            ],
            [
              -73.81807,
              10.38512
            ],
            [
              -73.77903,
              10.39617
            ],
            [
              -73.74072,
              10.43575
            ],
            [
              -73.70417,
              10.43011
            ],
            [
              -73.70332,
              10.4636
            ],
            [
              -73.65226,
              10.46045
            ],
            [
              -73.63984,
              10.50077
            ],
            [
              -73.5631,
              10.50381
            ],
            [
              -73.57047,
              10.54178
            ],
            [
              -73.61343,
              10.56423
            ],
            [
              -73.59594,
              10.58512
            ],
            [
              -73.59536,
              10.63094
            ],
            [
              -73.61674,
              10.64481
            ]
          ]
        ]
      },
      "properties": {
        "code": "47288",
        "departmentCode": "47",
        "name": "FUNDACIÓN",
        "resultType": "observed",
        "source": "dane-divipola-mgn-2025",
        "year": 2025
      }
    },
    {
      "type": "Feature",
      "id": 2270,
      "geometry": {
        "type": "Polygon",
        "coordinates": [
          [
            [
              -74.04454,
              9.25686
            ],
            [
              -74.03593,
              9.29409
            ],
            [
              -73.99443,
              9.337
            ],
            [
              -73.982,
              9.38665
            ],
            [
              -74.06366,
              9.40322
            ],
            [
              -74.12401,
              9.33267
            ],
            [
              -74.17472,
              9.34191
            ],
            [
              -74.21424,
              9.31849
            ],
            [
              -74.20334,
              9.29313
            ],
            [
              -74.29971,
              9.20406
            ],
            [
              -74.29943,
              9.16167
            ],
            [
              -74.25018,
              9.16595
            ],
            [
              -74.22008,
              9.13613
            ],
            [
              -74.22759,
              9.12316
            ],
            [
              -74.17573,
              9.08802
            ],
            [
              -74.10018,
              9.14839
            ],
            [
              -74.08719,
              9.21658
            ],
            [
              -74.06264,
              9.22298
            ],
            [
              -74.04454,
              9.25686
            ]
          ]
        ]
      },
      "properties": {
        "code": "47318",
        "departmentCode": "47",
        "name": "GUAMAL",
        "resultType": "observed",
        "source": "dane-divipola-mgn-2025",
        "year": 2025
      }
    },
    {
      "type": "Feature",
      "id": 2271,
      "geometry": {
        "type": "Polygon",
        "coordinates": [
          [
            [
              -74.48112,
              9.83658
            ],
            [
              -74.42956,
              9.81192
            ],
            [
              -74.43816,
              9.78568
            ],
            [
              -74.41182,
              9.77098
            ],
            [
              -74.44236,
              9.67487
            ],
            [
              -74.42422,
              9.64511
            ],
            [
              -74.45533,
              9.62953
            ],
            [
              -74.45036,
              9.60905
            ],
            [
              -74.41125,
              9.58883
            ],
            [
              -74.38917,
              9.60388
            ],
            [
              -74.35981,
              9.56968
            ],
            [
              -74.30056,
              9.59499
            ],
            [
              -74.26963,
              9.56664
            ],
            [
              -74.19736,
              9.59205
            ],
            [
              -74.16769,
              9.67171
            ],
            [
              -74.19325,
              9.69808
            ],
            [
              -74.1986,
              9.72953
            ],
            [
              -74.26953,
              9.77519
            ],
            [
              -74.26856,
              9.8797
            ],
            [
              -74.3134,
              9.92287
            ],
            [
              -74.34918,
              9.93524
            ],
            [
              -74.36032,
              9.91014
            ],
            [
              -74.4004,
              9.95243
            ],
            [
              -74.41021,
              9.90186
            ],
            [
              -74.48112,
              9.83658
            ]
          ]
        ]
      },
      "properties": {
        "code": "47460",
        "departmentCode": "47",
        "name": "NUEVA GRANADA",
        "resultType": "observed",
        "source": "dane-divipola-mgn-2025",
        "year": 2025
      }
    },
    {
      "type": "Feature",
      "id": 2272,
      "geometry": {
        "type": "Polygon",
        "coordinates": [
          [
            [
              -74.91564,
              10.23833
            ],
            [
              -74.94371,
              10.12451
            ],
            [
              -74.85949,
              10.09117
            ],
            [
              -74.82512,
              10.05923
            ],
            [
              -74.75351,
              10.10384
            ],
            [
              -74.74483,
              10.16485
            ],
            [
              -74.68157,
              10.21063
            ],
            [
              -74.70401,
              10.22156
            ],
            [
              -74.70919,
              10.20005
            ],
            [
              -74.7539,
              10.18032
            ],
            [
              -74.82617,
              10.2346
            ],
            [
              -74.87927,
              10.2136
            ],
            [
              -74.91564,
              10.23833
            ]
          ]
        ]
      },
      "properties": {
        "code": "47541",
        "departmentCode": "47",
        "name": "PEDRAZA",
        "resultType": "observed",
        "source": "dane-divipola-mgn-2025",
        "year": 2025
      }
    },
    {
      "type": "Feature",
      "id": 2273,
      "geometry": {
        "type": "Polygon",
        "coordinates": [
          [
            [
              -73.94486,
              9.7235
            ],
            [
              -73.98547,
              9.72048
            ],
            [
              -73.98404,
              9.68496
            ],
            [
              -74.00351,
              9.6625
            ],
            [
              -74.02031,
              9.6749
            ],
            [
              -74.06194,
              9.66711
            ],
            [
              -74.06432,
              9.63816
            ],
            [
              -74.0858,
              9.63542
            ],
            [
              -74.13036,
              9.57683
            ],
            [
              -74.14554,
              9.58419
            ],
            [
              -74.17307,
              9.55583
            ],
            [
              -74.19772,
              9.56779
            ],
            [
              -74.24921,
              9.51888
            ],
            [
              -74.2793,
              9.51764
            ],
            [
              -74.2691,
              9.48153
            ],
            [
              -74.28461,
              9.43507
            ],
            [
              -74.33285,
              9.41705
            ],
            [
              -74.39102,
              9.4353
            ],
            [
              -74.43219,
              9.39415
            ],
            [
              -74.47548,
              9.4013
            ],
            [
              -74.4797,
              9.30313
            ],
            [
              -74.46518,
              9.32344
            ],
            [
              -74.33935,
              9.3459
            ],
            [
              -74.29915,
              9.36892
            ],
            [
              -74.22934,
              9.46005
            ],
            [
              -74.11941,
              9.504
            ],
            [
              -74.03674,
              9.59132
            ],
            [
              -74.00396,
              9.59536
            ],
            [
              -73.98926,
              9.57981
            ],
            [
              -73.8934,
              9.61643
            ],
            [
              -73.86789,
              9.601
            ],
            [
              -73.80326,
              9.63642
            ],
            [
              -73.80741,
              9.67202
            ],
            [
              -73.82565,
              9.68587
            ],
            [
              -73.83148,
              9.67194
            ],
            [
              -73.88381,
              9.65984
            ],
            [
              -73.92723,
              9.66322
            ],
            [
              -73.94486,
              9.7235
            ]
          ]
        ]
      },
      "properties": {
        "code": "47545",
        "departmentCode": "47",
        "name": "PIJIÑO DEL CARMEN",
        "resultType": "observed",
        "source": "dane-divipola-mgn-2025",
        "year": 2025
      }
    },
    {
      "type": "Feature",
      "id": 2274,
      "geometry": {
        "type": "Polygon",
        "coordinates": [
          [
            [
              -74.43698,
              10.67711
            ],
            [
              -74.44918,
              10.6722
            ],
            [
              -74.43463,
              10.62833
            ],
            [
              -74.45363,
              10.59519
            ],
            [
              -74.48848,
              10.56387
            ],
            [
              -74.54133,
              10.56065
            ],
            [
              -74.52883,
              10.54607
            ],
            [
              -74.54605,
              10.52813
            ],
            [
              -74.62416,
              10.53993
            ],
            [
              -74.63504,
              10.55974
            ],
            [
              -74.6682,
              10.56339
            ],
            [
              -74.65903,
              10.50645
            ],
            [
              -74.68478,
              10.47058
            ],
            [
              -74.63096,
              10.4306
            ],
            [
              -74.6224,
              10.35574
            ],
            [
              -74.5656,
              10.35778
            ],
            [
              -74.54967,
              10.29866
            ],
            [
              -74.46551,
              10.20289
            ],
            [
              -74.44879,
              10.21484
            ],
            [
              -74.45485,
              10.24805
            ],
            [
              -74.43971,
              10.24561
            ],
            [
              -74.43254,
              10.26435
            ],
            [
              -74.39614,
              10.24765
            ],
            [
              -74.37083,
              10.21227
            ],
            [
              -74.3477,
              10.21716
            ],
            [
              -74.35024,
              10.26061
            ],
            [
              -74.31185,
              10.24753
            ],
            [
              -74.30856,
              10.26675
            ],
            [
              -74.27018,
              10.26572
            ],
            [
              -74.28715,
              10.30312
            ],
            [
              -74.25666,
              10.29123
            ],
            [
              -74.22884,
              10.34656
            ],
            [
              -74.18015,
              10.383
            ],
            [
              -74.17839,
              10.40506
            ],
            [
              -74.19515,
              10.48014
            ],
            [
              -74.2153,
              10.48913
            ],
            [
              -74.27034,
              10.60318
            ],
            [
              -74.30579,
              10.6249
            ],
            [
              -74.37431,
              10.62129
            ],
            [
              -74.43698,
              10.67711
            ]
          ]
        ]
      },
      "properties": {
        "code": "47551",
        "departmentCode": "47",
        "name": "PIVIJAY",
        "resultType": "observed",
        "source": "dane-divipola-mgn-2025",
        "year": 2025
      }
    },
    {
      "type": "Feature",
      "id": 2275,
      "geometry": {
        "type": "Polygon",
        "coordinates": [
          [
            [
              -74.48122,
              9.83669
            ],
            [
              -74.41021,
              9.90186
            ],
            [
              -74.4004,
              9.95243
            ],
            [
              -74.44348,
              9.97699
            ],
            [
              -74.44166,
              10.0173
            ],
            [
              -74.48651,
              10.03328
            ],
            [
              -74.51457,
              10.01931
            ],
            [
              -74.54209,
              10.02949
            ],
            [
              -74.57169,
              9.88993
            ],
            [
              -74.69323,
              9.8892
            ],
            [
              -74.73341,
              9.86707
            ],
            [
              -74.74057,
              9.84586
            ],
            [
              -74.83937,
              9.81033
            ],
            [
              -74.8156,
              9.78989
            ],
            [
              -74.80523,
              9.76181
            ],
            [
              -74.81529,
              9.73117
            ],
            [
              -74.78765,
              9.69686
            ],
            [
              -74.80575,
              9.67553
            ],
            [
              -74.77697,
              9.62619
            ],
            [
              -74.77358,
              9.58727
            ],
            [
              -74.80706,
              9.54756
            ],
            [
              -74.77769,
              9.50758
            ],
            [
              -74.74862,
              9.55488
            ],
            [
              -74.72343,
              9.5433
            ],
            [
              -74.66171,
              9.57826
            ],
            [
              -74.65585,
              9.61093
            ],
            [
              -74.68686,
              9.62294
            ],
            [
              -74.68027,
              9.63468
            ],
            [
              -74.59901,
              9.66692
            ],
            [
              -74.56284,
              9.64159
            ],
            [
              -74.52152,
              9.56532
            ],
            [
              -74.50013,
              9.61006
            ],
            [
              -74.47711,
              9.62099
            ],
            [
              -74.45036,
              9.60905
            ],
            [
              -74.45533,
              9.62953
            ],
            [
              -74.42422,
              9.64511
            ],
            [
              -74.44236,
              9.67487
            ],
            [
              -74.41182,
              9.77098
            ],
            [
              -74.43816,
              9.78568
            ],
            [
              -74.42956,
              9.81192
            ],
            [
              -74.48122,
              9.83669
            ]
          ]
        ]
      },
      "properties": {
        "code": "47555",
        "departmentCode": "47",
        "name": "PLATO",
        "resultType": "observed",
        "source": "dane-divipola-mgn-2025",
        "year": 2025
      }
    },
    {
      "type": "Feature",
      "id": 2276,
      "geometry": {
        "type": "Polygon",
        "coordinates": [
          [
            [
              -74.26517,
              11.00652
            ],
            [
              -74.35084,
              10.97604
            ],
            [
              -74.48479,
              10.98096
            ],
            [
              -74.48282,
              10.84173
            ],
            [
              -74.46171,
              10.80159
            ],
            [
              -74.45729,
              10.72668
            ],
            [
              -74.3881,
              10.73822
            ],
            [
              -74.36722,
              10.76799
            ],
            [
              -74.31225,
              10.70146
            ],
            [
              -74.29127,
              10.70608
            ],
            [
              -74.25777,
              10.66501
            ],
            [
              -74.22373,
              10.65765
            ],
            [
              -74.21959,
              10.69292
            ],
            [
              -74.23994,
              10.69707
            ],
            [
              -74.24874,
              10.73534
            ],
            [
              -74.24677,
              10.78456
            ],
            [
              -74.26863,
              10.80224
            ],
            [
              -74.26624,
              10.86713
            ],
            [
              -74.2849,
              10.87449
            ],
            [
              -74.26137,
              10.91014
            ],
            [
              -74.26517,
              11.00652
            ]
          ]
        ]
      },
      "properties": {
        "code": "47570",
        "departmentCode": "47",
        "name": "PUEBLOVIEJO",
        "resultType": "observed",
        "source": "dane-divipola-mgn-2025",
        "year": 2025
      }
    },
    {
      "type": "Feature",
      "id": 2277,
      "geometry": {
        "type": "Polygon",
        "coordinates": [
          [
            [
              -74.4869,
              10.74914
            ],
            [
              -74.59349,
              10.74071
            ],
            [
              -74.60207,
              10.7233
            ],
            [
              -74.63363,
              10.71864
            ],
            [
              -74.64,
              10.73187
            ],
            [
              -74.72596,
              10.72777
            ],
            [
              -74.72364,
              10.66699
            ],
            [
              -74.74706,
              10.6492
            ],
            [
              -74.72615,
              10.60123
            ],
            [
              -74.66896,
              10.59528
            ],
            [
              -74.66002,
              10.55688
            ],
            [
              -74.63504,
              10.55974
            ],
            [
              -74.62334,
              10.53971
            ],
            [
              -74.5607,
              10.5396
            ],
            [
              -74.5592,
              10.52339
            ],
            [
              -74.52894,
              10.54583
            ],
            [
              -74.53353,
              10.56546
            ],
            [
              -74.51285,
              10.55537
            ],
            [
              -74.48442,
              10.56563
            ],
            [
              -74.4348,
              10.62762
            ],
            [
              -74.45129,
              10.68402
            ],
            [
              -74.42756,
              10.72254
            ],
            [
              -74.47301,
              10.71921
            ],
            [
              -74.46588,
              10.73993
            ],
            [
              -74.4869,
              10.74914
            ]
          ]
        ]
      },
      "properties": {
        "code": "47605",
        "departmentCode": "47",
        "name": "REMOLINO",
        "resultType": "observed",
        "source": "dane-divipola-mgn-2025",
        "year": 2025
      }
    },
    {
      "type": "Feature",
      "id": 2278,
      "geometry": {
        "type": "Polygon",
        "coordinates": [
          [
            [
              -74.08572,
              10.06638
            ],
            [
              -74.11404,
              10.12368
            ],
            [
              -74.12741,
              10.20656
            ],
            [
              -74.1964,
              10.18632
            ],
            [
              -74.21302,
              10.19663
            ],
            [
              -74.18439,
              10.31311
            ],
            [
              -74.15796,
              10.35629
            ],
            [
              -74.18092,
              10.38372
            ],
            [
              -74.22884,
              10.34656
            ],
            [
              -74.25666,
              10.29123
            ],
            [
              -74.28715,
              10.30312
            ],
            [
              -74.27018,
              10.26572
            ],
            [
              -74.30856,
              10.26675
            ],
            [
              -74.30905,
              10.2478
            ],
            [
              -74.35543,
              10.25704
            ],
            [
              -74.34054,
              10.24286
            ],
            [
              -74.3482,
              10.21668
            ],
            [
              -74.37352,
              10.21311
            ],
            [
              -74.41726,
              10.26364
            ],
            [
              -74.45485,
              10.24805
            ],
            [
              -74.44879,
              10.21484
            ],
            [
              -74.46551,
              10.20289
            ],
            [
              -74.38576,
              10.12732
            ],
            [
              -74.4145,
              10.04389
            ],
            [
              -74.40238,
              10.03414
            ],
            [
              -74.44166,
              10.0173
            ],
            [
              -74.44422,
              9.97852
            ],
            [
              -74.36069,
              9.9103
            ],
            [
              -74.34918,
              9.93524
            ],
            [
              -74.33444,
              9.93455
            ],
            [
              -74.26856,
              9.8797
            ],
            [
              -74.25217,
              9.96443
            ],
            [
              -74.22815,
              9.98479
            ],
            [
              -74.18605,
              9.99186
            ],
            [
              -74.15447,
              9.97699
            ],
            [
              -74.1348,
              9.94512
            ],
            [
              -74.1303,
              9.96524
            ],
            [
              -74.10513,
              9.9665
            ],
            [
              -74.09221,
              9.98573
            ],
            [
              -74.06013,
              9.98082
            ],
            [
              -74.03507,
              10.00274
            ],
            [
              -74.08572,
              10.06638
            ]
          ]
        ]
      },
      "properties": {
        "code": "47660",
        "departmentCode": "47",
        "name": "SABANAS DE SAN ÁNGEL",
        "resultType": "observed",
        "source": "dane-divipola-mgn-2025",
        "year": 2025
      }
    },
    {
      "type": "Feature",
      "id": 2279,
      "geometry": {
        "type": "Polygon",
        "coordinates": [
          [
            [
              -74.71992,
              10.5948
            ],
            [
              -74.73821,
              10.58208
            ],
            [
              -74.73892,
              10.5423
            ],
            [
              -74.7984,
              10.49617
            ],
            [
              -74.81198,
              10.45092
            ],
            [
              -74.70519,
              10.45132
            ],
            [
              -74.66074,
              10.50218
            ],
            [
              -74.66896,
              10.59528
            ],
            [
              -74.71992,
              10.5948
            ]
          ]
        ]
      },
      "properties": {
        "code": "47675",
        "departmentCode": "47",
        "name": "SALAMINA",
        "resultType": "observed",
        "source": "dane-divipola-mgn-2025",
        "year": 2025
      }
    },
    {
      "type": "Feature",
      "id": 2280,
      "geometry": {
        "type": "Polygon",
        "coordinates": [
          [
            [
              -74.14075,
              9.49377
            ],
            [
              -74.18644,
              9.48395
            ],
            [
              -74.19373,
              9.44592
            ],
            [
              -74.24343,
              9.37734
            ],
            [
              -74.24375,
              9.34967
            ],
            [
              -74.39605,
              9.23054
            ],
            [
              -74.41785,
              9.23619
            ],
            [
              -74.40398,
              9.21447
            ],
            [
              -74.3489,
              9.23328
            ],
            [
              -74.29971,
              9.20406
            ],
            [
              -74.2366,
              9.2494
            ],
            [
              -74.20334,
              9.29313
            ],
            [
              -74.21424,
              9.31849
            ],
            [
              -74.17493,
              9.34181
            ],
            [
              -74.12401,
              9.33267
            ],
            [
              -74.06366,
              9.40322
            ],
            [
              -73.99518,
              9.38107
            ],
            [
              -73.97809,
              9.38938
            ],
            [
              -74.14075,
              9.49377
            ]
          ]
        ]
      },
      "properties": {
        "code": "47692",
        "departmentCode": "47",
        "name": "SAN SEBASTIÁN DE BUENAVISTA",
        "resultType": "observed",
        "source": "dane-divipola-mgn-2025",
        "year": 2025
      }
    },
    {
      "type": "Feature",
      "id": 2281,
      "geometry": {
        "type": "Polygon",
        "coordinates": [
          [
            [
              -74.18644,
              9.48395
            ],
            [
              -74.22934,
              9.46005
            ],
            [
              -74.29915,
              9.36892
            ],
            [
              -74.33935,
              9.3459
            ],
            [
              -74.46518,
              9.32344
            ],
            [
              -74.4811,
              9.29394
            ],
            [
              -74.51087,
              9.29415
            ],
            [
              -74.53056,
              9.24197
            ],
            [
              -74.51086,
              9.23405
            ],
            [
              -74.46857,
              9.26879
            ],
            [
              -74.43557,
              9.27429
            ],
            [
              -74.41991,
              9.23792
            ],
            [
              -74.39605,
              9.23054
            ],
            [
              -74.24375,
              9.34967
            ],
            [
              -74.24343,
              9.37734
            ],
            [
              -74.19373,
              9.44592
            ],
            [
              -74.18644,
              9.48395
            ]
          ]
        ]
      },
      "properties": {
        "code": "47703",
        "departmentCode": "47",
        "name": "SAN ZENÓN",
        "resultType": "observed",
        "source": "dane-divipola-mgn-2025",
        "year": 2025
      }
    },
    {
      "type": "Feature",
      "id": 2282,
      "geometry": {
        "type": "Polygon",
        "coordinates": [
          [
            [
              -73.96571,
              9.75081
            ],
            [
              -74.08519,
              9.71001
            ],
            [
              -74.11142,
              9.6739
            ],
            [
              -74.15423,
              9.65197
            ],
            [
              -74.19736,
              9.59205
            ],
            [
              -74.2684,
              9.56679
            ],
            [
              -74.29503,
              9.59457
            ],
            [
              -74.35981,
              9.56968
            ],
            [
              -74.38917,
              9.60388
            ],
            [
              -74.41125,
              9.58883
            ],
            [
              -74.47711,
              9.62099
            ],
            [
              -74.50013,
              9.61006
            ],
            [
              -74.53659,
              9.51675
            ],
            [
              -74.56017,
              9.51246
            ],
            [
              -74.55717,
              9.48827
            ],
            [
              -74.57581,
              9.48967
            ],
            [
              -74.59631,
              9.46374
            ],
            [
              -74.5954,
              9.4385
            ],
            [
              -74.62789,
              9.39027
            ],
            [
              -74.65592,
              9.38392
            ],
            [
              -74.62151,
              9.37476
            ],
            [
              -74.61562,
              9.34133
            ],
            [
              -74.5662,
              9.31488
            ],
            [
              -74.5232,
              9.25813
            ],
            [
              -74.51087,
              9.29415
            ],
            [
              -74.4793,
              9.2958
            ],
            [
              -74.47548,
              9.4013
            ],
            [
              -74.43219,
              9.39415
            ],
            [
              -74.39102,
              9.4353
            ],
            [
              -74.33285,
              9.41705
            ],
            [
              -74.28414,
              9.43537
            ],
            [
              -74.2691,
              9.48153
            ],
            [
              -74.2793,
              9.51764
            ],
            [
              -74.24921,
              9.51888
            ],
            [
              -74.19772,
              9.56779
            ],
            [
              -74.17307,
              9.55583
            ],
            [
              -74.14554,
              9.58419
            ],
            [
              -74.13036,
              9.57683
            ],
            [
              -74.0858,
              9.63542
            ],
            [
              -74.06432,
              9.63816
            ],
            [
              -74.06156,
              9.66741
            ],
            [
              -74.02031,
              9.6749
            ],
            [
              -74.00351,
              9.6625
            ],
            [
              -73.98404,
              9.68496
            ],
            [
              -73.98547,
              9.72048
            ],
            [
              -73.94492,
              9.73226
            ],
            [
              -73.92723,
              9.66322
            ],
            [
              -73.88381,
              9.65984
            ],
            [
              -73.83148,
              9.67194
            ],
            [
              -73.82648,
              9.68593
            ],
            [
              -73.8099,
              9.67459
            ],
            [
              -73.81757,
              9.71051
            ],
            [
              -73.84462,
              9.73919
            ],
            [
              -73.86587,
              9.72466
            ],
            [
              -73.96571,
              9.75081
            ]
          ]
        ]
      },
      "properties": {
        "code": "47707",
        "departmentCode": "47",
        "name": "SANTA ANA",
        "resultType": "observed",
        "source": "dane-divipola-mgn-2025",
        "year": 2025
      }
    },
    {
      "type": "Feature",
      "id": 2283,
      "geometry": {
        "type": "Polygon",
        "coordinates": [
          [
            [
              -74.58917,
              9.66437
            ],
            [
              -74.68027,
              9.63468
            ],
            [
              -74.68686,
              9.62294
            ],
            [
              -74.65585,
              9.61093
            ],
            [
              -74.66171,
              9.57826
            ],
            [
              -74.72343,
              9.5433
            ],
            [
              -74.74901,
              9.55458
            ],
            [
              -74.80677,
              9.4653
            ],
            [
              -74.80283,
              9.44367
            ],
            [
              -74.75916,
              9.4626
            ],
            [
              -74.73207,
              9.41883
            ],
            [
              -74.69867,
              9.42682
            ],
            [
              -74.65833,
              9.38497
            ],
            [
              -74.62789,
              9.39027
            ],
            [
              -74.5954,
              9.4385
            ],
            [
              -74.59631,
              9.46374
            ],
            [
              -74.57581,
              9.48967
            ],
            [
              -74.55717,
              9.48827
            ],
            [
              -74.56017,
              9.51246
            ],
            [
              -74.54183,
              9.51019
            ],
            [
              -74.52567,
              9.53486
            ],
            [
              -74.53448,
              9.60409
            ],
            [
              -74.58917,
              9.66437
            ]
          ]
        ]
      },
      "properties": {
        "code": "47720",
        "departmentCode": "47",
        "name": "SANTA BÁRBARA DE PINTO",
        "resultType": "observed",
        "source": "dane-divipola-mgn-2025",
        "year": 2025
      }
    },
    {
      "type": "Feature",
      "id": 2284,
      "geometry": {
        "type": "Polygon",
        "coordinates": [
          [
            [
              -74.48442,
              10.96778
            ],
            [
              -74.48479,
              10.98096
            ],
            [
              -74.61947,
              11.01557
            ],
            [
              -74.85186,
              11.10537
            ],
            [
              -74.83905,
              11.0587
            ],
            [
              -74.76867,
              11.00197
            ],
            [
              -74.75385,
              10.93613
            ],
            [
              -74.71843,
              10.90938
            ],
            [
              -74.7365,
              10.88876
            ],
            [
              -74.7416,
              10.84195
            ],
            [
              -74.72596,
              10.72777
            ],
            [
              -74.64,
              10.73187
            ],
            [
              -74.63363,
              10.71864
            ],
            [
              -74.60207,
              10.7233
            ],
            [
              -74.59349,
              10.74071
            ],
            [
              -74.49806,
              10.75261
            ],
            [
              -74.46748,
              10.74253
            ],
            [
              -74.47301,
              10.71921
            ],
            [
              -74.4277,
              10.72297
            ],
            [
              -74.45798,
              10.72906
            ],
            [
              -74.46171,
              10.80159
            ],
            [
              -74.48282,
              10.84173
            ],
            [
              -74.48442,
              10.96778
            ]
          ]
        ]
      },
      "properties": {
        "code": "47745",
        "departmentCode": "47",
        "name": "SITIONUEVO",
        "resultType": "observed",
        "source": "dane-divipola-mgn-2025",
        "year": 2025
      }
    },
    {
      "type": "Feature",
      "id": 2285,
      "geometry": {
        "type": "Polygon",
        "coordinates": [
          [
            [
              -74.5602,
              9.9537
            ],
            [
              -74.56421,
              9.96916
            ],
            [
              -74.66133,
              10.01187
            ],
            [
              -74.70425,
              10.01641
            ],
            [
              -74.74386,
              9.99935
            ],
            [
              -74.76335,
              10.01818
            ],
            [
              -74.7892,
              10.01425
            ],
            [
              -74.82039,
              9.96733
            ],
            [
              -74.8733,
              9.93567
            ],
            [
              -74.88096,
              9.86522
            ],
            [
              -74.83937,
              9.81033
            ],
            [
              -74.74057,
              9.84586
            ],
            [
              -74.73341,
              9.86707
            ],
            [
              -74.69323,
              9.8892
            ],
            [
              -74.57169,
              9.88993
            ],
            [
              -74.5602,
              9.9537
            ]
          ]
        ]
      },
      "properties": {
        "code": "47798",
        "departmentCode": "47",
        "name": "TENERIFE",
        "resultType": "observed",
        "source": "dane-divipola-mgn-2025",
        "year": 2025
      }
    },
    {
      "type": "Feature",
      "id": 2286,
      "geometry": {
        "type": "Polygon",
        "coordinates": [
          [
            [
              -74.68917,
              10.25487
            ],
            [
              -74.70105,
              10.27445
            ],
            [
              -74.71608,
              10.24891
            ],
            [
              -74.68192,
              10.20925
            ],
            [
              -74.74483,
              10.16485
            ],
            [
              -74.75002,
              10.10815
            ],
            [
              -74.82512,
              10.05923
            ],
            [
              -74.78207,
              10.00625
            ],
            [
              -74.76335,
              10.01818
            ],
            [
              -74.74403,
              9.99936
            ],
            [
              -74.70425,
              10.01641
            ],
            [
              -74.66191,
              10.01097
            ],
            [
              -74.67243,
              10.05333
            ],
            [
              -74.64807,
              10.03707
            ],
            [
              -74.6473,
              10.07035
            ],
            [
              -74.62004,
              10.08596
            ],
            [
              -74.63687,
              10.14124
            ],
            [
              -74.59137,
              10.17449
            ],
            [
              -74.58696,
              10.21901
            ],
            [
              -74.68917,
              10.25487
            ]
          ]
        ]
      },
      "properties": {
        "code": "47960",
        "departmentCode": "47",
        "name": "ZAPAYÁN",
        "resultType": "observed",
        "source": "dane-divipola-mgn-2025",
        "year": 2025
      }
    },
    {
      "type": "Feature",
      "id": 2287,
      "geometry": {
        "type": "Polygon",
        "coordinates": [
          [
            [
              -74.15155,
              10.63727
            ],
            [
              -74.12108,
              10.68357
            ],
            [
              -74.13023,
              10.71196
            ],
            [
              -74.08666,
              10.75909
            ],
            [
              -74.10038,
              10.82403
            ],
            [
              -74.11365,
              10.82451
            ],
            [
              -74.10489,
              10.86944
            ],
            [
              -74.13524,
              10.85813
            ],
            [
              -74.15666,
              10.94692
            ],
            [
              -74.19503,
              10.95959
            ],
            [
              -74.21918,
              10.94637
            ],
            [
              -74.2252,
              10.90478
            ],
            [
              -74.2379,
              10.9059
            ],
            [
              -74.22081,
              10.89529
            ],
            [
              -74.21849,
              10.86568
            ],
            [
              -74.27108,
              10.87168
            ],
            [
              -74.27291,
              10.84162
            ],
            [
              -74.25893,
              10.8326
            ],
            [
              -74.26863,
              10.80224
            ],
            [
              -74.24706,
              10.78546
            ],
            [
              -74.24874,
              10.73534
            ],
            [
              -74.23994,
              10.69707
            ],
            [
              -74.21959,
              10.69292
            ],
            [
              -74.21942,
              10.66098
            ],
            [
              -74.15155,
              10.63727
            ]
          ]
        ]
      },
      "properties": {
        "code": "47980",
        "departmentCode": "47",
        "name": "ZONA BANANERA",
        "resultType": "observed",
        "source": "dane-divipola-mgn-2025",
        "year": 2025
      }
    }
  ]
}
