{
  "type": "FeatureCollection",
  "metadata": {
    "source": "DANE DIVIPOLA MGN 2025",
    "downloadedAt": "2026-07-27T01:49:40Z",
    "crs": "EPSG:4326",
    "simplification": "ArcGIS maxAllowableOffset=0.01 grados y geometryPrecision=5; solo visualización web"
  },
  "features": [
    {
      "type": "Feature",
      "id": 2421,
      "geometry": {
        "type": "Polygon",
        "coordinates": [
          [
            [
              -75.68886,
              4.49937
            ],
            [
              -75.63267,
              4.56993
            ],
            [
              -75.64251,
              4.58841
            ],
            [
              -75.67451,
              4.55135
            ],
            [
              -75.76839,
              4.5347
            ],
            [
              -75.7971,
              4.47849
            ],
            [
              -75.74275,
              4.48906
            ],
            [
              -75.77062,
              4.47217
            ],
            [
              -75.77695,
              4.44957
            ],
            [
              -75.75759,
              4.44718
            ],
            [
              -75.7791,
              4.39946
            ],
            [
              -75.75772,
              4.40239
            ],
            [
              -75.68886,
              4.49937
            ]
          ]
        ]
      },
      "properties": {
        "code": "63001",
        "departmentCode": "63",
        "name": "ARMENIA",
        "originalCode": "001",
        "originalName": "ARMENIA",
        "type": "MUNICIPIO",
        "areaName": 121.24894658,
        "creationYear": 2025,
        "creationResolution": "1889",
        "resultType": "observed",
        "source": "dane-divipola-mgn-2025",
        "year": 2025,
        "MPIO_TIPO": "MUNICIPIO",
        "unitType": "municipio",
        "MPIO_NAREA": 121.24894658,
        "MPIO_NANO": 2025,
        "MPIO_CRSLCION": "1889"
      }
    },
    {
      "type": "Feature",
      "id": 2422,
      "geometry": {
        "type": "Polygon",
        "coordinates": [
          [
            [
              -75.72799,
              4.40562
            ],
            [
              -75.75707,
              4.39529
            ],
            [
              -75.78375,
              4.34717
            ],
            [
              -75.74786,
              4.33381
            ],
            [
              -75.71629,
              4.34507
            ],
            [
              -75.72799,
              4.40562
            ]
          ]
        ]
      },
      "properties": {
        "code": "63111",
        "departmentCode": "63",
        "name": "BUENAVISTA",
        "originalCode": "111",
        "originalName": "BUENAVISTA",
        "type": "MUNICIPIO",
        "areaName": 38.26465713,
        "creationYear": 2025,
        "creationResolution": "Ordenanza 29 de Diciembre 10 de 1966",
        "resultType": "observed",
        "source": "dane-divipola-mgn-2025",
        "year": 2025,
        "MPIO_TIPO": "MUNICIPIO",
        "unitType": "municipio",
        "MPIO_NAREA": 38.26465713,
        "MPIO_NANO": 2025,
        "MPIO_CRSLCION": "Ordenanza 29 de Diciembre 10 de 1966"
      }
    },
    {
      "type": "Feature",
      "id": 2423,
      "geometry": {
        "type": "Polygon",
        "coordinates": [
          [
            [
              -75.68909,
              4.4992
            ],
            [
              -75.76357,
              4.39634
            ],
            [
              -75.80315,
              4.39607
            ],
            [
              -75.7925,
              4.33665
            ],
            [
              -75.78033,
              4.36553
            ],
            [
              -75.75549,
              4.37797
            ],
            [
              -75.75707,
              4.39529
            ],
            [
              -75.70471,
              4.42944
            ],
            [
              -75.65006,
              4.41912
            ],
            [
              -75.60067,
              4.43159
            ],
            [
              -75.58753,
              4.42011
            ],
            [
              -75.55549,
              4.47218
            ],
            [
              -75.61804,
              4.56902
            ],
            [
              -75.68219,
              4.52377
            ],
            [
              -75.68909,
              4.4992
            ]
          ]
        ]
      },
      "properties": {
        "code": "63130",
        "departmentCode": "63",
        "name": "CALARCÁ",
        "originalCode": "130",
        "originalName": "CALARCÁ",
        "type": "MUNICIPIO",
        "areaName": 220.04465041,
        "creationYear": 2025,
        "creationResolution": "1905",
        "resultType": "observed",
        "source": "dane-divipola-mgn-2025",
        "year": 2025,
        "MPIO_TIPO": "MUNICIPIO",
        "unitType": "municipio",
        "MPIO_NAREA": 220.04465041,
        "MPIO_NANO": 2025,
        "MPIO_CRSLCION": "1905"
      }
    },
    {
      "type": "Feature",
      "id": 2424,
      "geometry": {
        "type": "Polygon",
        "coordinates": [
          [
            [
              -75.59921,
              4.67574
            ],
            [
              -75.65776,
              4.65282
            ],
            [
              -75.73096,
              4.58597
            ],
            [
              -75.71855,
              4.55059
            ],
            [
              -75.74099,
              4.53959
            ],
            [
              -75.66994,
              4.55406
            ],
            [
              -75.59571,
              4.65894
            ],
            [
              -75.59921,
              4.67574
            ]
          ]
        ]
      },
      "properties": {
        "code": "63190",
        "departmentCode": "63",
        "name": "CIRCASIA",
        "originalCode": "190",
        "originalName": "CIRCASIA",
        "type": "MUNICIPIO",
        "areaName": 90.68949358,
        "creationYear": 2025,
        "creationResolution": "1907",
        "resultType": "observed",
        "source": "dane-divipola-mgn-2025",
        "year": 2025,
        "MPIO_TIPO": "MUNICIPIO",
        "unitType": "municipio",
        "MPIO_NAREA": 90.68949358,
        "MPIO_NANO": 2025,
        "MPIO_CRSLCION": "1907"
      }
    },
    {
      "type": "Feature",
      "id": 2425,
      "geometry": {
        "type": "Polygon",
        "coordinates": [
          [
            [
              -75.59235,
              4.4236
            ],
            [
              -75.70471,
              4.42944
            ],
            [
              -75.72799,
              4.40562
            ],
            [
              -75.68695,
              4.35747
            ],
            [
              -75.64643,
              4.36261
            ],
            [
              -75.63193,
              4.38122
            ],
            [
              -75.59332,
              4.36197
            ],
            [
              -75.57893,
              4.40863
            ],
            [
              -75.59235,
              4.4236
            ]
          ]
        ]
      },
      "properties": {
        "code": "63212",
        "departmentCode": "63",
        "name": "CÓRDOBA",
        "originalCode": "212",
        "originalName": "CÓRDOBA",
        "type": "MUNICIPIO",
        "areaName": 93.8003141,
        "creationYear": 2025,
        "creationResolution": "Ordenanza 22 de 1966",
        "resultType": "observed",
        "source": "dane-divipola-mgn-2025",
        "year": 2025,
        "MPIO_TIPO": "MUNICIPIO",
        "unitType": "municipio",
        "MPIO_NAREA": 93.8003141,
        "MPIO_NANO": 2025,
        "MPIO_CRSLCION": "Ordenanza 22 de 1966"
      }
    },
    {
      "type": "Feature",
      "id": 2426,
      "geometry": {
        "type": "Polygon",
        "coordinates": [
          [
            [
              -75.56453,
              4.70106
            ],
            [
              -75.65979,
              4.69989
            ],
            [
              -75.70304,
              4.72133
            ],
            [
              -75.71361,
              4.71376
            ],
            [
              -75.70724,
              4.65708
            ],
            [
              -75.74094,
              4.65472
            ],
            [
              -75.74733,
              4.61845
            ],
            [
              -75.73009,
              4.60838
            ],
            [
              -75.70664,
              4.62514
            ],
            [
              -75.69747,
              4.60654
            ],
            [
              -75.65776,
              4.65282
            ],
            [
              -75.56453,
              4.70106
            ]
          ]
        ]
      },
      "properties": {
        "code": "63272",
        "departmentCode": "63",
        "name": "FILANDIA",
        "originalCode": "272",
        "originalName": "FILANDIA",
        "type": "MUNICIPIO",
        "areaName": 106.55858967,
        "creationYear": 2025,
        "creationResolution": "1878",
        "resultType": "observed",
        "source": "dane-divipola-mgn-2025",
        "year": 2025,
        "MPIO_TIPO": "MUNICIPIO",
        "unitType": "municipio",
        "MPIO_NAREA": 106.55858967,
        "MPIO_NANO": 2025,
        "MPIO_CRSLCION": "1878"
      }
    },
    {
      "type": "Feature",
      "id": 2427,
      "geometry": {
        "type": "Polygon",
        "coordinates": [
          [
            [
              -75.66122,
              4.22424
            ],
            [
              -75.69777,
              4.24196
            ],
            [
              -75.73028,
              4.22877
            ],
            [
              -75.75681,
              4.2482
            ],
            [
              -75.74575,
              4.28393
            ],
            [
              -75.79488,
              4.31077
            ],
            [
              -75.78749,
              4.29297
            ],
            [
              -75.84201,
              4.15555
            ],
            [
              -75.83904,
              4.09757
            ],
            [
              -75.75273,
              4.07714
            ],
            [
              -75.73311,
              4.11414
            ],
            [
              -75.69127,
              4.13894
            ],
            [
              -75.68806,
              4.16738
            ],
            [
              -75.65619,
              4.2005
            ],
            [
              -75.66122,
              4.22424
            ]
          ]
        ]
      },
      "properties": {
        "code": "63302",
        "departmentCode": "63",
        "name": "GÉNOVA",
        "originalCode": "302",
        "originalName": "GÉNOVA",
        "type": "MUNICIPIO",
        "areaName": 295.69497441,
        "creationYear": 2025,
        "creationResolution": "Ordenanza 10 de Junio 16 de 1937",
        "resultType": "observed",
        "source": "dane-divipola-mgn-2025",
        "year": 2025,
        "MPIO_TIPO": "MUNICIPIO",
        "unitType": "municipio",
        "MPIO_NAREA": 295.69497441,
        "MPIO_NANO": 2025,
        "MPIO_CRSLCION": "Ordenanza 10 de Junio 16 de 1937"
      }
    },
    {
      "type": "Feature",
      "id": 2428,
      "geometry": {
        "type": "Polygon",
        "coordinates": [
          [
            [
              -75.88588,
              4.41133
            ],
            [
              -75.77465,
              4.39621
            ],
            [
              -75.7834,
              4.40945
            ],
            [
              -75.75757,
              4.4476
            ],
            [
              -75.77695,
              4.44957
            ],
            [
              -75.77062,
              4.47217
            ],
            [
              -75.74275,
              4.48906
            ],
            [
              -75.7971,
              4.47849
            ],
            [
              -75.81983,
              4.45194
            ],
            [
              -75.86527,
              4.46241
            ],
            [
              -75.88818,
              4.44654
            ],
            [
              -75.88588,
              4.41133
            ]
          ]
        ]
      },
      "properties": {
        "code": "63401",
        "departmentCode": "63",
        "name": "LA TEBAIDA",
        "originalCode": "401",
        "originalName": "LA TEBAIDA",
        "type": "MUNICIPIO",
        "areaName": 89.38531537,
        "creationYear": 2025,
        "creationResolution": "Decreto 547 de Julio 23 de 1954",
        "resultType": "observed",
        "source": "dane-divipola-mgn-2025",
        "year": 2025,
        "MPIO_TIPO": "MUNICIPIO",
        "unitType": "municipio",
        "MPIO_NAREA": 89.38531537,
        "MPIO_NANO": 2025,
        "MPIO_CRSLCION": "Decreto 547 de Julio 23 de 1954"
      }
    },
    {
      "type": "Feature",
      "id": 2429,
      "geometry": {
        "type": "Polygon",
        "coordinates": [
          [
            [
              -75.74093,
              4.53956
            ],
            [
              -75.71853,
              4.55069
            ],
            [
              -75.73519,
              4.58169
            ],
            [
              -75.78219,
              4.56242
            ],
            [
              -75.86339,
              4.57875
            ],
            [
              -75.8813,
              4.52762
            ],
            [
              -75.87058,
              4.51787
            ],
            [
              -75.87891,
              4.46063
            ],
            [
              -75.81412,
              4.45441
            ],
            [
              -75.78476,
              4.48387
            ],
            [
              -75.76837,
              4.53473
            ],
            [
              -75.74093,
              4.53956
            ]
          ]
        ]
      },
      "properties": {
        "code": "63470",
        "departmentCode": "63",
        "name": "MONTENEGRO",
        "originalCode": "470",
        "originalName": "MONTENEGRO",
        "type": "MUNICIPIO",
        "areaName": 149.26024283,
        "creationYear": 2025,
        "creationResolution": "Ordenanza 14 de Abril 4 de 1914",
        "resultType": "observed",
        "source": "dane-divipola-mgn-2025",
        "year": 2025,
        "MPIO_TIPO": "MUNICIPIO",
        "unitType": "municipio",
        "MPIO_NAREA": 149.26024283,
        "MPIO_NANO": 2025,
        "MPIO_CRSLCION": "Ordenanza 14 de Abril 4 de 1914"
      }
    },
    {
      "type": "Feature",
      "id": 2430,
      "geometry": {
        "type": "Polygon",
        "coordinates": [
          [
            [
              -75.59332,
              4.36197
            ],
            [
              -75.63193,
              4.38122
            ],
            [
              -75.64643,
              4.36261
            ],
            [
              -75.68695,
              4.35747
            ],
            [
              -75.71648,
              4.37698
            ],
            [
              -75.71824,
              4.34325
            ],
            [
              -75.75103,
              4.3341
            ],
            [
              -75.77707,
              4.35146
            ],
            [
              -75.79717,
              4.31308
            ],
            [
              -75.74575,
              4.28393
            ],
            [
              -75.75681,
              4.2482
            ],
            [
              -75.73028,
              4.22877
            ],
            [
              -75.69777,
              4.24196
            ],
            [
              -75.65834,
              4.22214
            ],
            [
              -75.59669,
              4.28026
            ],
            [
              -75.59332,
              4.36197
            ]
          ]
        ]
      },
      "properties": {
        "code": "63548",
        "departmentCode": "63",
        "name": "PIJAO",
        "originalCode": "548",
        "originalName": "PIJAO",
        "type": "MUNICIPIO",
        "areaName": 247.92998586,
        "creationYear": 2025,
        "creationResolution": "Ordenanza 11 de 1926",
        "resultType": "observed",
        "source": "dane-divipola-mgn-2025",
        "year": 2025,
        "MPIO_TIPO": "MUNICIPIO",
        "unitType": "municipio",
        "MPIO_NAREA": 247.92998586,
        "MPIO_NANO": 2025,
        "MPIO_CRSLCION": "Ordenanza 11 de 1926"
      }
    },
    {
      "type": "Feature",
      "id": 2431,
      "geometry": {
        "type": "Polygon",
        "coordinates": [
          [
            [
              -75.74094,
              4.65472
            ],
            [
              -75.82593,
              4.6632
            ],
            [
              -75.86496,
              4.61476
            ],
            [
              -75.87213,
              4.57849
            ],
            [
              -75.75081,
              4.56825
            ],
            [
              -75.69917,
              4.61559
            ],
            [
              -75.74715,
              4.61826
            ],
            [
              -75.74094,
              4.65472
            ]
          ]
        ]
      },
      "properties": {
        "code": "63594",
        "departmentCode": "63",
        "name": "QUIMBAYA",
        "originalCode": "594",
        "originalName": "QUIMBAYA",
        "type": "MUNICIPIO",
        "areaName": 133.28299445,
        "creationYear": 2025,
        "creationResolution": "Ordenanza 26 del 5 de Abril de 1922",
        "resultType": "observed",
        "source": "dane-divipola-mgn-2025",
        "year": 2025,
        "MPIO_TIPO": "MUNICIPIO",
        "unitType": "municipio",
        "MPIO_NAREA": 133.28299445,
        "MPIO_NANO": 2025,
        "MPIO_CRSLCION": "Ordenanza 26 del 5 de Abril de 1922"
      }
    },
    {
      "type": "Feature",
      "id": 2432,
      "geometry": {
        "type": "Polygon",
        "coordinates": [
          [
            [
              -75.38871,
              4.71544
            ],
            [
              -75.47938,
              4.66317
            ],
            [
              -75.54579,
              4.70148
            ],
            [
              -75.59407,
              4.68341
            ],
            [
              -75.64132,
              4.57936
            ],
            [
              -75.61132,
              4.56568
            ],
            [
              -75.61376,
              4.54402
            ],
            [
              -75.56878,
              4.50332
            ],
            [
              -75.56013,
              4.47397
            ],
            [
              -75.52463,
              4.49793
            ],
            [
              -75.51504,
              4.55559
            ],
            [
              -75.46887,
              4.59832
            ],
            [
              -75.421,
              4.61086
            ],
            [
              -75.42151,
              4.65862
            ],
            [
              -75.38329,
              4.7038
            ],
            [
              -75.38871,
              4.71544
            ]
          ]
        ]
      },
      "properties": {
        "code": "63690",
        "departmentCode": "63",
        "name": "SALENTO",
        "originalCode": "690",
        "originalName": "SALENTO",
        "type": "MUNICIPIO",
        "areaName": 346.99889646,
        "creationYear": 2025,
        "creationResolution": "Decreto 995 de 1908",
        "resultType": "observed",
        "source": "dane-divipola-mgn-2025",
        "year": 2025,
        "MPIO_TIPO": "MUNICIPIO",
        "unitType": "municipio",
        "MPIO_NAREA": 346.99889646,
        "MPIO_NANO": 2025,
        "MPIO_CRSLCION": "Decreto 995 de 1908"
      }
    }
  ]
}
