{
  "type": "FeatureCollection",
  "metadata": {
    "source": "DANE DIVIPOLA MGN 2025",
    "downloadedAt": "2026-07-27T05:06:31Z",
    "crs": "EPSG:4326",
    "simplification": "ArcGIS maxAllowableOffset=0.01 grados y geometryPrecision=5; solo visualización web"
  },
  "features": [
    {
      "type": "Feature",
      "id": 2433,
      "geometry": {
        "type": "Polygon",
        "coordinates": [
          [
            [
              -75.70848,
              4.87303
            ],
            [
              -75.73842,
              4.89091
            ],
            [
              -75.77388,
              4.86957
            ],
            [
              -75.81535,
              4.90608
            ],
            [
              -75.83111,
              4.90189
            ],
            [
              -75.84224,
              4.87014
            ],
            [
              -75.88589,
              4.89282
            ],
            [
              -75.91211,
              4.8841
            ],
            [
              -75.90039,
              4.85068
            ],
            [
              -75.91076,
              4.81659
            ],
            [
              -75.93571,
              4.80773
            ],
            [
              -75.91747,
              4.79449
            ],
            [
              -75.9293,
              4.7687
            ],
            [
              -75.90773,
              4.75206
            ],
            [
              -75.85197,
              4.77865
            ],
            [
              -75.8561,
              4.72783
            ],
            [
              -75.8311,
              4.73782
            ],
            [
              -75.75396,
              4.70988
            ],
            [
              -75.70294,
              4.72136
            ],
            [
              -75.65979,
              4.69989
            ],
            [
              -75.54579,
              4.70148
            ],
            [
              -75.47938,
              4.66317
            ],
            [
              -75.37794,
              4.72958
            ],
            [
              -75.388,
              4.74685
            ],
            [
              -75.3755,
              4.80268
            ],
            [
              -75.40881,
              4.79277
            ],
            [
              -75.46892,
              4.72007
            ],
            [
              -75.53468,
              4.70025
            ],
            [
              -75.60338,
              4.74443
            ],
            [
              -75.65101,
              4.7975
            ],
            [
              -75.71512,
              4.82012
            ],
            [
              -75.70848,
              4.87303
            ]
          ]
        ]
      },
      "properties": {
        "code": "66001",
        "departmentCode": "66",
        "name": "PEREIRA",
        "originalCode": "001",
        "originalName": "PEREIRA",
        "MPIO_TIPO": "MUNICIPIO",
        "type": "MUNICIPIO",
        "unitType": "municipio",
        "MPIO_NAREA": 607.90289836,
        "MPIO_NANO": 2024,
        "MPIO_CRSLCION": "1863",
        "areaName": 607.90289836,
        "creationYear": 2024,
        "creationResolution": "1863",
        "resultType": "observed",
        "source": "dane-divipola-mgn-2025",
        "year": 2025
      }
    },
    {
      "type": "Feature",
      "id": 2434,
      "geometry": {
        "type": "Polygon",
        "coordinates": [
          [
            [
              -75.92203,
              5.04205
            ],
            [
              -75.91547,
              5.08607
            ],
            [
              -75.88378,
              5.13055
            ],
            [
              -75.93092,
              5.17646
            ],
            [
              -75.92859,
              5.22661
            ],
            [
              -75.96239,
              5.23654
            ],
            [
              -75.98593,
              5.20371
            ],
            [
              -75.97672,
              5.17826
            ],
            [
              -75.98849,
              5.15897
            ],
            [
              -76.06049,
              5.13199
            ],
            [
              -76.00038,
              5.12694
            ],
            [
              -75.9729,
              5.09238
            ],
            [
              -75.94596,
              5.08775
            ],
            [
              -75.95008,
              5.05462
            ],
            [
              -75.92203,
              5.04205
            ]
          ]
        ]
      },
      "properties": {
        "code": "66045",
        "departmentCode": "66",
        "name": "APÍA",
        "originalCode": "045",
        "originalName": "APÍA",
        "MPIO_TIPO": "MUNICIPIO",
        "type": "MUNICIPIO",
        "unitType": "municipio",
        "MPIO_NAREA": 149.97852767,
        "MPIO_NANO": 2024,
        "MPIO_CRSLCION": "1893",
        "areaName": 149.97852767,
        "creationYear": 2024,
        "creationResolution": "1893",
        "resultType": "observed",
        "source": "dane-divipola-mgn-2025",
        "year": 2025
      }
    },
    {
      "type": "Feature",
      "id": 2435,
      "geometry": {
        "type": "Polygon",
        "coordinates": [
          [
            [
              -75.94399,
              4.98957
            ],
            [
              -75.96296,
              4.98599
            ],
            [
              -75.96487,
              4.96148
            ],
            [
              -75.99411,
              4.95217
            ],
            [
              -75.98816,
              4.87451
            ],
            [
              -75.94281,
              4.85671
            ],
            [
              -75.88589,
              4.89282
            ],
            [
              -75.87979,
              4.9193
            ],
            [
              -75.94399,
              4.98957
            ]
          ]
        ]
      },
      "properties": {
        "code": "66075",
        "departmentCode": "66",
        "name": "BALBOA",
        "originalCode": "075",
        "originalName": "BALBOA",
        "MPIO_TIPO": "MUNICIPIO",
        "type": "MUNICIPIO",
        "unitType": "municipio",
        "MPIO_NAREA": 119.48327607,
        "MPIO_NANO": 2024,
        "MPIO_CRSLCION": "1923",
        "areaName": 119.48327607,
        "creationYear": 2024,
        "creationResolution": "1923",
        "resultType": "observed",
        "source": "dane-divipola-mgn-2025",
        "year": 2025
      }
    },
    {
      "type": "Feature",
      "id": 2436,
      "geometry": {
        "type": "Polygon",
        "coordinates": [
          [
            [
              -75.86813,
              5.27394
            ],
            [
              -75.92576,
              5.25175
            ],
            [
              -75.93135,
              5.17834
            ],
            [
              -75.90052,
              5.13613
            ],
            [
              -75.84491,
              5.10558
            ],
            [
              -75.8026,
              5.19851
            ],
            [
              -75.80378,
              5.22659
            ],
            [
              -75.82366,
              5.27012
            ],
            [
              -75.86813,
              5.27394
            ]
          ]
        ]
      },
      "properties": {
        "code": "66088",
        "departmentCode": "66",
        "name": "BELÉN DE UMBRÍA",
        "originalCode": "088",
        "originalName": "BELÉN DE UMBRÍA",
        "MPIO_TIPO": "MUNICIPIO",
        "type": "MUNICIPIO",
        "unitType": "municipio",
        "MPIO_NAREA": 180.58722332,
        "MPIO_NANO": 2024,
        "MPIO_CRSLCION": "Ordenanza 27 de 1911",
        "areaName": 180.58722332,
        "creationYear": 2024,
        "creationResolution": "Ordenanza 27 de 1911",
        "resultType": "observed",
        "source": "dane-divipola-mgn-2025",
        "year": 2025
      }
    },
    {
      "type": "Feature",
      "id": 2437,
      "geometry": {
        "type": "Polygon",
        "coordinates": [
          [
            [
              -75.71505,
              4.82013
            ],
            [
              -75.64588,
              4.79219
            ],
            [
              -75.62325,
              4.82429
            ],
            [
              -75.65061,
              4.88331
            ],
            [
              -75.68892,
              4.88886
            ],
            [
              -75.71296,
              4.86462
            ],
            [
              -75.71505,
              4.82013
            ]
          ]
        ]
      },
      "properties": {
        "code": "66170",
        "departmentCode": "66",
        "name": "DOSQUEBRADAS",
        "originalCode": "170",
        "originalName": "DOSQUEBRADAS",
        "MPIO_TIPO": "MUNICIPIO",
        "type": "MUNICIPIO",
        "unitType": "municipio",
        "MPIO_NAREA": 70.11514942,
        "MPIO_NANO": 2024,
        "MPIO_CRSLCION": "Ordenanza 12 de Diciembre 6 de 1972",
        "areaName": 70.11514942,
        "creationYear": 2024,
        "creationResolution": "Ordenanza 12 de Diciembre 6 de 1972",
        "resultType": "observed",
        "source": "dane-divipola-mgn-2025",
        "year": 2025
      }
    },
    {
      "type": "Feature",
      "id": 2438,
      "geometry": {
        "type": "Polygon",
        "coordinates": [
          [
            [
              -75.75794,
              5.3867
            ],
            [
              -75.79199,
              5.36564
            ],
            [
              -75.82834,
              5.36741
            ],
            [
              -75.85438,
              5.33738
            ],
            [
              -75.85109,
              5.27276
            ],
            [
              -75.74826,
              5.28433
            ],
            [
              -75.7794,
              5.32424
            ],
            [
              -75.75794,
              5.3867
            ]
          ]
        ]
      },
      "properties": {
        "code": "66318",
        "departmentCode": "66",
        "name": "GUÁTICA",
        "originalCode": "318",
        "originalName": "GUÁTICA",
        "MPIO_TIPO": "MUNICIPIO",
        "type": "MUNICIPIO",
        "unitType": "municipio",
        "MPIO_NAREA": 100.80899614,
        "MPIO_NANO": 2024,
        "MPIO_CRSLCION": "1921",
        "areaName": 100.80899614,
        "creationYear": 2024,
        "creationResolution": "1921",
        "resultType": "observed",
        "source": "dane-divipola-mgn-2025",
        "year": 2025
      }
    },
    {
      "type": "Feature",
      "id": 2439,
      "geometry": {
        "type": "Polygon",
        "coordinates": [
          [
            [
              -76.05765,
              5.03017
            ],
            [
              -76.07931,
              5.04469
            ],
            [
              -76.04909,
              5.00715
            ],
            [
              -76.02771,
              4.9386
            ],
            [
              -75.9902,
              4.91311
            ],
            [
              -75.99357,
              4.9535
            ],
            [
              -75.96487,
              4.96148
            ],
            [
              -75.96296,
              4.98599
            ],
            [
              -75.94555,
              4.98984
            ],
            [
              -75.96109,
              5.01727
            ],
            [
              -75.98457,
              5.01808
            ],
            [
              -75.99244,
              5.03859
            ],
            [
              -76.02334,
              5.0241
            ],
            [
              -76.05765,
              5.03017
            ]
          ]
        ]
      },
      "properties": {
        "code": "66383",
        "departmentCode": "66",
        "name": "LA CELIA",
        "originalCode": "383",
        "originalName": "LA CELIA",
        "MPIO_TIPO": "MUNICIPIO",
        "type": "MUNICIPIO",
        "unitType": "municipio",
        "MPIO_NAREA": 92.47551204,
        "MPIO_NANO": 2024,
        "MPIO_CRSLCION": "Ordenanza 96 de Noviembre 30 de 1959",
        "areaName": 92.47551204,
        "creationYear": 2024,
        "creationResolution": "Ordenanza 96 de Noviembre 30 de 1959",
        "resultType": "observed",
        "source": "dane-divipola-mgn-2025",
        "year": 2025
      }
    },
    {
      "type": "Feature",
      "id": 2440,
      "geometry": {
        "type": "Polygon",
        "coordinates": [
          [
            [
              -75.8604,
              4.93466
            ],
            [
              -75.88956,
              4.89767
            ],
            [
              -75.84224,
              4.87014
            ],
            [
              -75.81481,
              4.91944
            ],
            [
              -75.8604,
              4.93466
            ]
          ]
        ]
      },
      "properties": {
        "code": "66400",
        "departmentCode": "66",
        "name": "LA VIRGINIA",
        "originalCode": "400",
        "originalName": "LA VIRGINIA",
        "MPIO_TIPO": "MUNICIPIO",
        "type": "MUNICIPIO",
        "unitType": "municipio",
        "MPIO_NAREA": 32.93886241,
        "MPIO_NANO": 2024,
        "MPIO_CRSLCION": "Ordenanza 57 de 1959",
        "areaName": 32.93886241,
        "creationYear": 2024,
        "creationResolution": "Ordenanza 57 de 1959",
        "resultType": "observed",
        "source": "dane-divipola-mgn-2025",
        "year": 2025
      }
    },
    {
      "type": "Feature",
      "id": 2441,
      "geometry": {
        "type": "Polygon",
        "coordinates": [
          [
            [
              -75.73881,
              5.02829
            ],
            [
              -75.74681,
              5.04682
            ],
            [
              -75.78139,
              5.01038
            ],
            [
              -75.79219,
              4.93777
            ],
            [
              -75.8165,
              4.91591
            ],
            [
              -75.80495,
              4.88847
            ],
            [
              -75.77388,
              4.86957
            ],
            [
              -75.73842,
              4.89091
            ],
            [
              -75.70501,
              4.86969
            ],
            [
              -75.68582,
              4.89768
            ],
            [
              -75.71768,
              4.93701
            ],
            [
              -75.71479,
              4.97695
            ],
            [
              -75.73881,
              5.02829
            ]
          ]
        ]
      },
      "properties": {
        "code": "66440",
        "departmentCode": "66",
        "name": "MARSELLA",
        "originalCode": "440",
        "originalName": "MARSELLA",
        "MPIO_TIPO": "MUNICIPIO",
        "type": "MUNICIPIO",
        "unitType": "municipio",
        "MPIO_NAREA": 149.29714096,
        "MPIO_NANO": 2024,
        "MPIO_CRSLCION": "Ordenanza 24 de 1915",
        "areaName": 149.29714096,
        "creationYear": 2024,
        "creationResolution": "Ordenanza 24 de 1915",
        "resultType": "observed",
        "source": "dane-divipola-mgn-2025",
        "year": 2025
      }
    },
    {
      "type": "Feature",
      "id": 2442,
      "geometry": {
        "type": "Polygon",
        "coordinates": [
          [
            [
              -76.00824,
              5.56366
            ],
            [
              -76.03704,
              5.56717
            ],
            [
              -76.08543,
              5.53432
            ],
            [
              -76.07557,
              5.49959
            ],
            [
              -76.08809,
              5.44651
            ],
            [
              -76.06178,
              5.36702
            ],
            [
              -75.95634,
              5.3442
            ],
            [
              -75.96103,
              5.28935
            ],
            [
              -75.94616,
              5.25602
            ],
            [
              -75.92431,
              5.24579
            ],
            [
              -75.88446,
              5.27115
            ],
            [
              -75.85109,
              5.27276
            ],
            [
              -75.85912,
              5.32522
            ],
            [
              -75.83313,
              5.36108
            ],
            [
              -75.86068,
              5.37171
            ],
            [
              -75.85064,
              5.41248
            ],
            [
              -75.86802,
              5.49024
            ],
            [
              -75.90502,
              5.47986
            ],
            [
              -75.9308,
              5.50887
            ],
            [
              -75.95927,
              5.50508
            ],
            [
              -76.00824,
              5.56366
            ]
          ]
        ]
      },
      "properties": {
        "code": "66456",
        "departmentCode": "66",
        "name": "MISTRATÓ",
        "originalCode": "456",
        "originalName": "MISTRATÓ",
        "MPIO_TIPO": "MUNICIPIO",
        "type": "MUNICIPIO",
        "unitType": "municipio",
        "MPIO_NAREA": 564.73616071,
        "MPIO_NANO": 2024,
        "MPIO_CRSLCION": "Ordenanza 11 del 18 de Mayo de 1925",
        "areaName": 564.73616071,
        "creationYear": 2024,
        "creationResolution": "Ordenanza 11 del 18 de Mayo de 1925",
        "resultType": "observed",
        "source": "dane-divipola-mgn-2025",
        "year": 2025
      }
    },
    {
      "type": "Feature",
      "id": 2443,
      "geometry": {
        "type": "Polygon",
        "coordinates": [
          [
            [
              -76.09237,
              5.44535
            ],
            [
              -76.15248,
              5.40757
            ],
            [
              -76.17798,
              5.40128
            ],
            [
              -76.19122,
              5.41458
            ],
            [
              -76.21143,
              5.34862
            ],
            [
              -76.17362,
              5.26025
            ],
            [
              -76.14202,
              5.23338
            ],
            [
              -76.13355,
              5.18496
            ],
            [
              -76.06049,
              5.13199
            ],
            [
              -75.98849,
              5.15897
            ],
            [
              -75.97672,
              5.17826
            ],
            [
              -75.98593,
              5.20371
            ],
            [
              -75.96346,
              5.23619
            ],
            [
              -75.93084,
              5.22598
            ],
            [
              -75.92431,
              5.24579
            ],
            [
              -75.94616,
              5.25602
            ],
            [
              -75.96103,
              5.28935
            ],
            [
              -75.95634,
              5.3442
            ],
            [
              -76.06178,
              5.36702
            ],
            [
              -76.09237,
              5.44535
            ]
          ]
        ]
      },
      "properties": {
        "code": "66572",
        "departmentCode": "66",
        "name": "PUEBLO RICO",
        "originalCode": "572",
        "originalName": "PUEBLO RICO",
        "MPIO_TIPO": "MUNICIPIO",
        "type": "MUNICIPIO",
        "unitType": "municipio",
        "MPIO_NAREA": 613.80549631,
        "MPIO_NANO": 2024,
        "MPIO_CRSLCION": "1912",
        "areaName": 613.80549631,
        "creationYear": 2024,
        "creationResolution": "1912",
        "resultType": "observed",
        "source": "dane-divipola-mgn-2025",
        "year": 2025
      }
    },
    {
      "type": "Feature",
      "id": 2444,
      "geometry": {
        "type": "Polygon",
        "coordinates": [
          [
            [
              -75.73885,
              5.39758
            ],
            [
              -75.7794,
              5.32424
            ],
            [
              -75.73506,
              5.2645
            ],
            [
              -75.69211,
              5.25534
            ],
            [
              -75.66623,
              5.26847
            ],
            [
              -75.64825,
              5.30903
            ],
            [
              -75.69791,
              5.38734
            ],
            [
              -75.73885,
              5.39758
            ]
          ]
        ]
      },
      "properties": {
        "code": "66594",
        "departmentCode": "66",
        "name": "QUINCHÍA",
        "originalCode": "594",
        "originalName": "QUINCHÍA",
        "MPIO_TIPO": "MUNICIPIO",
        "type": "MUNICIPIO",
        "unitType": "municipio",
        "MPIO_NAREA": 140.11841615,
        "MPIO_NANO": 2024,
        "MPIO_CRSLCION": "1917",
        "areaName": 140.11841615,
        "creationYear": 2024,
        "creationResolution": "1917",
        "resultType": "observed",
        "source": "dane-divipola-mgn-2025",
        "year": 2025
      }
    },
    {
      "type": "Feature",
      "id": 2445,
      "geometry": {
        "type": "Polygon",
        "coordinates": [
          [
            [
              -75.63635,
              4.9713
            ],
            [
              -75.66598,
              4.94272
            ],
            [
              -75.71423,
              4.9578
            ],
            [
              -75.71775,
              4.93723
            ],
            [
              -75.68626,
              4.88161
            ],
            [
              -75.64529,
              4.8774
            ],
            [
              -75.62325,
              4.82429
            ],
            [
              -75.649,
              4.78691
            ],
            [
              -75.58851,
              4.73458
            ],
            [
              -75.53468,
              4.70025
            ],
            [
              -75.50075,
              4.70479
            ],
            [
              -75.46871,
              4.72023
            ],
            [
              -75.40881,
              4.79277
            ],
            [
              -75.3755,
              4.80268
            ],
            [
              -75.42687,
              4.81639
            ],
            [
              -75.48009,
              4.91646
            ],
            [
              -75.53746,
              4.91653
            ],
            [
              -75.56459,
              4.9378
            ],
            [
              -75.61706,
              4.93141
            ],
            [
              -75.62308,
              4.97096
            ],
            [
              -75.63635,
              4.9713
            ]
          ]
        ]
      },
      "properties": {
        "code": "66682",
        "departmentCode": "66",
        "name": "SANTA ROSA DE CABAL",
        "originalCode": "682",
        "originalName": "SANTA ROSA DE CABAL",
        "MPIO_TIPO": "MUNICIPIO",
        "type": "MUNICIPIO",
        "unitType": "municipio",
        "MPIO_NAREA": 543.34323359,
        "MPIO_NANO": 2024,
        "MPIO_CRSLCION": "1844",
        "areaName": 543.34323359,
        "creationYear": 2024,
        "creationResolution": "1844",
        "resultType": "observed",
        "source": "dane-divipola-mgn-2025",
        "year": 2025
      }
    },
    {
      "type": "Feature",
      "id": 2446,
      "geometry": {
        "type": "Polygon",
        "coordinates": [
          [
            [
              -76.05555,
              5.12901
            ],
            [
              -76.077,
              5.04723
            ],
            [
              -76.02404,
              5.02411
            ],
            [
              -75.99033,
              5.03786
            ],
            [
              -75.87249,
              4.91415
            ],
            [
              -75.86073,
              4.94213
            ],
            [
              -75.89216,
              4.96153
            ],
            [
              -75.90413,
              5.02401
            ],
            [
              -75.95008,
              5.05462
            ],
            [
              -75.94596,
              5.08775
            ],
            [
              -75.9729,
              5.09238
            ],
            [
              -76.00043,
              5.12697
            ],
            [
              -76.05555,
              5.12901
            ]
          ]
        ]
      },
      "properties": {
        "code": "66687",
        "departmentCode": "66",
        "name": "SANTUARIO",
        "originalCode": "687",
        "originalName": "SANTUARIO",
        "MPIO_TIPO": "MUNICIPIO",
        "type": "MUNICIPIO",
        "unitType": "municipio",
        "MPIO_NAREA": 190.84271702,
        "MPIO_NANO": 2024,
        "MPIO_CRSLCION": "Decreto 1488 del 14 de Diciembre de 1906",
        "areaName": 190.84271702,
        "creationYear": 2024,
        "creationResolution": "Decreto 1488 del 14 de Diciembre de 1906",
        "resultType": "observed",
        "source": "dane-divipola-mgn-2025",
        "year": 2025
      }
    }
  ]
}
