{
  "type": "FeatureCollection",
  "metadata": {
    "source": "DANE DIVIPOLA MGN 2025",
    "downloadedAt": "2026-07-27T01:49:40Z",
    "crs": "EPSG:4326",
    "simplification": "ArcGIS maxAllowableOffset=0.01 grados y geometryPrecision=5; solo visualización web"
  },
  "features": [
    {
      "type": "Feature",
      "id": 2534,
      "geometry": {
        "type": "Polygon",
        "coordinates": [
          [
            [
              -75.39875,
              9.39544
            ],
            [
              -75.42923,
              9.37297
            ],
            [
              -75.46429,
              9.37938
            ],
            [
              -75.47098,
              9.39776
            ],
            [
              -75.50344,
              9.39203
            ],
            [
              -75.52205,
              9.4302
            ],
            [
              -75.55296,
              9.41639
            ],
            [
              -75.51384,
              9.37183
            ],
            [
              -75.51998,
              9.35801
            ],
            [
              -75.49175,
              9.33858
            ],
            [
              -75.49977,
              9.25952
            ],
            [
              -75.41316,
              9.22817
            ],
            [
              -75.37884,
              9.2452
            ],
            [
              -75.34921,
              9.22555
            ],
            [
              -75.33112,
              9.30206
            ],
            [
              -75.3376,
              9.31447
            ],
            [
              -75.35829,
              9.30839
            ],
            [
              -75.37488,
              9.37903
            ],
            [
              -75.39875,
              9.39544
            ]
          ]
        ]
      },
      "properties": {
        "code": "70001",
        "departmentCode": "70",
        "name": "SINCELEJO",
        "originalCode": "001",
        "originalName": "SINCELEJO",
        "type": "MUNICIPIO",
        "areaName": 279.63454276,
        "creationYear": 2024,
        "creationResolution": "Ley 47 de Agosto 30 de 1966",
        "resultType": "observed",
        "source": "dane-divipola-mgn-2025",
        "year": 2025,
        "MPIO_TIPO": "MUNICIPIO",
        "unitType": "municipio",
        "MPIO_NAREA": 279.63454276,
        "MPIO_NANO": 2024,
        "MPIO_CRSLCION": "Ley 47 de Agosto 30 de 1966"
      }
    },
    {
      "type": "Feature",
      "id": 2535,
      "geometry": {
        "type": "Polygon",
        "coordinates": [
          [
            [
              -74.93518,
              9.44737
            ],
            [
              -74.96063,
              9.4315
            ],
            [
              -74.95594,
              9.36106
            ],
            [
              -74.98274,
              9.37459
            ],
            [
              -74.99,
              9.33269
            ],
            [
              -75.00713,
              9.32467
            ],
            [
              -74.99765,
              9.30146
            ],
            [
              -75.01135,
              9.29693
            ],
            [
              -74.99985,
              9.2642
            ],
            [
              -74.98468,
              9.27051
            ],
            [
              -74.96136,
              9.24387
            ],
            [
              -74.96591,
              9.22516
            ],
            [
              -74.9083,
              9.20496
            ],
            [
              -74.91024,
              9.24463
            ],
            [
              -74.931,
              9.25484
            ],
            [
              -74.92572,
              9.27896
            ],
            [
              -74.94451,
              9.2958
            ],
            [
              -74.93287,
              9.3284
            ],
            [
              -74.9505,
              9.34824
            ],
            [
              -74.91511,
              9.41394
            ],
            [
              -74.88654,
              9.4257
            ],
            [
              -74.93518,
              9.44737
            ]
          ]
        ]
      },
      "properties": {
        "code": "70110",
        "departmentCode": "70",
        "name": "BUENAVISTA",
        "originalCode": "110",
        "originalName": "BUENAVISTA",
        "type": "MUNICIPIO",
        "areaName": 146.37447154,
        "creationYear": 2024,
        "creationResolution": "Ordenanza 9 del 5 de Noviembre de 1968",
        "resultType": "observed",
        "source": "dane-divipola-mgn-2025",
        "year": 2025,
        "MPIO_TIPO": "MUNICIPIO",
        "unitType": "municipio",
        "MPIO_NAREA": 146.37447154,
        "MPIO_NANO": 2024,
        "MPIO_CRSLCION": "Ordenanza 9 del 5 de Noviembre de 1968"
      }
    },
    {
      "type": "Feature",
      "id": 2536,
      "geometry": {
        "type": "Polygon",
        "coordinates": [
          [
            [
              -75.19855,
              8.92088
            ],
            [
              -75.20009,
              8.88129
            ],
            [
              -75.25125,
              8.84633
            ],
            [
              -75.20998,
              8.82153
            ],
            [
              -75.2351,
              8.81798
            ],
            [
              -75.22001,
              8.80326
            ],
            [
              -75.25586,
              8.75433
            ],
            [
              -75.14217,
              8.71127
            ],
            [
              -75.07202,
              8.7125
            ],
            [
              -75.05253,
              8.69371
            ],
            [
              -75.06164,
              8.66734
            ],
            [
              -75.03146,
              8.65381
            ],
            [
              -75.03776,
              8.73778
            ],
            [
              -75.01064,
              8.76508
            ],
            [
              -75.00872,
              8.80131
            ],
            [
              -75.05952,
              8.81891
            ],
            [
              -75.10077,
              8.87657
            ],
            [
              -75.19855,
              8.92088
            ]
          ]
        ]
      },
      "properties": {
        "code": "70124",
        "departmentCode": "70",
        "name": "CAIMITO",
        "originalCode": "124",
        "originalName": "CAIMITO",
        "type": "MUNICIPIO",
        "areaName": 412.23384284,
        "creationYear": 2024,
        "creationResolution": "Ordenanza 58 de Abril 28 de 1914",
        "resultType": "observed",
        "source": "dane-divipola-mgn-2025",
        "year": 2025,
        "MPIO_TIPO": "MUNICIPIO",
        "unitType": "municipio",
        "MPIO_NAREA": 412.23384284,
        "MPIO_NANO": 2024,
        "MPIO_CRSLCION": "Ordenanza 58 de Abril 28 de 1914"
      }
    },
    {
      "type": "Feature",
      "id": 2537,
      "geometry": {
        "type": "Polygon",
        "coordinates": [
          [
            [
              -75.3837,
              9.63922
            ],
            [
              -75.40791,
              9.611
            ],
            [
              -75.39012,
              9.55882
            ],
            [
              -75.40487,
              9.50393
            ],
            [
              -75.38779,
              9.49486
            ],
            [
              -75.40826,
              9.4763
            ],
            [
              -75.37217,
              9.44241
            ],
            [
              -75.31432,
              9.47866
            ],
            [
              -75.29927,
              9.47229
            ],
            [
              -75.29966,
              9.49558
            ],
            [
              -75.28232,
              9.50287
            ],
            [
              -75.31633,
              9.49689
            ],
            [
              -75.33034,
              9.5308
            ],
            [
              -75.3511,
              9.53741
            ],
            [
              -75.34755,
              9.60439
            ],
            [
              -75.36322,
              9.60497
            ],
            [
              -75.3837,
              9.63922
            ]
          ]
        ]
      },
      "properties": {
        "code": "70204",
        "departmentCode": "70",
        "name": "COLOSÓ",
        "originalCode": "204",
        "originalName": "COLOSÓ",
        "type": "MUNICIPIO",
        "areaName": 131.10670619,
        "creationYear": 2024,
        "creationResolution": "1907",
        "resultType": "observed",
        "source": "dane-divipola-mgn-2025",
        "year": 2025,
        "MPIO_TIPO": "MUNICIPIO",
        "unitType": "municipio",
        "MPIO_NAREA": 131.10670619,
        "MPIO_NANO": 2024,
        "MPIO_CRSLCION": "1907"
      }
    },
    {
      "type": "Feature",
      "id": 2538,
      "geometry": {
        "type": "Polygon",
        "coordinates": [
          [
            [
              -75.30086,
              9.32671
            ],
            [
              -75.3376,
              9.31447
            ],
            [
              -75.33327,
              9.25546
            ],
            [
              -75.3564,
              9.21041
            ],
            [
              -75.29204,
              9.16836
            ],
            [
              -75.27148,
              9.13679
            ],
            [
              -75.25194,
              9.14163
            ],
            [
              -75.22457,
              9.10562
            ],
            [
              -75.20377,
              9.11644
            ],
            [
              -75.16177,
              9.1013
            ],
            [
              -75.17078,
              9.07267
            ],
            [
              -75.14722,
              9.0597
            ],
            [
              -75.12725,
              9.08231
            ],
            [
              -75.13996,
              9.09251
            ],
            [
              -75.12116,
              9.09892
            ],
            [
              -75.14839,
              9.13476
            ],
            [
              -75.16355,
              9.13041
            ],
            [
              -75.14224,
              9.15957
            ],
            [
              -75.15182,
              9.18401
            ],
            [
              -75.19906,
              9.19044
            ],
            [
              -75.205,
              9.21108
            ],
            [
              -75.24508,
              9.19292
            ],
            [
              -75.24144,
              9.20602
            ],
            [
              -75.27153,
              9.21043
            ],
            [
              -75.26848,
              9.30023
            ],
            [
              -75.23971,
              9.30267
            ],
            [
              -75.25167,
              9.32745
            ],
            [
              -75.23625,
              9.33983
            ],
            [
              -75.28536,
              9.35243
            ],
            [
              -75.30086,
              9.32671
            ]
          ]
        ]
      },
      "properties": {
        "code": "70215",
        "departmentCode": "70",
        "name": "COROZAL",
        "originalCode": "215",
        "originalName": "COROZAL",
        "type": "MUNICIPIO",
        "areaName": 285.98127501,
        "creationYear": 2024,
        "creationResolution": "Ley 44 de 1876",
        "resultType": "observed",
        "source": "dane-divipola-mgn-2025",
        "year": 2025,
        "MPIO_TIPO": "MUNICIPIO",
        "unitType": "municipio",
        "MPIO_NAREA": 285.98127501,
        "MPIO_NANO": 2024,
        "MPIO_CRSLCION": "Ley 44 de 1876"
      }
    },
    {
      "type": "Feature",
      "id": 2539,
      "geometry": {
        "type": "Polygon",
        "coordinates": [
          [
            [
              -75.61706,
              9.40597
            ],
            [
              -75.60755,
              9.46905
            ],
            [
              -75.64531,
              9.41994
            ],
            [
              -75.70627,
              9.40683
            ],
            [
              -75.7044,
              9.37221
            ],
            [
              -75.6715,
              9.34309
            ],
            [
              -75.61706,
              9.40597
            ]
          ]
        ]
      },
      "properties": {
        "code": "70221",
        "departmentCode": "70",
        "name": "COVEÑAS",
        "originalCode": "221",
        "originalName": "COVEÑAS",
        "type": "MUNICIPIO",
        "areaName": 56.60860048,
        "creationYear": 2024,
        "creationResolution": "Decreto 0063 de febrero 07 de 2002",
        "resultType": "observed",
        "source": "dane-divipola-mgn-2025",
        "year": 2025,
        "MPIO_TIPO": "MUNICIPIO",
        "unitType": "municipio",
        "MPIO_NAREA": 56.60860048,
        "MPIO_NANO": 2024,
        "MPIO_CRSLCION": "Decreto 0063 de febrero 07 de 2002"
      }
    },
    {
      "type": "Feature",
      "id": 2540,
      "geometry": {
        "type": "Polygon",
        "coordinates": [
          [
            [
              -75.35705,
              9.64703
            ],
            [
              -75.37312,
              9.62411
            ],
            [
              -75.34579,
              9.59846
            ],
            [
              -75.35904,
              9.56647
            ],
            [
              -75.35132,
              9.53781
            ],
            [
              -75.33034,
              9.5308
            ],
            [
              -75.31633,
              9.49689
            ],
            [
              -75.28591,
              9.50358
            ],
            [
              -75.2875,
              9.58929
            ],
            [
              -75.30449,
              9.60604
            ],
            [
              -75.32362,
              9.60101
            ],
            [
              -75.33027,
              9.63101
            ],
            [
              -75.35705,
              9.64703
            ]
          ]
        ]
      },
      "properties": {
        "code": "70230",
        "departmentCode": "70",
        "name": "CHALÁN",
        "originalCode": "230",
        "originalName": "CHALÁN",
        "type": "MUNICIPIO",
        "areaName": 83.67209312,
        "creationYear": 2024,
        "creationResolution": "Ordenanza 6 de Octubre 30 de 1968",
        "resultType": "observed",
        "source": "dane-divipola-mgn-2025",
        "year": 2025,
        "MPIO_TIPO": "MUNICIPIO",
        "unitType": "municipio",
        "MPIO_NAREA": 83.67209312,
        "MPIO_NANO": 2024,
        "MPIO_CRSLCION": "Ordenanza 6 de Octubre 30 de 1968"
      }
    },
    {
      "type": "Feature",
      "id": 2541,
      "geometry": {
        "type": "Polygon",
        "coordinates": [
          [
            [
              -75.13801,
              9.15831
            ],
            [
              -75.1588,
              9.15273
            ],
            [
              -75.16355,
              9.13041
            ],
            [
              -75.14839,
              9.13476
            ],
            [
              -75.12117,
              9.09922
            ],
            [
              -75.13996,
              9.09251
            ],
            [
              -75.12725,
              9.08231
            ],
            [
              -75.14722,
              9.0597
            ],
            [
              -75.17078,
              9.07267
            ],
            [
              -75.16177,
              9.1013
            ],
            [
              -75.20377,
              9.11644
            ],
            [
              -75.22457,
              9.10562
            ],
            [
              -75.25194,
              9.14163
            ],
            [
              -75.27268,
              9.13754
            ],
            [
              -75.24951,
              9.10018
            ],
            [
              -75.22601,
              9.09404
            ],
            [
              -75.2119,
              9.03528
            ],
            [
              -75.18151,
              9.02213
            ],
            [
              -75.1959,
              9.01143
            ],
            [
              -75.18445,
              8.99986
            ],
            [
              -75.17202,
              9.01324
            ],
            [
              -75.12778,
              9.01006
            ],
            [
              -75.09953,
              9.04179
            ],
            [
              -75.08741,
              9.01212
            ],
            [
              -75.05444,
              9.01676
            ],
            [
              -75.06095,
              9.03715
            ],
            [
              -75.02884,
              9.04679
            ],
            [
              -75.01861,
              9.07034
            ],
            [
              -75.03696,
              9.08923
            ],
            [
              -75.06307,
              9.07858
            ],
            [
              -75.06488,
              9.10888
            ],
            [
              -75.10324,
              9.10208
            ],
            [
              -75.13801,
              9.15831
            ]
          ]
        ]
      },
      "properties": {
        "code": "70233",
        "departmentCode": "70",
        "name": "EL ROBLE",
        "originalCode": "233",
        "originalName": "EL ROBLE",
        "type": "MUNICIPIO",
        "areaName": 198.3213716,
        "creationYear": 2024,
        "creationResolution": "Decreto 356 de 98, fallo 5 de Mayo de 99 y Sentencia del 17",
        "resultType": "observed",
        "source": "dane-divipola-mgn-2025",
        "year": 2025,
        "MPIO_TIPO": "MUNICIPIO",
        "unitType": "municipio",
        "MPIO_NAREA": 198.3213716,
        "MPIO_NANO": 2024,
        "MPIO_CRSLCION": "Decreto 356 de 98, fallo 5 de Mayo de 99 y Sentencia del 17"
      }
    },
    {
      "type": "Feature",
      "id": 2542,
      "geometry": {
        "type": "Polygon",
        "coordinates": [
          [
            [
              -74.93398,
              9.2097
            ],
            [
              -74.96148,
              9.21469
            ],
            [
              -74.98122,
              9.19327
            ],
            [
              -74.99807,
              9.21009
            ],
            [
              -75.03428,
              9.1951
            ],
            [
              -75.07483,
              9.20082
            ],
            [
              -75.09065,
              9.18374
            ],
            [
              -75.08597,
              9.15519
            ],
            [
              -75.10343,
              9.13005
            ],
            [
              -75.07607,
              9.13182
            ],
            [
              -75.08695,
              9.11264
            ],
            [
              -75.06054,
              9.10533
            ],
            [
              -75.06307,
              9.07858
            ],
            [
              -75.03696,
              9.08923
            ],
            [
              -75.01947,
              9.07682
            ],
            [
              -75.02171,
              9.0286
            ],
            [
              -74.97731,
              9.02359
            ],
            [
              -74.98114,
              9.07425
            ],
            [
              -74.95919,
              9.06595
            ],
            [
              -74.94193,
              9.08633
            ],
            [
              -74.93109,
              9.07989
            ],
            [
              -74.91141,
              9.10892
            ],
            [
              -74.87777,
              9.09343
            ],
            [
              -74.84351,
              9.10725
            ],
            [
              -74.86326,
              9.14848
            ],
            [
              -74.90303,
              9.16348
            ],
            [
              -74.9083,
              9.20496
            ],
            [
              -74.93398,
              9.2097
            ]
          ]
        ]
      },
      "properties": {
        "code": "70235",
        "departmentCode": "70",
        "name": "GALERAS",
        "originalCode": "235",
        "originalName": "GALERAS",
        "type": "MUNICIPIO",
        "areaName": 321.64045731,
        "creationYear": 2024,
        "creationResolution": "Ordenanza 4 de Octubre 15 de 1968",
        "resultType": "observed",
        "source": "dane-divipola-mgn-2025",
        "year": 2025,
        "MPIO_TIPO": "MUNICIPIO",
        "unitType": "municipio",
        "MPIO_NAREA": 321.64045731,
        "MPIO_NANO": 2024,
        "MPIO_CRSLCION": "Ordenanza 4 de Octubre 15 de 1968"
      }
    },
    {
      "type": "Feature",
      "id": 2543,
      "geometry": {
        "type": "Polygon",
        "coordinates": [
          [
            [
              -74.56933,
              8.50913
            ],
            [
              -74.60263,
              8.4994
            ],
            [
              -74.61037,
              8.46283
            ],
            [
              -74.65499,
              8.45724
            ],
            [
              -74.64609,
              8.44295
            ],
            [
              -74.67079,
              8.41882
            ],
            [
              -74.66457,
              8.38254
            ],
            [
              -74.75297,
              8.36617
            ],
            [
              -74.77816,
              8.41638
            ],
            [
              -74.77061,
              8.42999
            ],
            [
              -74.81256,
              8.42216
            ],
            [
              -74.84199,
              8.38687
            ],
            [
              -74.8038,
              8.37992
            ],
            [
              -74.82802,
              8.35975
            ],
            [
              -74.79021,
              8.31821
            ],
            [
              -74.7947,
              8.28191
            ],
            [
              -74.77088,
              8.27941
            ],
            [
              -74.74784,
              8.29906
            ],
            [
              -74.72747,
              8.28102
            ],
            [
              -74.71316,
              8.30408
            ],
            [
              -74.65106,
              8.28112
            ],
            [
              -74.64925,
              8.31346
            ],
            [
              -74.61401,
              8.347
            ],
            [
              -74.61454,
              8.40654
            ],
            [
              -74.58691,
              8.38412
            ],
            [
              -74.56106,
              8.39007
            ],
            [
              -74.53902,
              8.42802
            ],
            [
              -74.53541,
              8.48064
            ],
            [
              -74.56933,
              8.50913
            ]
          ]
        ]
      },
      "properties": {
        "code": "70265",
        "departmentCode": "70",
        "name": "GUARANDA",
        "originalCode": "265",
        "originalName": "GUARANDA",
        "type": "MUNICIPIO",
        "areaName": 361.55479632,
        "creationYear": 2024,
        "creationResolution": "Ordenanza 2 de Octubre 31 de 1984",
        "resultType": "observed",
        "source": "dane-divipola-mgn-2025",
        "year": 2025,
        "MPIO_TIPO": "MUNICIPIO",
        "unitType": "municipio",
        "MPIO_NAREA": 361.55479632,
        "MPIO_NANO": 2024,
        "MPIO_CRSLCION": "Ordenanza 2 de Octubre 31 de 1984"
      }
    },
    {
      "type": "Feature",
      "id": 2544,
      "geometry": {
        "type": "Polygon",
        "coordinates": [
          [
            [
              -75.20838,
              8.91743
            ],
            [
              -75.24465,
              8.88227
            ],
            [
              -75.27269,
              8.91364
            ],
            [
              -75.29318,
              8.89735
            ],
            [
              -75.29976,
              8.85799
            ],
            [
              -75.33163,
              8.86554
            ],
            [
              -75.37161,
              8.82652
            ],
            [
              -75.36885,
              8.79123
            ],
            [
              -75.32419,
              8.75553
            ],
            [
              -75.34268,
              8.71317
            ],
            [
              -75.30035,
              8.74064
            ],
            [
              -75.27909,
              8.71008
            ],
            [
              -75.27916,
              8.73812
            ],
            [
              -75.2389,
              8.717
            ],
            [
              -75.21871,
              8.73105
            ],
            [
              -75.25906,
              8.76102
            ],
            [
              -75.22001,
              8.80326
            ],
            [
              -75.2351,
              8.81798
            ],
            [
              -75.20998,
              8.82153
            ],
            [
              -75.25125,
              8.84633
            ],
            [
              -75.20009,
              8.88129
            ],
            [
              -75.20838,
              8.91743
            ]
          ]
        ]
      },
      "properties": {
        "code": "70400",
        "departmentCode": "70",
        "name": "LA UNIÓN",
        "originalCode": "400",
        "originalName": "LA UNIÓN",
        "type": "MUNICIPIO",
        "areaName": 232.24014193,
        "creationYear": 2024,
        "creationResolution": "Ordenanza 19 de Diciembre 14 de 1968",
        "resultType": "observed",
        "source": "dane-divipola-mgn-2025",
        "year": 2025,
        "MPIO_TIPO": "MUNICIPIO",
        "unitType": "municipio",
        "MPIO_NAREA": 232.24014193,
        "MPIO_NANO": 2024,
        "MPIO_CRSLCION": "Ordenanza 19 de Diciembre 14 de 1968"
      }
    },
    {
      "type": "Feature",
      "id": 2545,
      "geometry": {
        "type": "Polygon",
        "coordinates": [
          [
            [
              -75.28635,
              9.49986
            ],
            [
              -75.30108,
              9.49185
            ],
            [
              -75.29938,
              9.45375
            ],
            [
              -75.25932,
              9.41089
            ],
            [
              -75.28258,
              9.35096
            ],
            [
              -75.23625,
              9.33983
            ],
            [
              -75.15652,
              9.40463
            ],
            [
              -75.1133,
              9.40077
            ],
            [
              -75.10344,
              9.41426
            ],
            [
              -75.11082,
              9.44062
            ],
            [
              -75.13387,
              9.44347
            ],
            [
              -75.14221,
              9.46084
            ],
            [
              -75.18365,
              9.47519
            ],
            [
              -75.19948,
              9.46677
            ],
            [
              -75.23,
              9.49133
            ],
            [
              -75.25926,
              9.46299
            ],
            [
              -75.28635,
              9.49986
            ]
          ]
        ]
      },
      "properties": {
        "code": "70418",
        "departmentCode": "70",
        "name": "LOS PALMITOS",
        "originalCode": "418",
        "originalName": "LOS PALMITOS",
        "type": "MUNICIPIO",
        "areaName": 198.78070291,
        "creationYear": 2024,
        "creationResolution": "Ordenanza 27 de Noviembre 28 de 1968",
        "resultType": "observed",
        "source": "dane-divipola-mgn-2025",
        "year": 2025,
        "MPIO_TIPO": "MUNICIPIO",
        "unitType": "municipio",
        "MPIO_NAREA": 198.78070291,
        "MPIO_NANO": 2024,
        "MPIO_CRSLCION": "Ordenanza 27 de Noviembre 28 de 1968"
      }
    },
    {
      "type": "Feature",
      "id": 2546,
      "geometry": {
        "type": "Polygon",
        "coordinates": [
          [
            [
              -74.65088,
              8.74213
            ],
            [
              -74.72438,
              8.71699
            ],
            [
              -74.73466,
              8.74011
            ],
            [
              -74.74882,
              8.73651
            ],
            [
              -74.726,
              8.70041
            ],
            [
              -74.7483,
              8.66935
            ],
            [
              -74.74667,
              8.62375
            ],
            [
              -74.77703,
              8.6169
            ],
            [
              -74.7909,
              8.63284
            ],
            [
              -74.77798,
              8.58049
            ],
            [
              -74.83337,
              8.55656
            ],
            [
              -74.82853,
              8.52071
            ],
            [
              -74.84558,
              8.53103
            ],
            [
              -74.8438,
              8.49338
            ],
            [
              -74.89627,
              8.45565
            ],
            [
              -74.85227,
              8.38471
            ],
            [
              -74.81199,
              8.42271
            ],
            [
              -74.77256,
              8.43166
            ],
            [
              -74.75297,
              8.36617
            ],
            [
              -74.66457,
              8.38254
            ],
            [
              -74.67079,
              8.41882
            ],
            [
              -74.64609,
              8.44295
            ],
            [
              -74.65499,
              8.45724
            ],
            [
              -74.61037,
              8.46283
            ],
            [
              -74.60263,
              8.4994
            ],
            [
              -74.56653,
              8.51173
            ],
            [
              -74.57655,
              8.54432
            ],
            [
              -74.56258,
              8.56905
            ],
            [
              -74.59486,
              8.59309
            ],
            [
              -74.59653,
              8.701
            ],
            [
              -74.60944,
              8.73161
            ],
            [
              -74.63615,
              8.7229
            ],
            [
              -74.63805,
              8.74524
            ],
            [
              -74.65088,
              8.74213
            ]
          ]
        ]
      },
      "properties": {
        "code": "70429",
        "departmentCode": "70",
        "name": "MAJAGUAL",
        "originalCode": "429",
        "originalName": "MAJAGUAL",
        "type": "MUNICIPIO",
        "areaName": 844.35944822,
        "creationYear": 2024,
        "creationResolution": "Ordenanzas 27 y 42 de 1938",
        "resultType": "observed",
        "source": "dane-divipola-mgn-2025",
        "year": 2025,
        "MPIO_TIPO": "MUNICIPIO",
        "unitType": "municipio",
        "MPIO_NAREA": 844.35944822,
        "MPIO_NANO": 2024,
        "MPIO_CRSLCION": "Ordenanzas 27 y 42 de 1938"
      }
    },
    {
      "type": "Feature",
      "id": 2547,
      "geometry": {
        "type": "Polygon",
        "coordinates": [
          [
            [
              -75.30086,
              9.32671
            ],
            [
              -75.27191,
              9.35813
            ],
            [
              -75.27999,
              9.36765
            ],
            [
              -75.25932,
              9.41089
            ],
            [
              -75.31432,
              9.47866
            ],
            [
              -75.39139,
              9.42522
            ],
            [
              -75.39875,
              9.39544
            ],
            [
              -75.37488,
              9.37903
            ],
            [
              -75.35618,
              9.30632
            ],
            [
              -75.30086,
              9.32671
            ]
          ]
        ]
      },
      "properties": {
        "code": "70473",
        "departmentCode": "70",
        "name": "MORROA",
        "originalCode": "473",
        "originalName": "MORROA",
        "type": "MUNICIPIO",
        "areaName": 169.92627485,
        "creationYear": 2024,
        "creationResolution": "1855",
        "resultType": "observed",
        "source": "dane-divipola-mgn-2025",
        "year": 2025,
        "MPIO_TIPO": "MUNICIPIO",
        "unitType": "municipio",
        "MPIO_NAREA": 169.92627485,
        "MPIO_NANO": 2024,
        "MPIO_CRSLCION": "1855"
      }
    },
    {
      "type": "Feature",
      "id": 2548,
      "geometry": {
        "type": "Polygon",
        "coordinates": [
          [
            [
              -75.27337,
              9.68483
            ],
            [
              -75.31473,
              9.65276
            ],
            [
              -75.3273,
              9.61802
            ],
            [
              -75.32362,
              9.60101
            ],
            [
              -75.30449,
              9.60604
            ],
            [
              -75.2875,
              9.58929
            ],
            [
              -75.29353,
              9.5126
            ],
            [
              -75.27284,
              9.46879
            ],
            [
              -75.26219,
              9.47942
            ],
            [
              -75.25833,
              9.46319
            ],
            [
              -75.23,
              9.49133
            ],
            [
              -75.19948,
              9.46677
            ],
            [
              -75.18365,
              9.47519
            ],
            [
              -75.14221,
              9.46084
            ],
            [
              -75.13305,
              9.44308
            ],
            [
              -75.08623,
              9.45067
            ],
            [
              -75.08284,
              9.43621
            ],
            [
              -75.08699,
              9.4591
            ],
            [
              -75.0358,
              9.47357
            ],
            [
              -75.01239,
              9.52829
            ],
            [
              -75.03989,
              9.54043
            ],
            [
              -75.07872,
              9.53326
            ],
            [
              -75.13339,
              9.59643
            ],
            [
              -75.16594,
              9.61326
            ],
            [
              -75.18264,
              9.60365
            ],
            [
              -75.18933,
              9.62927
            ],
            [
              -75.16451,
              9.64647
            ],
            [
              -75.23268,
              9.64667
            ],
            [
              -75.27337,
              9.68483
            ]
          ]
        ]
      },
      "properties": {
        "code": "70508",
        "departmentCode": "70",
        "name": "OVEJAS",
        "originalCode": "508",
        "originalName": "OVEJAS",
        "type": "MUNICIPIO",
        "areaName": 459.79989739,
        "creationYear": 2024,
        "creationResolution": "1899",
        "resultType": "observed",
        "source": "dane-divipola-mgn-2025",
        "year": 2025,
        "MPIO_TIPO": "MUNICIPIO",
        "unitType": "municipio",
        "MPIO_NAREA": 459.79989739,
        "MPIO_NANO": 2024,
        "MPIO_CRSLCION": "1899"
      }
    },
    {
      "type": "Feature",
      "id": 2549,
      "geometry": {
        "type": "Polygon",
        "coordinates": [
          [
            [
              -75.54121,
              9.39369
            ],
            [
              -75.61508,
              9.4076
            ],
            [
              -75.64873,
              9.36232
            ],
            [
              -75.58767,
              9.30253
            ],
            [
              -75.60937,
              9.28099
            ],
            [
              -75.51231,
              9.2581
            ],
            [
              -75.49175,
              9.33858
            ],
            [
              -75.54121,
              9.39369
            ]
          ]
        ]
      },
      "properties": {
        "code": "70523",
        "departmentCode": "70",
        "name": "PALMITO",
        "originalCode": "523",
        "originalName": "PALMITO",
        "type": "MUNICIPIO",
        "areaName": 174.66677218,
        "creationYear": 2024,
        "creationResolution": "1840",
        "resultType": "observed",
        "source": "dane-divipola-mgn-2025",
        "year": 2025,
        "MPIO_TIPO": "MUNICIPIO",
        "unitType": "municipio",
        "MPIO_NAREA": 174.66677218,
        "MPIO_NANO": 2024,
        "MPIO_CRSLCION": "1840"
      }
    },
    {
      "type": "Feature",
      "id": 2550,
      "geometry": {
        "type": "Polygon",
        "coordinates": [
          [
            [
              -75.34921,
              9.22555
            ],
            [
              -75.37884,
              9.2452
            ],
            [
              -75.41316,
              9.22817
            ],
            [
              -75.45671,
              9.24272
            ],
            [
              -75.46629,
              9.15801
            ],
            [
              -75.4357,
              9.1403
            ],
            [
              -75.39087,
              9.16127
            ],
            [
              -75.38169,
              9.13807
            ],
            [
              -75.31008,
              9.11756
            ],
            [
              -75.30997,
              9.0888
            ],
            [
              -75.29357,
              9.0962
            ],
            [
              -75.29913,
              9.08251
            ],
            [
              -75.28109,
              9.07289
            ],
            [
              -75.22414,
              9.07311
            ],
            [
              -75.22601,
              9.09404
            ],
            [
              -75.24951,
              9.10018
            ],
            [
              -75.29204,
              9.16836
            ],
            [
              -75.3564,
              9.21041
            ],
            [
              -75.34921,
              9.22555
            ]
          ]
        ]
      },
      "properties": {
        "code": "70670",
        "departmentCode": "70",
        "name": "SAMPUÉS",
        "originalCode": "670",
        "originalName": "SAMPUÉS",
        "type": "MUNICIPIO",
        "areaName": 213.7659507,
        "creationYear": 2024,
        "creationResolution": "Ordenanza 29 de 1931",
        "resultType": "observed",
        "source": "dane-divipola-mgn-2025",
        "year": 2025,
        "MPIO_TIPO": "MUNICIPIO",
        "unitType": "municipio",
        "MPIO_NAREA": 213.7659507,
        "MPIO_NANO": 2024,
        "MPIO_CRSLCION": "Ordenanza 29 de 1931"
      }
    },
    {
      "type": "Feature",
      "id": 2551,
      "geometry": {
        "type": "Polygon",
        "coordinates": [
          [
            [
              -74.90335,
              9.10576
            ],
            [
              -74.95919,
              9.06595
            ],
            [
              -74.98114,
              9.07425
            ],
            [
              -74.97731,
              9.02359
            ],
            [
              -75.02171,
              9.0286
            ],
            [
              -75.02845,
              9.04711
            ],
            [
              -75.06095,
              9.03715
            ],
            [
              -75.05444,
              9.01676
            ],
            [
              -75.08741,
              9.01212
            ],
            [
              -75.09953,
              9.04179
            ],
            [
              -75.12778,
              9.01006
            ],
            [
              -75.17202,
              9.01324
            ],
            [
              -75.18445,
              8.99986
            ],
            [
              -75.1959,
              9.01143
            ],
            [
              -75.18151,
              9.02213
            ],
            [
              -75.20267,
              9.03495
            ],
            [
              -75.20997,
              9.02575
            ],
            [
              -75.18783,
              8.96748
            ],
            [
              -75.15611,
              8.9436
            ],
            [
              -75.17175,
              8.92828
            ],
            [
              -75.18797,
              8.94417
            ],
            [
              -75.18619,
              8.91326
            ],
            [
              -75.10077,
              8.87657
            ],
            [
              -75.05952,
              8.81891
            ],
            [
              -75.00872,
              8.80131
            ],
            [
              -75.01064,
              8.76508
            ],
            [
              -75.03776,
              8.73778
            ],
            [
              -75.02564,
              8.6815
            ],
            [
              -75.03797,
              8.64584
            ],
            [
              -75.02951,
              8.6236
            ],
            [
              -75.0091,
              8.62461
            ],
            [
              -74.98084,
              8.59853
            ],
            [
              -75.003,
              8.52257
            ],
            [
              -74.92599,
              8.49961
            ],
            [
              -74.92745,
              8.45334
            ],
            [
              -74.89877,
              8.44662
            ],
            [
              -74.8438,
              8.49338
            ],
            [
              -74.84055,
              8.51615
            ],
            [
              -74.91701,
              8.63041
            ],
            [
              -74.90238,
              8.65317
            ],
            [
              -74.85134,
              8.63638
            ],
            [
              -74.86414,
              8.65619
            ],
            [
              -74.8476,
              8.70901
            ],
            [
              -74.88428,
              8.72968
            ],
            [
              -74.86802,
              8.75046
            ],
            [
              -74.87517,
              8.78694
            ],
            [
              -74.851,
              8.80349
            ],
            [
              -74.87156,
              8.9005
            ],
            [
              -74.85764,
              8.90243
            ],
            [
              -74.83988,
              8.94585
            ],
            [
              -74.8452,
              8.96596
            ],
            [
              -74.77559,
              9.03772
            ],
            [
              -74.82782,
              9.06105
            ],
            [
              -74.84351,
              9.10725
            ],
            [
              -74.87777,
              9.09343
            ],
            [
              -74.90335,
              9.10576
            ]
          ]
        ]
      },
      "properties": {
        "code": "70678",
        "departmentCode": "70",
        "name": "SAN BENITO ABAD",
        "originalCode": "678",
        "originalName": "SAN BENITO ABAD",
        "type": "MUNICIPIO",
        "areaName": 1493.14658854,
        "creationYear": 2024,
        "creationResolution": "1799",
        "resultType": "observed",
        "source": "dane-divipola-mgn-2025",
        "year": 2025,
        "MPIO_TIPO": "MUNICIPIO",
        "unitType": "municipio",
        "MPIO_NAREA": 1493.14658854,
        "MPIO_NANO": 2024,
        "MPIO_CRSLCION": "1799"
      }
    },
    {
      "type": "Feature",
      "id": 2552,
      "geometry": {
        "type": "Polygon",
        "coordinates": [
          [
            [
              -75.1452,
              9.39221
            ],
            [
              -75.15652,
              9.40463
            ],
            [
              -75.25167,
              9.32745
            ],
            [
              -75.23971,
              9.30267
            ],
            [
              -75.26837,
              9.30062
            ],
            [
              -75.26801,
              9.20401
            ],
            [
              -75.24144,
              9.20602
            ],
            [
              -75.24508,
              9.19292
            ],
            [
              -75.18847,
              9.21743
            ],
            [
              -75.19766,
              9.27128
            ],
            [
              -75.16943,
              9.3158
            ],
            [
              -75.18376,
              9.33894
            ],
            [
              -75.15189,
              9.3375
            ],
            [
              -75.13345,
              9.37961
            ],
            [
              -75.1452,
              9.39221
            ]
          ]
        ]
      },
      "properties": {
        "code": "70702",
        "departmentCode": "70",
        "name": "SAN JUAN DE BETULIA",
        "originalCode": "702",
        "originalName": "SAN JUAN DE BETULIA",
        "type": "MUNICIPIO",
        "areaName": 168.02413407,
        "creationYear": 2024,
        "creationResolution": "Ordenanza 28 de Noviembre 28 de 1968",
        "resultType": "observed",
        "source": "dane-divipola-mgn-2025",
        "year": 2025,
        "MPIO_TIPO": "MUNICIPIO",
        "unitType": "municipio",
        "MPIO_NAREA": 168.02413407,
        "MPIO_NANO": 2024,
        "MPIO_CRSLCION": "Ordenanza 28 de Noviembre 28 de 1968"
      }
    },
    {
      "type": "Feature",
      "id": 2553,
      "geometry": {
        "type": "Polygon",
        "coordinates": [
          [
            [
              -75.29735,
              8.73757
            ],
            [
              -75.31679,
              8.73516
            ],
            [
              -75.35962,
              8.6797
            ],
            [
              -75.31834,
              8.59037
            ],
            [
              -75.33032,
              8.55278
            ],
            [
              -75.30431,
              8.51775
            ],
            [
              -75.31436,
              8.50237
            ],
            [
              -75.2414,
              8.48728
            ],
            [
              -75.23194,
              8.46793
            ],
            [
              -75.21629,
              8.48537
            ],
            [
              -75.19245,
              8.44341
            ],
            [
              -75.2114,
              8.42534
            ],
            [
              -75.18514,
              8.39664
            ],
            [
              -75.15654,
              8.43332
            ],
            [
              -75.13621,
              8.42993
            ],
            [
              -75.12805,
              8.46828
            ],
            [
              -75.03964,
              8.45934
            ],
            [
              -74.98078,
              8.59815
            ],
            [
              -75.0091,
              8.62461
            ],
            [
              -75.02951,
              8.6236
            ],
            [
              -75.03146,
              8.65381
            ],
            [
              -75.06164,
              8.66734
            ],
            [
              -75.05253,
              8.69371
            ],
            [
              -75.07202,
              8.7125
            ],
            [
              -75.14217,
              8.71127
            ],
            [
              -75.21742,
              8.73384
            ],
            [
              -75.2389,
              8.717
            ],
            [
              -75.27916,
              8.73812
            ],
            [
              -75.27909,
              8.71008
            ],
            [
              -75.29735,
              8.73757
            ]
          ]
        ]
      },
      "properties": {
        "code": "70708",
        "departmentCode": "70",
        "name": "SAN MARCOS",
        "originalCode": "708",
        "originalName": "SAN MARCOS",
        "type": "MUNICIPIO",
        "areaName": 969.82623765,
        "creationYear": 2024,
        "creationResolution": "1865",
        "resultType": "observed",
        "source": "dane-divipola-mgn-2025",
        "year": 2025,
        "MPIO_TIPO": "MUNICIPIO",
        "unitType": "municipio",
        "MPIO_NAREA": 969.82623765,
        "MPIO_NANO": 2024,
        "MPIO_CRSLCION": "1865"
      }
    },
    {
      "type": "Feature",
      "id": 2554,
      "geometry": {
        "type": "Polygon",
        "coordinates": [
          [
            [
              -75.68806,
              9.72182
            ],
            [
              -75.70395,
              9.69762
            ],
            [
              -75.65379,
              9.70726
            ],
            [
              -75.61257,
              9.69451
            ],
            [
              -75.57856,
              9.6377
            ],
            [
              -75.5509,
              9.63238
            ],
            [
              -75.47302,
              9.66839
            ],
            [
              -75.44318,
              9.62905
            ],
            [
              -75.42349,
              9.64604
            ],
            [
              -75.42918,
              9.62318
            ],
            [
              -75.38771,
              9.63964
            ],
            [
              -75.37322,
              9.62939
            ],
            [
              -75.37796,
              9.72036
            ],
            [
              -75.35997,
              9.7375
            ],
            [
              -75.33826,
              9.82823
            ],
            [
              -75.37677,
              9.8494
            ],
            [
              -75.39358,
              9.88081
            ],
            [
              -75.42178,
              9.88446
            ],
            [
              -75.3967,
              9.89383
            ],
            [
              -75.42759,
              9.89288
            ],
            [
              -75.43085,
              9.91273
            ],
            [
              -75.46551,
              9.89177
            ],
            [
              -75.48205,
              9.9299
            ],
            [
              -75.46919,
              9.92471
            ],
            [
              -75.46418,
              9.96138
            ],
            [
              -75.4801,
              9.97845
            ],
            [
              -75.47611,
              10.01856
            ],
            [
              -75.49082,
              10.03825
            ],
            [
              -75.51555,
              10.02513
            ],
            [
              -75.54332,
              10.04015
            ],
            [
              -75.49748,
              10.14548
            ],
            [
              -75.57362,
              10.08643
            ],
            [
              -75.57601,
              9.97053
            ],
            [
              -75.62095,
              9.87636
            ],
            [
              -75.62323,
              9.8062
            ],
            [
              -75.64316,
              9.75869
            ],
            [
              -75.68806,
              9.72182
            ]
          ]
        ]
      },
      "properties": {
        "code": "70713",
        "departmentCode": "70",
        "name": "SAN ONOFRE",
        "originalCode": "713",
        "originalName": "SAN ONOFRE",
        "type": "MUNICIPIO",
        "areaName": 1034.97720975,
        "creationYear": 2025,
        "creationResolution": "1899",
        "resultType": "observed",
        "source": "dane-divipola-mgn-2025",
        "year": 2025,
        "MPIO_TIPO": "MUNICIPIO",
        "unitType": "municipio",
        "MPIO_NAREA": 1034.97720975,
        "MPIO_NANO": 2025,
        "MPIO_CRSLCION": "1899"
      }
    },
    {
      "type": "Feature",
      "id": 2555,
      "geometry": {
        "type": "Polygon",
        "coordinates": [
          [
            [
              -75.03921,
              9.47316
            ],
            [
              -75.08699,
              9.4591
            ],
            [
              -75.08284,
              9.43621
            ],
            [
              -75.08623,
              9.45067
            ],
            [
              -75.10906,
              9.45039
            ],
            [
              -75.1002,
              9.42637
            ],
            [
              -75.11548,
              9.41077
            ],
            [
              -75.09676,
              9.3611
            ],
            [
              -75.11651,
              9.31384
            ],
            [
              -75.08396,
              9.34258
            ],
            [
              -75.03898,
              9.33498
            ],
            [
              -75.02553,
              9.31683
            ],
            [
              -74.99,
              9.33269
            ],
            [
              -74.98274,
              9.37459
            ],
            [
              -74.95594,
              9.36106
            ],
            [
              -74.95991,
              9.4338
            ],
            [
              -75.03921,
              9.47316
            ]
          ]
        ]
      },
      "properties": {
        "code": "70717",
        "departmentCode": "70",
        "name": "SAN PEDRO",
        "originalCode": "717",
        "originalName": "SAN PEDRO",
        "type": "MUNICIPIO",
        "areaName": 212.85722598,
        "creationYear": 2024,
        "creationResolution": "Ordenanza 14 de 1939",
        "resultType": "observed",
        "source": "dane-divipola-mgn-2025",
        "year": 2025,
        "MPIO_TIPO": "MUNICIPIO",
        "unitType": "municipio",
        "MPIO_NAREA": 212.85722598,
        "MPIO_NANO": 2024,
        "MPIO_CRSLCION": "Ordenanza 14 de 1939"
      }
    },
    {
      "type": "Feature",
      "id": 2556,
      "geometry": {
        "type": "Polygon",
        "coordinates": [
          [
            [
              -75.11552,
              9.40093
            ],
            [
              -75.14817,
              9.40012
            ],
            [
              -75.13345,
              9.37961
            ],
            [
              -75.15189,
              9.3375
            ],
            [
              -75.18376,
              9.33894
            ],
            [
              -75.16943,
              9.3158
            ],
            [
              -75.18752,
              9.30198
            ],
            [
              -75.17088,
              9.301
            ],
            [
              -75.19759,
              9.27146
            ],
            [
              -75.18353,
              9.24528
            ],
            [
              -75.18847,
              9.21743
            ],
            [
              -75.205,
              9.21108
            ],
            [
              -75.19906,
              9.19044
            ],
            [
              -75.15238,
              9.18462
            ],
            [
              -75.13664,
              9.14126
            ],
            [
              -75.09726,
              9.10088
            ],
            [
              -75.07475,
              9.12125
            ],
            [
              -75.10343,
              9.13005
            ],
            [
              -75.07483,
              9.20082
            ],
            [
              -75.03428,
              9.1951
            ],
            [
              -74.99807,
              9.21009
            ],
            [
              -74.98122,
              9.19327
            ],
            [
              -74.96148,
              9.21469
            ],
            [
              -74.93669,
              9.21106
            ],
            [
              -74.96591,
              9.22516
            ],
            [
              -74.96136,
              9.24387
            ],
            [
              -74.98468,
              9.27051
            ],
            [
              -75.0045,
              9.27135
            ],
            [
              -75.00713,
              9.32467
            ],
            [
              -75.02553,
              9.31683
            ],
            [
              -75.03898,
              9.33498
            ],
            [
              -75.08396,
              9.34258
            ],
            [
              -75.11651,
              9.31384
            ],
            [
              -75.09676,
              9.3611
            ],
            [
              -75.11552,
              9.40093
            ]
          ]
        ]
      },
      "properties": {
        "code": "70742",
        "departmentCode": "70",
        "name": "SAN LUIS DE SINCÉ",
        "originalCode": "742",
        "originalName": "SAN LUIS DE SINCÉ",
        "type": "MUNICIPIO",
        "areaName": 418.72873552,
        "creationYear": 2024,
        "creationResolution": "1899",
        "resultType": "observed",
        "source": "dane-divipola-mgn-2025",
        "year": 2025,
        "MPIO_TIPO": "MUNICIPIO",
        "unitType": "municipio",
        "MPIO_NAREA": 418.72873552,
        "MPIO_NANO": 2024,
        "MPIO_CRSLCION": "1899"
      }
    },
    {
      "type": "Feature",
      "id": 2557,
      "geometry": {
        "type": "Polygon",
        "coordinates": [
          [
            [
              -74.74554,
              9.03766
            ],
            [
              -74.79931,
              9.02698
            ],
            [
              -74.81938,
              8.98287
            ],
            [
              -74.84764,
              8.96179
            ],
            [
              -74.83988,
              8.94585
            ],
            [
              -74.87177,
              8.89946
            ],
            [
              -74.85223,
              8.79353
            ],
            [
              -74.87517,
              8.78694
            ],
            [
              -74.86802,
              8.75046
            ],
            [
              -74.88428,
              8.72968
            ],
            [
              -74.8476,
              8.70901
            ],
            [
              -74.86414,
              8.65619
            ],
            [
              -74.85134,
              8.63638
            ],
            [
              -74.90238,
              8.65317
            ],
            [
              -74.91701,
              8.63041
            ],
            [
              -74.89978,
              8.59171
            ],
            [
              -74.86761,
              8.57411
            ],
            [
              -74.85698,
              8.54074
            ],
            [
              -74.82853,
              8.52071
            ],
            [
              -74.83337,
              8.55656
            ],
            [
              -74.77798,
              8.58049
            ],
            [
              -74.7909,
              8.63284
            ],
            [
              -74.77703,
              8.6169
            ],
            [
              -74.74626,
              8.62474
            ],
            [
              -74.7483,
              8.66935
            ],
            [
              -74.726,
              8.70041
            ],
            [
              -74.74556,
              8.74119
            ],
            [
              -74.72438,
              8.71699
            ],
            [
              -74.65723,
              8.74783
            ],
            [
              -74.63805,
              8.74524
            ],
            [
              -74.63615,
              8.7229
            ],
            [
              -74.60833,
              8.73044
            ],
            [
              -74.60866,
              8.76112
            ],
            [
              -74.53928,
              8.80111
            ],
            [
              -74.56465,
              8.83696
            ],
            [
              -74.58601,
              8.84117
            ],
            [
              -74.57944,
              8.87277
            ],
            [
              -74.639,
              8.97707
            ],
            [
              -74.68383,
              9.01151
            ],
            [
              -74.73686,
              9.01583
            ],
            [
              -74.74554,
              9.03766
            ]
          ]
        ]
      },
      "properties": {
        "code": "70771",
        "departmentCode": "70",
        "name": "SUCRE",
        "originalCode": "771",
        "originalName": "SUCRE",
        "type": "MUNICIPIO",
        "areaName": 1130.33845556,
        "creationYear": 2024,
        "creationResolution": "1849",
        "resultType": "observed",
        "source": "dane-divipola-mgn-2025",
        "year": 2025,
        "MPIO_TIPO": "MUNICIPIO",
        "unitType": "municipio",
        "MPIO_NAREA": 1130.33845556,
        "MPIO_NANO": 2024,
        "MPIO_CRSLCION": "1849"
      }
    },
    {
      "type": "Feature",
      "id": 2558,
      "geometry": {
        "type": "Polygon",
        "coordinates": [
          [
            [
              -75.46898,
              9.65998
            ],
            [
              -75.49862,
              9.66095
            ],
            [
              -75.55104,
              9.63234
            ],
            [
              -75.57856,
              9.6377
            ],
            [
              -75.57316,
              9.5695
            ],
            [
              -75.61706,
              9.40597
            ],
            [
              -75.54121,
              9.39369
            ],
            [
              -75.55296,
              9.41639
            ],
            [
              -75.52726,
              9.42709
            ],
            [
              -75.50718,
              9.49167
            ],
            [
              -75.4799,
              9.52016
            ],
            [
              -75.4859,
              9.55048
            ],
            [
              -75.43906,
              9.56209
            ],
            [
              -75.46661,
              9.59454
            ],
            [
              -75.45173,
              9.6164
            ],
            [
              -75.46951,
              9.62039
            ],
            [
              -75.47409,
              9.63512
            ],
            [
              -75.45693,
              9.63553
            ],
            [
              -75.46898,
              9.65998
            ]
          ]
        ]
      },
      "properties": {
        "code": "70820",
        "departmentCode": "70",
        "name": "SANTIAGO DE TOLÚ",
        "originalCode": "820",
        "originalName": "SANTIAGO DE TOLÚ",
        "type": "MUNICIPIO",
        "areaName": 302.43956789,
        "creationYear": 2024,
        "creationResolution": "1899",
        "resultType": "observed",
        "source": "dane-divipola-mgn-2025",
        "year": 2025,
        "MPIO_TIPO": "MUNICIPIO",
        "unitType": "municipio",
        "MPIO_NAREA": 302.43956789,
        "MPIO_NANO": 2024,
        "MPIO_CRSLCION": "1899"
      }
    },
    {
      "type": "Feature",
      "id": 2559,
      "geometry": {
        "type": "Polygon",
        "coordinates": [
          [
            [
              -75.42058,
              9.63726
            ],
            [
              -75.47409,
              9.63512
            ],
            [
              -75.4523,
              9.61793
            ],
            [
              -75.46661,
              9.59454
            ],
            [
              -75.43906,
              9.56209
            ],
            [
              -75.4859,
              9.55048
            ],
            [
              -75.47787,
              9.52482
            ],
            [
              -75.52987,
              9.44088
            ],
            [
              -75.50375,
              9.39223
            ],
            [
              -75.47098,
              9.39776
            ],
            [
              -75.46429,
              9.37938
            ],
            [
              -75.42872,
              9.37292
            ],
            [
              -75.38683,
              9.40245
            ],
            [
              -75.39139,
              9.42522
            ],
            [
              -75.36128,
              9.43905
            ],
            [
              -75.3923,
              9.45081
            ],
            [
              -75.38675,
              9.46411
            ],
            [
              -75.40826,
              9.4763
            ],
            [
              -75.38779,
              9.49486
            ],
            [
              -75.40487,
              9.50393
            ],
            [
              -75.39012,
              9.55882
            ],
            [
              -75.4043,
              9.58158
            ],
            [
              -75.39857,
              9.62751
            ],
            [
              -75.42918,
              9.62318
            ],
            [
              -75.42058,
              9.63726
            ]
          ]
        ]
      },
      "properties": {
        "code": "70823",
        "departmentCode": "70",
        "name": "SAN JOSÉ DE TOLUVIEJO",
        "originalCode": "823",
        "originalName": "SAN JOSÉ DE TOLUVIEJO",
        "type": "MUNICIPIO",
        "areaName": 284.90738239,
        "creationYear": 2024,
        "creationResolution": "1899",
        "resultType": "observed",
        "source": "dane-divipola-mgn-2025",
        "year": 2025,
        "MPIO_TIPO": "MUNICIPIO",
        "unitType": "municipio",
        "MPIO_NAREA": 284.90738239,
        "MPIO_NANO": 2024,
        "MPIO_CRSLCION": "1899"
      }
    }
  ]
}
