{
  "type": "FeatureCollection",
  "metadata": {
    "source": "DANE DIVIPOLA MGN 2025",
    "downloadedAt": "2026-07-25T07:50:10Z",
    "crs": "EPSG:4326",
    "simplification": "ArcGIS maxAllowableOffset=0.01 grados y geometryPrecision=5; solo visualización web"
  },
  "features": [
    {
      "type": "Feature",
      "id": 2607,
      "geometry": {
        "type": "Polygon",
        "coordinates": [
          [
            [
              -76.52573,
              3.28586
            ],
            [
              -76.49873,
              3.27342
            ],
            [
              -76.48973,
              3.30475
            ],
            [
              -76.47709,
              3.29453
            ],
            [
              -76.4782,
              3.31944
            ],
            [
              -76.46099,
              3.31701
            ],
            [
              -76.47139,
              3.37804
            ],
            [
              -76.46125,
              3.43581
            ],
            [
              -76.49122,
              3.50614
            ],
            [
              -76.51004,
              3.49051
            ],
            [
              -76.54499,
              3.49569
            ],
            [
              -76.60123,
              3.54649
            ],
            [
              -76.64602,
              3.46972
            ],
            [
              -76.68592,
              3.46349
            ],
            [
              -76.70556,
              3.442
            ],
            [
              -76.68768,
              3.39627
            ],
            [
              -76.70177,
              3.35854
            ],
            [
              -76.69628,
              3.31207
            ],
            [
              -76.66269,
              3.31451
            ],
            [
              -76.6475,
              3.29732
            ],
            [
              -76.60756,
              3.31347
            ],
            [
              -76.5668,
              3.29926
            ],
            [
              -76.55863,
              3.28087
            ],
            [
              -76.52573,
              3.28586
            ]
          ]
        ]
      },
      "properties": {
        "code": "76001",
        "departmentCode": "76",
        "name": "SANTIAGO DE CALI",
        "resultType": "observed",
        "source": "dane-divipola-mgn-2025",
        "year": 2025
      }
    },
    {
      "type": "Feature",
      "id": 2608,
      "geometry": {
        "type": "Polygon",
        "coordinates": [
          [
            [
              -75.79695,
              4.70342
            ],
            [
              -75.82638,
              4.70226
            ],
            [
              -75.83293,
              4.71958
            ],
            [
              -75.85732,
              4.71063
            ],
            [
              -75.85028,
              4.68269
            ],
            [
              -75.82722,
              4.6829
            ],
            [
              -75.82739,
              4.6605
            ],
            [
              -75.70724,
              4.65708
            ],
            [
              -75.70973,
              4.67923
            ],
            [
              -75.79695,
              4.70342
            ]
          ]
        ]
      },
      "properties": {
        "code": "76020",
        "departmentCode": "76",
        "name": "ALCALÁ",
        "resultType": "observed",
        "source": "dane-divipola-mgn-2025",
        "year": 2025
      }
    },
    {
      "type": "Feature",
      "id": 2609,
      "geometry": {
        "type": "Polygon",
        "coordinates": [
          [
            [
              -76.22406,
              4.21074
            ],
            [
              -76.23502,
              4.21396
            ],
            [
              -76.2487,
              4.18552
            ],
            [
              -76.24346,
              4.16213
            ],
            [
              -76.1788,
              4.13525
            ],
            [
              -76.17182,
              4.11927
            ],
            [
              -76.13664,
              4.11579
            ],
            [
              -76.11164,
              4.06691
            ],
            [
              -76.08362,
              4.06645
            ],
            [
              -76.07094,
              4.08824
            ],
            [
              -76.14963,
              4.18147
            ],
            [
              -76.22406,
              4.21074
            ]
          ]
        ]
      },
      "properties": {
        "code": "76036",
        "departmentCode": "76",
        "name": "ANDALUCÍA",
        "resultType": "observed",
        "source": "dane-divipola-mgn-2025",
        "year": 2025
      }
    },
    {
      "type": "Feature",
      "id": 2610,
      "geometry": {
        "type": "Polygon",
        "coordinates": [
          [
            [
              -76.01558,
              4.8875
            ],
            [
              -76.01446,
              4.85629
            ],
            [
              -76.11981,
              4.82889
            ],
            [
              -76.13781,
              4.84365
            ],
            [
              -76.12769,
              4.81724
            ],
            [
              -76.14722,
              4.78496
            ],
            [
              -76.11658,
              4.74064
            ],
            [
              -76.01956,
              4.69196
            ],
            [
              -75.97848,
              4.74329
            ],
            [
              -75.97242,
              4.78449
            ],
            [
              -75.95438,
              4.78193
            ],
            [
              -75.96135,
              4.80619
            ],
            [
              -75.94415,
              4.79583
            ],
            [
              -75.91239,
              4.81496
            ],
            [
              -75.90037,
              4.85131
            ],
            [
              -75.91424,
              4.87351
            ],
            [
              -75.96991,
              4.85982
            ],
            [
              -76.01558,
              4.8875
            ]
          ]
        ]
      },
      "properties": {
        "code": "76041",
        "departmentCode": "76",
        "name": "ANSERMANUEVO",
        "resultType": "observed",
        "source": "dane-divipola-mgn-2025",
        "year": 2025
      }
    },
    {
      "type": "Feature",
      "id": 2611,
      "geometry": {
        "type": "Polygon",
        "coordinates": [
          [
            [
              -76.14316,
              4.77475
            ],
            [
              -76.14722,
              4.78496
            ],
            [
              -76.14819,
              4.74922
            ],
            [
              -76.1794,
              4.72244
            ],
            [
              -76.19236,
              4.65463
            ],
            [
              -76.16407,
              4.66624
            ],
            [
              -76.12267,
              4.65121
            ],
            [
              -76.09207,
              4.70265
            ],
            [
              -76.08817,
              4.73551
            ],
            [
              -76.11658,
              4.74064
            ],
            [
              -76.14316,
              4.77475
            ]
          ]
        ]
      },
      "properties": {
        "code": "76054",
        "departmentCode": "76",
        "name": "ARGELIA",
        "resultType": "observed",
        "source": "dane-divipola-mgn-2025",
        "year": 2025
      }
    },
    {
      "type": "Feature",
      "id": 2612,
      "geometry": {
        "type": "Polygon",
        "coordinates": [
          [
            [
              -76.28194,
              4.27643
            ],
            [
              -76.24667,
              4.30603
            ],
            [
              -76.23867,
              4.27552
            ],
            [
              -76.21262,
              4.25969
            ],
            [
              -76.19787,
              4.28484
            ],
            [
              -76.20704,
              4.29052
            ],
            [
              -76.17918,
              4.31535
            ],
            [
              -76.17359,
              4.30341
            ],
            [
              -76.15047,
              4.34113
            ],
            [
              -76.16199,
              4.3485
            ],
            [
              -76.1376,
              4.3556
            ],
            [
              -76.15156,
              4.35762
            ],
            [
              -76.14852,
              4.37246
            ],
            [
              -76.18807,
              4.37287
            ],
            [
              -76.25631,
              4.40258
            ],
            [
              -76.24559,
              4.42918
            ],
            [
              -76.28023,
              4.45604
            ],
            [
              -76.26797,
              4.48086
            ],
            [
              -76.27814,
              4.49748
            ],
            [
              -76.33163,
              4.48013
            ],
            [
              -76.38274,
              4.49289
            ],
            [
              -76.41853,
              4.44767
            ],
            [
              -76.48213,
              4.41407
            ],
            [
              -76.55521,
              4.3992
            ],
            [
              -76.54925,
              4.33714
            ],
            [
              -76.52792,
              4.32354
            ],
            [
              -76.52664,
              4.28862
            ],
            [
              -76.48711,
              4.23553
            ],
            [
              -76.44944,
              4.23271
            ],
            [
              -76.44078,
              4.26591
            ],
            [
              -76.41087,
              4.27797
            ],
            [
              -76.40465,
              4.30064
            ],
            [
              -76.29573,
              4.29872
            ],
            [
              -76.28194,
              4.27643
            ]
          ]
        ]
      },
      "properties": {
        "code": "76100",
        "departmentCode": "76",
        "name": "BOLÍVAR",
        "resultType": "observed",
        "source": "dane-divipola-mgn-2025",
        "year": 2025
      }
    },
    {
      "type": "Feature",
      "id": 2613,
      "geometry": {
        "type": "MultiPolygon",
        "coordinates": [
          [
            [
              [
                -76.9276,
                3.13965
              ],
              [
                -76.90805,
                3.20137
              ],
              [
                -76.78846,
                3.2182
              ],
              [
                -76.78206,
                3.2502
              ],
              [
                -76.75816,
                3.26307
              ],
              [
                -76.73951,
                3.32209
              ],
              [
                -76.68819,
                3.38787
              ],
              [
                -76.70587,
                3.4278
              ],
              [
                -76.74842,
                3.4343
              ],
              [
                -76.75989,
                3.46537
              ],
              [
                -76.77799,
                3.46746
              ],
              [
                -76.81344,
                3.53968
              ],
              [
                -76.85497,
                3.54926
              ],
              [
                -76.85177,
                3.5901
              ],
              [
                -76.89046,
                3.60629
              ],
              [
                -76.86685,
                3.63154
              ],
              [
                -76.82401,
                3.62544
              ],
              [
                -76.799,
                3.65033
              ],
              [
                -76.79364,
                3.68286
              ],
              [
                -76.82241,
                3.72352
              ],
              [
                -76.81632,
                3.74697
              ],
              [
                -76.76748,
                3.77908
              ],
              [
                -76.8884,
                3.99287
              ],
              [
                -76.85945,
                4.02975
              ],
              [
                -76.915,
                4.09798
              ],
              [
                -76.97609,
                4.12223
              ],
              [
                -77.03557,
                4.0913
              ],
              [
                -77.06798,
                4.09601
              ],
              [
                -77.08619,
                4.12261
              ],
              [
                -77.10483,
                4.10773
              ],
              [
                -77.15957,
                4.18373
              ],
              [
                -77.22318,
                4.1572
              ],
              [
                -77.24988,
                4.18772
              ],
              [
                -77.25031,
                4.2318
              ],
              [
                -77.26334,
                4.23362
              ],
              [
                -77.30545,
                4.16648
              ],
              [
                -77.35295,
                4.19747
              ],
              [
                -77.39033,
                4.14849
              ],
              [
                -77.43581,
                4.14579
              ],
              [
                -77.42891,
                4.09308
              ],
              [
                -77.44962,
                4.03851
              ],
              [
                -77.43402,
                4.01021
              ],
              [
                -77.35843,
                3.92649
              ],
              [
                -77.32438,
                3.97269
              ],
              [
                -77.30613,
                4.04398
              ],
              [
                -77.2686,
                4.07705
              ],
              [
                -77.26158,
                4.06042
              ],
              [
                -77.23233,
                4.08143
              ],
              [
                -77.22871,
                4.05907
              ],
              [
                -77.1946,
                4.05276
              ],
              [
                -77.19849,
                4.0306
              ],
              [
                -77.22361,
                3.99605
              ],
              [
                -77.29002,
                3.97912
              ],
              [
                -77.31691,
                3.95176
              ],
              [
                -77.32076,
                3.90254
              ],
              [
                -77.28629,
                3.89526
              ],
              [
                -77.30272,
                3.86153
              ],
              [
                -77.24961,
                3.82803
              ],
              [
                -77.18163,
                3.83166
              ],
              [
                -77.13274,
                3.87254
              ],
              [
                -77.09749,
                3.87534
              ],
              [
                -77.08674,
                3.90519
              ],
              [
                -77.05365,
                3.8689
              ],
              [
                -77.10635,
                3.8488
              ],
              [
                -77.13486,
                3.80485
              ],
              [
                -77.1818,
                3.8094
              ],
              [
                -77.166,
                3.75754
              ],
              [
                -77.19696,
                3.75051
              ],
              [
                -77.19696,
                3.72084
              ],
              [
                -77.18912,
                3.68139
              ],
              [
                -77.16541,
                3.68476
              ],
              [
                -77.16563,
                3.64469
              ],
              [
                -77.18917,
                3.65316
              ],
              [
                -77.19571,
                3.61071
              ],
              [
                -77.23595,
                3.57738
              ],
              [
                -77.30039,
                3.56999
              ],
              [
                -77.37075,
                3.47506
              ],
              [
                -77.33705,
                3.44875
              ],
              [
                -77.33246,
                3.42658
              ],
              [
                -77.35567,
                3.41034
              ],
              [
                -77.36459,
                3.44797
              ],
              [
                -77.41321,
                3.35562
              ],
              [
                -77.42739,
                3.368
              ],
              [
                -77.4799,
                3.3231
              ],
              [
                -77.54859,
                3.22641
              ],
              [
                -77.49872,
                3.23402
              ],
              [
                -77.50407,
                3.22228
              ],
              [
                -77.47638,
                3.20976
              ],
              [
                -77.46206,
                3.2267
              ],
              [
                -77.47071,
                3.23696
              ],
              [
                -77.42907,
                3.25371
              ],
              [
                -77.38208,
                3.20339
              ],
              [
                -77.36584,
                3.14651
              ],
              [
                -77.3462,
                3.14015
              ],
              [
                -77.31718,
                3.17422
              ],
              [
                -77.27987,
                3.15937
              ],
              [
                -77.28832,
                3.13862
              ],
              [
                -77.26159,
                3.13514
              ],
              [
                -77.25232,
                3.11516
              ],
              [
                -77.2447,
                3.12631
              ],
              [
                -77.2345,
                3.10808
              ],
              [
                -77.1593,
                3.17431
              ],
              [
                -77.1301,
                3.16107
              ],
              [
                -77.09839,
                3.18597
              ],
              [
                -76.99675,
                3.15481
              ],
              [
                -76.97161,
                3.11868
              ],
              [
                -76.93834,
                3.114
              ],
              [
                -76.9276,
                3.13965
              ]
            ]
          ],
          [
            [
              [
                -77.21451,
                4.0207
              ],
              [
                -77.21462,
                4.02254
              ],
              [
                -77.21614,
                4.02096
              ],
              [
                -77.21451,
                4.0207
              ]
            ]
          ],
          [
            [
              [
                -77.21459,
                4.02625
              ],
              [
                -77.2151,
                4.02746
              ],
              [
                -77.21618,
                4.02627
              ],
              [
                -77.21459,
                4.02625
              ]
            ]
          ],
          [
            [
              [
                -77.21733,
                4.02701
              ],
              [
                -77.21868,
                4.0294
              ],
              [
                -77.22071,
                4.0272
              ],
              [
                -77.21733,
                4.02701
              ]
            ]
          ],
          [
            [
              [
                -77.20765,
                4.03124
              ],
              [
                -77.21216,
                4.02418
              ],
              [
                -77.20952,
                4.02489
              ],
              [
                -77.20765,
                4.03124
              ]
            ]
          ],
          [
            [
              [
                -77.216,
                4.03109
              ],
              [
                -77.216,
                4.02738
              ],
              [
                -77.21374,
                4.03073
              ],
              [
                -77.216,
                4.03109
              ]
            ]
          ],
          [
            [
              [
                -77.21918,
                4.0322
              ],
              [
                -77.22078,
                4.03141
              ],
              [
                -77.22064,
                4.02886
              ],
              [
                -77.21918,
                4.0322
              ]
            ]
          ],
          [
            [
              [
                -77.2114,
                4.03204
              ],
              [
                -77.21291,
                4.03209
              ],
              [
                -77.2141,
                4.0266
              ],
              [
                -77.2114,
                4.03204
              ]
            ]
          ],
          [
            [
              [
                -77.23692,
                4.03204
              ],
              [
                -77.23773,
                4.03301
              ],
              [
                -77.23825,
                4.03184
              ],
              [
                -77.23692,
                4.03204
              ]
            ]
          ],
          [
            [
              [
                -77.2123,
                4.03326
              ],
              [
                -77.21226,
                4.03441
              ],
              [
                -77.21339,
                4.03426
              ],
              [
                -77.2123,
                4.03326
              ]
            ]
          ],
          [
            [
              [
                -77.20593,
                4.03441
              ],
              [
                -77.20849,
                4.03293
              ],
              [
                -77.20776,
                4.03153
              ],
              [
                -77.20593,
                4.03441
              ]
            ]
          ],
          [
            [
              [
                -77.22523,
                4.03365
              ],
              [
                -77.22608,
                4.0353
              ],
              [
                -77.22782,
                4.03243
              ],
              [
                -77.22523,
                4.03365
              ]
            ]
          ],
          [
            [
              [
                -77.20253,
                4.03267
              ],
              [
                -77.20318,
                4.03549
              ],
              [
                -77.20399,
                4.03288
              ],
              [
                -77.20253,
                4.03267
              ]
            ]
          ],
          [
            [
              [
                -77.20991,
                4.03469
              ],
              [
                -77.2095,
                4.03609
              ],
              [
                -77.21042,
                4.03558
              ],
              [
                -77.20991,
                4.03469
              ]
            ]
          ],
          [
            [
              [
                -77.2404,
                4.0333
              ],
              [
                -77.24118,
                4.03637
              ],
              [
                -77.24242,
                4.03412
              ],
              [
                -77.2404,
                4.0333
              ]
            ]
          ],
          [
            [
              [
                -77.22478,
                4.03637
              ],
              [
                -77.22563,
                4.03552
              ],
              [
                -77.2238,
                4.03609
              ],
              [
                -77.22478,
                4.03637
              ]
            ]
          ],
          [
            [
              [
                -77.20344,
                4.03942
              ],
              [
                -77.20502,
                4.03874
              ],
              [
                -77.20343,
                4.03801
              ],
              [
                -77.20344,
                4.03942
              ]
            ]
          ],
          [
            [
              [
                -77.20529,
                4.0412
              ],
              [
                -77.20628,
                4.04159
              ],
              [
                -77.20664,
                4.04082
              ],
              [
                -77.20529,
                4.0412
              ]
            ]
          ],
          [
            [
              [
                -77.22724,
                4.04066
              ],
              [
                -77.24069,
                4.03817
              ],
              [
                -77.23255,
                4.03144
              ],
              [
                -77.22724,
                4.04066
              ]
            ]
          ],
          [
            [
              [
                -77.21379,
                4.05071
              ],
              [
                -77.21402,
                4.04867
              ],
              [
                -77.21084,
                4.04967
              ],
              [
                -77.21379,
                4.05071
              ]
            ]
          ],
          [
            [
              [
                -77.25185,
                4.05455
              ],
              [
                -77.25226,
                4.05592
              ],
              [
                -77.25275,
                4.05479
              ],
              [
                -77.25185,
                4.05455
              ]
            ]
          ],
          [
            [
              [
                -77.23148,
                4.05918
              ],
              [
                -77.23258,
                4.06046
              ],
              [
                -77.23418,
                4.05838
              ],
              [
                -77.23148,
                4.05918
              ]
            ]
          ],
          [
            [
              [
                -77.2501,
                4.05886
              ],
              [
                -77.25205,
                4.06102
              ],
              [
                -77.24949,
                4.05711
              ],
              [
                -77.2501,
                4.05886
              ]
            ]
          ],
          [
            [
              [
                -77.23978,
                4.06272
              ],
              [
                -77.24212,
                4.0557
              ],
              [
                -77.2368,
                4.05832
              ],
              [
                -77.23978,
                4.06272
              ]
            ]
          ],
          [
            [
              [
                -77.25179,
                4.0617
              ],
              [
                -77.25716,
                4.054
              ],
              [
                -77.25375,
                4.05306
              ],
              [
                -77.25179,
                4.0617
              ]
            ]
          ],
          [
            [
              [
                -77.24938,
                4.06475
              ],
              [
                -77.2498,
                4.06267
              ],
              [
                -77.24634,
                4.06237
              ],
              [
                -77.24938,
                4.06475
              ]
            ]
          ],
          [
            [
              [
                -77.23391,
                4.06483
              ],
              [
                -77.23561,
                4.05944
              ],
              [
                -77.23079,
                4.06225
              ],
              [
                -77.23391,
                4.06483
              ]
            ]
          ],
          [
            [
              [
                -77.24006,
                4.06687
              ],
              [
                -77.2416,
                4.0669
              ],
              [
                -77.2415,
                4.06555
              ],
              [
                -77.24006,
                4.06687
              ]
            ]
          ],
          [
            [
              [
                -77.24582,
                4.06957
              ],
              [
                -77.2498,
                4.06602
              ],
              [
                -77.24202,
                4.06497
              ],
              [
                -77.24582,
                4.06957
              ]
            ]
          ],
          [
            [
              [
                -77.22821,
                4.07405
              ],
              [
                -77.23136,
                4.07143
              ],
              [
                -77.23004,
                4.0687
              ],
              [
                -77.22821,
                4.07405
              ]
            ]
          ],
          [
            [
              [
                -77.23743,
                4.08169
              ],
              [
                -77.24351,
                4.06813
              ],
              [
                -77.2313,
                4.07228
              ],
              [
                -77.23743,
                4.08169
              ]
            ]
          ]
        ]
      },
      "properties": {
        "code": "76109",
        "departmentCode": "76",
        "name": "BUENAVENTURA",
        "resultType": "observed",
        "source": "dane-divipola-mgn-2025",
        "year": 2025
      }
    },
    {
      "type": "Feature",
      "id": 2614,
      "geometry": {
        "type": "Polygon",
        "coordinates": [
          [
            [
              -76.31608,
              3.99276
            ],
            [
              -76.32061,
              3.93797
            ],
            [
              -76.33973,
              3.92982
            ],
            [
              -76.32855,
              3.91843
            ],
            [
              -76.34777,
              3.91424
            ],
            [
              -76.33919,
              3.90494
            ],
            [
              -76.37887,
              3.84398
            ],
            [
              -76.38304,
              3.82104
            ],
            [
              -76.36455,
              3.79788
            ],
            [
              -76.29522,
              3.80206
            ],
            [
              -76.25928,
              3.85152
            ],
            [
              -76.24757,
              3.83597
            ],
            [
              -76.20951,
              3.83454
            ],
            [
              -76.18065,
              3.80515
            ],
            [
              -76.14045,
              3.83225
            ],
            [
              -76.09656,
              3.81237
            ],
            [
              -76.0753,
              3.76491
            ],
            [
              -76.03056,
              3.74562
            ],
            [
              -75.99355,
              3.75513
            ],
            [
              -75.97431,
              3.72222
            ],
            [
              -75.94933,
              3.71346
            ],
            [
              -75.92013,
              3.74043
            ],
            [
              -75.89283,
              3.81318
            ],
            [
              -75.85287,
              3.85248
            ],
            [
              -75.86159,
              3.87386
            ],
            [
              -75.8498,
              3.88922
            ],
            [
              -75.8734,
              3.92652
            ],
            [
              -75.99814,
              3.89406
            ],
            [
              -76.07271,
              3.90049
            ],
            [
              -76.10088,
              3.95657
            ],
            [
              -76.11599,
              3.9159
            ],
            [
              -76.14699,
              3.90479
            ],
            [
              -76.15456,
              3.92566
            ],
            [
              -76.22782,
              3.93166
            ],
            [
              -76.24897,
              3.95902
            ],
            [
              -76.27747,
              3.9608
            ],
            [
              -76.31608,
              3.99276
            ]
          ]
        ]
      },
      "properties": {
        "code": "76111",
        "departmentCode": "76",
        "name": "GUADALAJARA DE BUGA",
        "resultType": "observed",
        "source": "dane-divipola-mgn-2025",
        "year": 2025
      }
    },
    {
      "type": "Feature",
      "id": 2615,
      "geometry": {
        "type": "Polygon",
        "coordinates": [
          [
            [
              -76.15131,
              4.30535
            ],
            [
              -76.17135,
              4.3174
            ],
            [
              -76.17572,
              4.30259
            ],
            [
              -76.17918,
              4.31535
            ],
            [
              -76.20704,
              4.29052
            ],
            [
              -76.21014,
              4.24794
            ],
            [
              -76.22773,
              4.24757
            ],
            [
              -76.23502,
              4.21396
            ],
            [
              -76.15014,
              4.18198
            ],
            [
              -76.06701,
              4.08379
            ],
            [
              -76.00097,
              4.10197
            ],
            [
              -75.95528,
              4.16936
            ],
            [
              -75.97044,
              4.21373
            ],
            [
              -76.03709,
              4.25634
            ],
            [
              -76.09273,
              4.2454
            ],
            [
              -76.15131,
              4.30535
            ]
          ]
        ]
      },
      "properties": {
        "code": "76113",
        "departmentCode": "76",
        "name": "BUGALAGRANDE",
        "resultType": "observed",
        "source": "dane-divipola-mgn-2025",
        "year": 2025
      }
    },
    {
      "type": "Feature",
      "id": 2616,
      "geometry": {
        "type": "Polygon",
        "coordinates": [
          [
            [
              -75.80315,
              4.39607
            ],
            [
              -75.85735,
              4.41528
            ],
            [
              -75.86998,
              4.40477
            ],
            [
              -75.85477,
              4.36349
            ],
            [
              -75.89427,
              4.29427
            ],
            [
              -75.85573,
              4.23926
            ],
            [
              -75.8639,
              4.21866
            ],
            [
              -75.85154,
              4.2006
            ],
            [
              -75.82442,
              4.21541
            ],
            [
              -75.78749,
              4.29297
            ],
            [
              -75.80315,
              4.39607
            ]
          ]
        ]
      },
      "properties": {
        "code": "76122",
        "departmentCode": "76",
        "name": "CAICEDONIA",
        "resultType": "observed",
        "source": "dane-divipola-mgn-2025",
        "year": 2025
      }
    },
    {
      "type": "Feature",
      "id": 2617,
      "geometry": {
        "type": "Polygon",
        "coordinates": [
          [
            [
              -76.51747,
              4.06617
            ],
            [
              -76.54153,
              4.04373
            ],
            [
              -76.53808,
              4.01509
            ],
            [
              -76.59027,
              3.97011
            ],
            [
              -76.58941,
              3.99406
            ],
            [
              -76.62457,
              4.01487
            ],
            [
              -76.68325,
              3.96494
            ],
            [
              -76.76767,
              3.98865
            ],
            [
              -76.7942,
              4.01138
            ],
            [
              -76.81532,
              4.00701
            ],
            [
              -76.82331,
              4.03253
            ],
            [
              -76.84146,
              4.03749
            ],
            [
              -76.8884,
              3.99287
            ],
            [
              -76.81501,
              3.87544
            ],
            [
              -76.71379,
              3.84222
            ],
            [
              -76.68457,
              3.864
            ],
            [
              -76.64377,
              3.84387
            ],
            [
              -76.60779,
              3.86387
            ],
            [
              -76.56031,
              3.84831
            ],
            [
              -76.50919,
              3.87741
            ],
            [
              -76.46048,
              3.86509
            ],
            [
              -76.44658,
              3.91766
            ],
            [
              -76.3968,
              3.97615
            ],
            [
              -76.41868,
              3.9894
            ],
            [
              -76.40807,
              4.0543
            ],
            [
              -76.44671,
              4.04469
            ],
            [
              -76.51747,
              4.06617
            ]
          ]
        ]
      },
      "properties": {
        "code": "76126",
        "departmentCode": "76",
        "name": "CALIMA",
        "resultType": "observed",
        "source": "dane-divipola-mgn-2025",
        "year": 2025
      }
    },
    {
      "type": "Feature",
      "id": 2618,
      "geometry": {
        "type": "Polygon",
        "coordinates": [
          [
            [
              -76.29579,
              3.47173
            ],
            [
              -76.37467,
              3.45035
            ],
            [
              -76.47581,
              3.4519
            ],
            [
              -76.46013,
              3.42836
            ],
            [
              -76.47139,
              3.37804
            ],
            [
              -76.46042,
              3.32894
            ],
            [
              -76.34342,
              3.28145
            ],
            [
              -76.34052,
              3.31284
            ],
            [
              -76.31768,
              3.30255
            ],
            [
              -76.30015,
              3.36623
            ],
            [
              -76.33287,
              3.3919
            ],
            [
              -76.31809,
              3.38885
            ],
            [
              -76.28112,
              3.47016
            ],
            [
              -76.29579,
              3.47173
            ]
          ]
        ]
      },
      "properties": {
        "code": "76130",
        "departmentCode": "76",
        "name": "CANDELARIA",
        "resultType": "observed",
        "source": "dane-divipola-mgn-2025",
        "year": 2025
      }
    },
    {
      "type": "Feature",
      "id": 2619,
      "geometry": {
        "type": "Polygon",
        "coordinates": [
          [
            [
              -75.94518,
              4.79607
            ],
            [
              -75.96135,
              4.80619
            ],
            [
              -75.95438,
              4.78193
            ],
            [
              -75.97242,
              4.78449
            ],
            [
              -75.96722,
              4.76708
            ],
            [
              -76.01562,
              4.69962
            ],
            [
              -76.01665,
              4.66599
            ],
            [
              -75.93485,
              4.6548
            ],
            [
              -75.87544,
              4.63126
            ],
            [
              -75.86558,
              4.61283
            ],
            [
              -75.82227,
              4.67184
            ],
            [
              -75.83508,
              4.68835
            ],
            [
              -75.85028,
              4.68269
            ],
            [
              -75.85721,
              4.70907
            ],
            [
              -75.84798,
              4.77648
            ],
            [
              -75.90824,
              4.75212
            ],
            [
              -75.9293,
              4.7687
            ],
            [
              -75.92045,
              4.79985
            ],
            [
              -75.94518,
              4.79607
            ]
          ]
        ]
      },
      "properties": {
        "code": "76147",
        "departmentCode": "76",
        "name": "CARTAGO",
        "resultType": "observed",
        "source": "dane-divipola-mgn-2025",
        "year": 2025
      }
    },
    {
      "type": "Feature",
      "id": 2620,
      "geometry": {
        "type": "Polygon",
        "coordinates": [
          [
            [
              -76.64052,
              3.63416
            ],
            [
              -76.65217,
              3.67234
            ],
            [
              -76.64074,
              3.69176
            ],
            [
              -76.6462,
              3.78048
            ],
            [
              -76.59437,
              3.82342
            ],
            [
              -76.5826,
              3.84292
            ],
            [
              -76.59271,
              3.86298
            ],
            [
              -76.64377,
              3.84387
            ],
            [
              -76.68457,
              3.864
            ],
            [
              -76.71364,
              3.84221
            ],
            [
              -76.81501,
              3.87544
            ],
            [
              -76.76748,
              3.77908
            ],
            [
              -76.81632,
              3.74697
            ],
            [
              -76.82241,
              3.72352
            ],
            [
              -76.79303,
              3.66475
            ],
            [
              -76.82401,
              3.62544
            ],
            [
              -76.86672,
              3.63159
            ],
            [
              -76.89046,
              3.60629
            ],
            [
              -76.85177,
              3.5901
            ],
            [
              -76.85497,
              3.54926
            ],
            [
              -76.81319,
              3.53942
            ],
            [
              -76.74842,
              3.4343
            ],
            [
              -76.71236,
              3.42384
            ],
            [
              -76.69,
              3.46126
            ],
            [
              -76.64602,
              3.46972
            ],
            [
              -76.59511,
              3.54743
            ],
            [
              -76.61866,
              3.63479
            ],
            [
              -76.64052,
              3.63416
            ]
          ]
        ]
      },
      "properties": {
        "code": "76233",
        "departmentCode": "76",
        "name": "DAGUA",
        "resultType": "observed",
        "source": "dane-divipola-mgn-2025",
        "year": 2025
      }
    },
    {
      "type": "Feature",
      "id": 2621,
      "geometry": {
        "type": "Polygon",
        "coordinates": [
          [
            [
              -76.07931,
              5.04469
            ],
            [
              -76.09682,
              5.03177
            ],
            [
              -76.09881,
              4.91826
            ],
            [
              -76.13072,
              4.91084
            ],
            [
              -76.11409,
              4.89399
            ],
            [
              -76.13781,
              4.84365
            ],
            [
              -76.1217,
              4.82916
            ],
            [
              -76.01446,
              4.85629
            ],
            [
              -76.02287,
              4.8837
            ],
            [
              -75.98766,
              4.88617
            ],
            [
              -75.98758,
              4.9114
            ],
            [
              -76.02771,
              4.9386
            ],
            [
              -76.04909,
              5.00715
            ],
            [
              -76.07931,
              5.04469
            ]
          ]
        ]
      },
      "properties": {
        "code": "76243",
        "departmentCode": "76",
        "name": "EL ÁGUILA",
        "resultType": "observed",
        "source": "dane-divipola-mgn-2025",
        "year": 2025
      }
    },
    {
      "type": "Feature",
      "id": 2622,
      "geometry": {
        "type": "Polygon",
        "coordinates": [
          [
            [
              -76.13607,
              4.83616
            ],
            [
              -76.2115,
              4.82939
            ],
            [
              -76.23056,
              4.80209
            ],
            [
              -76.26124,
              4.7945
            ],
            [
              -76.31211,
              4.75062
            ],
            [
              -76.28569,
              4.7124
            ],
            [
              -76.29749,
              4.69859
            ],
            [
              -76.23132,
              4.67497
            ],
            [
              -76.19446,
              4.68177
            ],
            [
              -76.1794,
              4.72244
            ],
            [
              -76.14819,
              4.74922
            ],
            [
              -76.12769,
              4.81724
            ],
            [
              -76.13607,
              4.83616
            ]
          ]
        ]
      },
      "properties": {
        "code": "76246",
        "departmentCode": "76",
        "name": "EL CAIRO",
        "resultType": "observed",
        "source": "dane-divipola-mgn-2025",
        "year": 2025
      }
    },
    {
      "type": "Feature",
      "id": 2623,
      "geometry": {
        "type": "Polygon",
        "coordinates": [
          [
            [
              -76.06104,
              3.75847
            ],
            [
              -76.08933,
              3.76379
            ],
            [
              -76.12403,
              3.68781
            ],
            [
              -76.1825,
              3.69435
            ],
            [
              -76.20118,
              3.66245
            ],
            [
              -76.23115,
              3.68813
            ],
            [
              -76.31352,
              3.70052
            ],
            [
              -76.39752,
              3.76223
            ],
            [
              -76.42517,
              3.67867
            ],
            [
              -76.34073,
              3.61102
            ],
            [
              -76.1106,
              3.61488
            ],
            [
              -76.07687,
              3.62889
            ],
            [
              -76.00735,
              3.71621
            ],
            [
              -75.96131,
              3.70356
            ],
            [
              -75.95556,
              3.71363
            ],
            [
              -75.99355,
              3.75513
            ],
            [
              -76.03056,
              3.74562
            ],
            [
              -76.06104,
              3.75847
            ]
          ]
        ]
      },
      "properties": {
        "code": "76248",
        "departmentCode": "76",
        "name": "EL CERRITO",
        "resultType": "observed",
        "source": "dane-divipola-mgn-2025",
        "year": 2025
      }
    },
    {
      "type": "Feature",
      "id": 2624,
      "geometry": {
        "type": "Polygon",
        "coordinates": [
          [
            [
              -76.30293,
              4.64344
            ],
            [
              -76.30096,
              4.6542
            ],
            [
              -76.34462,
              4.56177
            ],
            [
              -76.38127,
              4.55963
            ],
            [
              -76.40362,
              4.53448
            ],
            [
              -76.34034,
              4.4826
            ],
            [
              -76.27914,
              4.49782
            ],
            [
              -76.23896,
              4.46971
            ],
            [
              -76.21115,
              4.47525
            ],
            [
              -76.20554,
              4.51554
            ],
            [
              -76.16887,
              4.50827
            ],
            [
              -76.17472,
              4.53734
            ],
            [
              -76.18705,
              4.54667
            ],
            [
              -76.21674,
              4.52555
            ],
            [
              -76.22474,
              4.5638
            ],
            [
              -76.24706,
              4.56042
            ],
            [
              -76.22254,
              4.60614
            ],
            [
              -76.24448,
              4.61433
            ],
            [
              -76.27194,
              4.58273
            ],
            [
              -76.30293,
              4.64344
            ]
          ]
        ]
      },
      "properties": {
        "code": "76250",
        "departmentCode": "76",
        "name": "EL DOVIO",
        "resultType": "observed",
        "source": "dane-divipola-mgn-2025",
        "year": 2025
      }
    },
    {
      "type": "Feature",
      "id": 2625,
      "geometry": {
        "type": "Polygon",
        "coordinates": [
          [
            [
              -76.09926,
              3.38784
            ],
            [
              -76.14739,
              3.38599
            ],
            [
              -76.19199,
              3.3554
            ],
            [
              -76.23358,
              3.37368
            ],
            [
              -76.266,
              3.35254
            ],
            [
              -76.30015,
              3.36623
            ],
            [
              -76.31768,
              3.30255
            ],
            [
              -76.34052,
              3.31284
            ],
            [
              -76.34797,
              3.29103
            ],
            [
              -76.22926,
              3.27683
            ],
            [
              -76.19134,
              3.22709
            ],
            [
              -76.15636,
              3.23603
            ],
            [
              -76.06761,
              3.21051
            ],
            [
              -76.03858,
              3.25146
            ],
            [
              -76.05054,
              3.28202
            ],
            [
              -76.03783,
              3.30098
            ],
            [
              -76.05536,
              3.34837
            ],
            [
              -76.09926,
              3.38784
            ]
          ]
        ]
      },
      "properties": {
        "code": "76275",
        "departmentCode": "76",
        "name": "FLORIDA",
        "resultType": "observed",
        "source": "dane-divipola-mgn-2025",
        "year": 2025
      }
    },
    {
      "type": "Feature",
      "id": 2626,
      "geometry": {
        "type": "Polygon",
        "coordinates": [
          [
            [
              -76.12782,
              3.82234
            ],
            [
              -76.14261,
              3.8314
            ],
            [
              -76.22157,
              3.76792
            ],
            [
              -76.30235,
              3.75967
            ],
            [
              -76.3237,
              3.73475
            ],
            [
              -76.32069,
              3.70667
            ],
            [
              -76.23115,
              3.68813
            ],
            [
              -76.20183,
              3.66251
            ],
            [
              -76.1825,
              3.69435
            ],
            [
              -76.12403,
              3.68781
            ],
            [
              -76.08088,
              3.79181
            ],
            [
              -76.10477,
              3.81947
            ],
            [
              -76.12782,
              3.82234
            ]
          ]
        ]
      },
      "properties": {
        "code": "76306",
        "departmentCode": "76",
        "name": "GINEBRA",
        "resultType": "observed",
        "source": "dane-divipola-mgn-2025",
        "year": 2025
      }
    },
    {
      "type": "Feature",
      "id": 2627,
      "geometry": {
        "type": "Polygon",
        "coordinates": [
          [
            [
              -76.25618,
              3.84796
            ],
            [
              -76.29991,
              3.80055
            ],
            [
              -76.36378,
              3.79775
            ],
            [
              -76.3742,
              3.81042
            ],
            [
              -76.38506,
              3.77745
            ],
            [
              -76.40085,
              3.78258
            ],
            [
              -76.38339,
              3.74003
            ],
            [
              -76.32067,
              3.7074
            ],
            [
              -76.3237,
              3.73475
            ],
            [
              -76.30235,
              3.75967
            ],
            [
              -76.22157,
              3.76792
            ],
            [
              -76.18015,
              3.80089
            ],
            [
              -76.20951,
              3.83454
            ],
            [
              -76.25618,
              3.84796
            ]
          ]
        ]
      },
      "properties": {
        "code": "76318",
        "departmentCode": "76",
        "name": "GUACARÍ",
        "resultType": "observed",
        "source": "dane-divipola-mgn-2025",
        "year": 2025
      }
    },
    {
      "type": "Feature",
      "id": 2628,
      "geometry": {
        "type": "Polygon",
        "coordinates": [
          [
            [
              -76.52573,
              3.28586
            ],
            [
              -76.55863,
              3.28087
            ],
            [
              -76.5668,
              3.29926
            ],
            [
              -76.60756,
              3.31347
            ],
            [
              -76.6475,
              3.29732
            ],
            [
              -76.66269,
              3.31451
            ],
            [
              -76.69604,
              3.31125
            ],
            [
              -76.69498,
              3.3432
            ],
            [
              -76.71106,
              3.35331
            ],
            [
              -76.73951,
              3.32209
            ],
            [
              -76.75816,
              3.26307
            ],
            [
              -76.78348,
              3.24694
            ],
            [
              -76.73921,
              3.18614
            ],
            [
              -76.74418,
              3.13565
            ],
            [
              -76.66633,
              3.09798
            ],
            [
              -76.62979,
              3.12841
            ],
            [
              -76.61072,
              3.09125
            ],
            [
              -76.59298,
              3.09356
            ],
            [
              -76.59882,
              3.1051
            ],
            [
              -76.57287,
              3.12877
            ],
            [
              -76.55592,
              3.09949
            ],
            [
              -76.53086,
              3.12356
            ],
            [
              -76.51555,
              3.11839
            ],
            [
              -76.53266,
              3.13569
            ],
            [
              -76.51776,
              3.13449
            ],
            [
              -76.51976,
              3.14973
            ],
            [
              -76.50077,
              3.14401
            ],
            [
              -76.5078,
              3.15728
            ],
            [
              -76.48712,
              3.17384
            ],
            [
              -76.49823,
              3.20205
            ],
            [
              -76.46544,
              3.2275
            ],
            [
              -76.47734,
              3.23258
            ],
            [
              -76.46205,
              3.24922
            ],
            [
              -76.47558,
              3.25771
            ],
            [
              -76.45988,
              3.2572
            ],
            [
              -76.48679,
              3.28175
            ],
            [
              -76.47816,
              3.28948
            ],
            [
              -76.49873,
              3.27342
            ],
            [
              -76.52573,
              3.28586
            ]
          ]
        ]
      },
      "properties": {
        "code": "76364",
        "departmentCode": "76",
        "name": "JAMUNDÍ",
        "resultType": "observed",
        "source": "dane-divipola-mgn-2025",
        "year": 2025
      }
    },
    {
      "type": "Feature",
      "id": 2629,
      "geometry": {
        "type": "Polygon",
        "coordinates": [
          [
            [
              -76.64052,
              3.63416
            ],
            [
              -76.61866,
              3.63479
            ],
            [
              -76.592,
              3.54696
            ],
            [
              -76.55428,
              3.63534
            ],
            [
              -76.52808,
              3.65207
            ],
            [
              -76.50615,
              3.69925
            ],
            [
              -76.53465,
              3.74906
            ],
            [
              -76.61113,
              3.75687
            ],
            [
              -76.56096,
              3.84818
            ],
            [
              -76.59271,
              3.86298
            ],
            [
              -76.5826,
              3.84292
            ],
            [
              -76.59437,
              3.82342
            ],
            [
              -76.6462,
              3.78048
            ],
            [
              -76.64074,
              3.69176
            ],
            [
              -76.65217,
              3.67234
            ],
            [
              -76.64052,
              3.63416
            ]
          ]
        ]
      },
      "properties": {
        "code": "76377",
        "departmentCode": "76",
        "name": "LA CUMBRE",
        "resultType": "observed",
        "source": "dane-divipola-mgn-2025",
        "year": 2025
      }
    },
    {
      "type": "Feature",
      "id": 2630,
      "geometry": {
        "type": "Polygon",
        "coordinates": [
          [
            [
              -76.06523,
              4.59584
            ],
            [
              -76.13708,
              4.55738
            ],
            [
              -76.15104,
              4.57509
            ],
            [
              -76.18429,
              4.54723
            ],
            [
              -76.15609,
              4.4777
            ],
            [
              -76.09941,
              4.50691
            ],
            [
              -76.06205,
              4.49581
            ],
            [
              -76.03081,
              4.57093
            ],
            [
              -76.06523,
              4.59584
            ]
          ]
        ]
      },
      "properties": {
        "code": "76400",
        "departmentCode": "76",
        "name": "LA UNIÓN",
        "resultType": "observed",
        "source": "dane-divipola-mgn-2025",
        "year": 2025
      }
    },
    {
      "type": "Feature",
      "id": 2631,
      "geometry": {
        "type": "Polygon",
        "coordinates": [
          [
            [
              -75.98951,
              4.55322
            ],
            [
              -76.03098,
              4.56914
            ],
            [
              -76.05024,
              4.53712
            ],
            [
              -76.04121,
              4.5275
            ],
            [
              -76.08783,
              4.47169
            ],
            [
              -76.06959,
              4.45592
            ],
            [
              -76.03814,
              4.46553
            ],
            [
              -75.99966,
              4.4358
            ],
            [
              -75.99598,
              4.40593
            ],
            [
              -75.96385,
              4.42018
            ],
            [
              -75.95182,
              4.40123
            ],
            [
              -75.90361,
              4.41311
            ],
            [
              -75.88809,
              4.44669
            ],
            [
              -75.86548,
              4.45477
            ],
            [
              -75.88144,
              4.46782
            ],
            [
              -75.87189,
              4.52459
            ],
            [
              -75.90097,
              4.53842
            ],
            [
              -75.93686,
              4.52852
            ],
            [
              -75.94288,
              4.54414
            ],
            [
              -75.96418,
              4.53123
            ],
            [
              -75.98951,
              4.55322
            ]
          ]
        ]
      },
      "properties": {
        "code": "76403",
        "departmentCode": "76",
        "name": "LA VICTORIA",
        "resultType": "observed",
        "source": "dane-divipola-mgn-2025",
        "year": 2025
      }
    },
    {
      "type": "Feature",
      "id": 2632,
      "geometry": {
        "type": "Polygon",
        "coordinates": [
          [
            [
              -75.94646,
              4.65454
            ],
            [
              -76.01665,
              4.66599
            ],
            [
              -76.03679,
              4.61985
            ],
            [
              -76.01092,
              4.60422
            ],
            [
              -76.02435,
              4.60579
            ],
            [
              -76.02033,
              4.5892
            ],
            [
              -76.03899,
              4.57765
            ],
            [
              -75.96418,
              4.53123
            ],
            [
              -75.94296,
              4.54414
            ],
            [
              -75.93678,
              4.5285
            ],
            [
              -75.88078,
              4.53116
            ],
            [
              -75.85976,
              4.59517
            ],
            [
              -75.87083,
              4.62532
            ],
            [
              -75.94646,
              4.65454
            ]
          ]
        ]
      },
      "properties": {
        "code": "76497",
        "departmentCode": "76",
        "name": "OBANDO",
        "resultType": "observed",
        "source": "dane-divipola-mgn-2025",
        "year": 2025
      }
    },
    {
      "type": "Feature",
      "id": 2633,
      "geometry": {
        "type": "Polygon",
        "coordinates": [
          [
            [
              -75.97983,
              3.71741
            ],
            [
              -76.00891,
              3.71503
            ],
            [
              -76.08952,
              3.62118
            ],
            [
              -76.17108,
              3.60905
            ],
            [
              -76.24248,
              3.62159
            ],
            [
              -76.2809,
              3.60319
            ],
            [
              -76.36035,
              3.61946
            ],
            [
              -76.3809,
              3.65189
            ],
            [
              -76.42512,
              3.67861
            ],
            [
              -76.42604,
              3.69493
            ],
            [
              -76.46098,
              3.62473
            ],
            [
              -76.46185,
              3.56011
            ],
            [
              -76.48807,
              3.55611
            ],
            [
              -76.46819,
              3.54004
            ],
            [
              -76.48804,
              3.53632
            ],
            [
              -76.49174,
              3.51659
            ],
            [
              -76.47581,
              3.4519
            ],
            [
              -76.37467,
              3.45035
            ],
            [
              -76.25137,
              3.48407
            ],
            [
              -76.12563,
              3.47493
            ],
            [
              -76.10817,
              3.49081
            ],
            [
              -76.07277,
              3.47827
            ],
            [
              -76.06142,
              3.4567
            ],
            [
              -76.02873,
              3.45265
            ],
            [
              -76.02628,
              3.49163
            ],
            [
              -75.98395,
              3.55992
            ],
            [
              -75.99373,
              3.63837
            ],
            [
              -75.95038,
              3.67405
            ],
            [
              -75.97983,
              3.71741
            ]
          ]
        ]
      },
      "properties": {
        "code": "76520",
        "departmentCode": "76",
        "name": "PALMIRA",
        "resultType": "observed",
        "source": "dane-divipola-mgn-2025",
        "year": 2025
      }
    },
    {
      "type": "Feature",
      "id": 2634,
      "geometry": {
        "type": "Polygon",
        "coordinates": [
          [
            [
              -76.09821,
              3.48419
            ],
            [
              -76.28809,
              3.47694
            ],
            [
              -76.31809,
              3.38885
            ],
            [
              -76.3328,
              3.38645
            ],
            [
              -76.27026,
              3.35239
            ],
            [
              -76.23358,
              3.37368
            ],
            [
              -76.19066,
              3.3556
            ],
            [
              -76.14739,
              3.38599
            ],
            [
              -76.10264,
              3.38956
            ],
            [
              -76.06024,
              3.35487
            ],
            [
              -76.02915,
              3.38911
            ],
            [
              -76.04303,
              3.39806
            ],
            [
              -76.03685,
              3.45265
            ],
            [
              -76.09821,
              3.48419
            ]
          ]
        ]
      },
      "properties": {
        "code": "76563",
        "departmentCode": "76",
        "name": "PRADERA",
        "resultType": "observed",
        "source": "dane-divipola-mgn-2025",
        "year": 2025
      }
    },
    {
      "type": "Feature",
      "id": 2635,
      "geometry": {
        "type": "Polygon",
        "coordinates": [
          [
            [
              -76.47899,
              3.86586
            ],
            [
              -76.50919,
              3.87741
            ],
            [
              -76.56375,
              3.84657
            ],
            [
              -76.611,
              3.75668
            ],
            [
              -76.54423,
              3.74303
            ],
            [
              -76.49701,
              3.7648
            ],
            [
              -76.46754,
              3.83075
            ],
            [
              -76.48981,
              3.85491
            ],
            [
              -76.47899,
              3.86586
            ]
          ]
        ]
      },
      "properties": {
        "code": "76606",
        "departmentCode": "76",
        "name": "RESTREPO",
        "resultType": "observed",
        "source": "dane-divipola-mgn-2025",
        "year": 2025
      }
    },
    {
      "type": "Feature",
      "id": 2636,
      "geometry": {
        "type": "Polygon",
        "coordinates": [
          [
            [
              -76.28798,
              4.20328
            ],
            [
              -76.32588,
              4.19457
            ],
            [
              -76.34981,
              4.15906
            ],
            [
              -76.44826,
              4.16154
            ],
            [
              -76.49873,
              4.06241
            ],
            [
              -76.44671,
              4.04469
            ],
            [
              -76.40857,
              4.05508
            ],
            [
              -76.41696,
              4.0121
            ],
            [
              -76.40619,
              4.00454
            ],
            [
              -76.36437,
              4.02265
            ],
            [
              -76.35575,
              4.05329
            ],
            [
              -76.30612,
              4.06054
            ],
            [
              -76.29495,
              4.07451
            ],
            [
              -76.31285,
              4.07787
            ],
            [
              -76.31377,
              4.09491
            ],
            [
              -76.2878,
              4.12405
            ],
            [
              -76.27877,
              4.10644
            ],
            [
              -76.24608,
              4.14971
            ],
            [
              -76.24535,
              4.1809
            ],
            [
              -76.28798,
              4.20328
            ]
          ]
        ]
      },
      "properties": {
        "code": "76616",
        "departmentCode": "76",
        "name": "RIOFRÍO",
        "resultType": "observed",
        "source": "dane-divipola-mgn-2025",
        "year": 2025
      }
    },
    {
      "type": "Feature",
      "id": 2637,
      "geometry": {
        "type": "Polygon",
        "coordinates": [
          [
            [
              -76.20271,
              4.51384
            ],
            [
              -76.21115,
              4.47525
            ],
            [
              -76.27784,
              4.4751
            ],
            [
              -76.28023,
              4.45604
            ],
            [
              -76.24559,
              4.42918
            ],
            [
              -76.25631,
              4.40258
            ],
            [
              -76.18807,
              4.37287
            ],
            [
              -76.1316,
              4.37152
            ],
            [
              -76.14169,
              4.37957
            ],
            [
              -76.12747,
              4.40331
            ],
            [
              -76.1042,
              4.40044
            ],
            [
              -76.08445,
              4.44286
            ],
            [
              -76.07024,
              4.43737
            ],
            [
              -76.08808,
              4.47347
            ],
            [
              -76.0656,
              4.49281
            ],
            [
              -76.09941,
              4.50691
            ],
            [
              -76.15609,
              4.4777
            ],
            [
              -76.16628,
              4.51278
            ],
            [
              -76.20271,
              4.51384
            ]
          ]
        ]
      },
      "properties": {
        "code": "76622",
        "departmentCode": "76",
        "name": "ROLDANILLO",
        "resultType": "observed",
        "source": "dane-divipola-mgn-2025",
        "year": 2025
      }
    },
    {
      "type": "Feature",
      "id": 2638,
      "geometry": {
        "type": "Polygon",
        "coordinates": [
          [
            [
              -76.29695,
              4.04839
            ],
            [
              -76.30921,
              4.04655
            ],
            [
              -76.29683,
              4.01557
            ],
            [
              -76.31132,
              4.01931
            ],
            [
              -76.31271,
              3.99311
            ],
            [
              -76.28162,
              3.96329
            ],
            [
              -76.24921,
              3.95917
            ],
            [
              -76.22782,
              3.93166
            ],
            [
              -76.15499,
              3.92588
            ],
            [
              -76.14755,
              3.9049
            ],
            [
              -76.11573,
              3.91625
            ],
            [
              -76.10036,
              3.95756
            ],
            [
              -76.13489,
              3.97469
            ],
            [
              -76.16176,
              4.02257
            ],
            [
              -76.17967,
              4.0172
            ],
            [
              -76.17793,
              4.03442
            ],
            [
              -76.24579,
              4.03206
            ],
            [
              -76.29695,
              4.04839
            ]
          ]
        ]
      },
      "properties": {
        "code": "76670",
        "departmentCode": "76",
        "name": "SAN PEDRO",
        "resultType": "observed",
        "source": "dane-divipola-mgn-2025",
        "year": 2025
      }
    },
    {
      "type": "Feature",
      "id": 2639,
      "geometry": {
        "type": "Polygon",
        "coordinates": [
          [
            [
              -75.86927,
              4.40988
            ],
            [
              -75.94021,
              4.38693
            ],
            [
              -75.95576,
              4.32193
            ],
            [
              -75.97917,
              4.32742
            ],
            [
              -75.9947,
              4.30036
            ],
            [
              -76.021,
              4.30371
            ],
            [
              -76.03786,
              4.25193
            ],
            [
              -75.97567,
              4.22044
            ],
            [
              -75.95622,
              4.17753
            ],
            [
              -75.91327,
              4.17496
            ],
            [
              -75.89794,
              4.14741
            ],
            [
              -75.90898,
              4.13112
            ],
            [
              -75.90122,
              4.08441
            ],
            [
              -75.86033,
              4.06951
            ],
            [
              -75.84643,
              3.98712
            ],
            [
              -75.819,
              3.94072
            ],
            [
              -75.82283,
              3.90456
            ],
            [
              -75.79147,
              3.97105
            ],
            [
              -75.79526,
              4.00506
            ],
            [
              -75.77649,
              4.00395
            ],
            [
              -75.73762,
              4.05541
            ],
            [
              -75.7524,
              4.07739
            ],
            [
              -75.83904,
              4.09757
            ],
            [
              -75.84296,
              4.15076
            ],
            [
              -75.81943,
              4.20242
            ],
            [
              -75.82486,
              4.21483
            ],
            [
              -75.83947,
              4.19904
            ],
            [
              -75.86062,
              4.20846
            ],
            [
              -75.85568,
              4.23915
            ],
            [
              -75.89427,
              4.29427
            ],
            [
              -75.85477,
              4.36349
            ],
            [
              -75.86927,
              4.40988
            ]
          ]
        ]
      },
      "properties": {
        "code": "76736",
        "departmentCode": "76",
        "name": "SEVILLA",
        "resultType": "observed",
        "source": "dane-divipola-mgn-2025",
        "year": 2025
      }
    },
    {
      "type": "Feature",
      "id": 2640,
      "geometry": {
        "type": "Polygon",
        "coordinates": [
          [
            [
              -76.08532,
              4.73566
            ],
            [
              -76.13188,
              4.62914
            ],
            [
              -76.16126,
              4.60138
            ],
            [
              -76.13767,
              4.55739
            ],
            [
              -76.07132,
              4.59568
            ],
            [
              -76.03895,
              4.58314
            ],
            [
              -76.01092,
              4.60422
            ],
            [
              -76.03679,
              4.61985
            ],
            [
              -76.01584,
              4.69272
            ],
            [
              -76.07263,
              4.71481
            ],
            [
              -76.08532,
              4.73566
            ]
          ]
        ]
      },
      "properties": {
        "code": "76823",
        "departmentCode": "76",
        "name": "TORO",
        "resultType": "observed",
        "source": "dane-divipola-mgn-2025",
        "year": 2025
      }
    },
    {
      "type": "Feature",
      "id": 2641,
      "geometry": {
        "type": "Polygon",
        "coordinates": [
          [
            [
              -76.28143,
              4.27619
            ],
            [
              -76.29573,
              4.29872
            ],
            [
              -76.40659,
              4.29997
            ],
            [
              -76.45501,
              4.22946
            ],
            [
              -76.44826,
              4.16154
            ],
            [
              -76.34981,
              4.15906
            ],
            [
              -76.32588,
              4.19457
            ],
            [
              -76.28885,
              4.2042
            ],
            [
              -76.26162,
              4.17912
            ],
            [
              -76.23986,
              4.18518
            ],
            [
              -76.22765,
              4.20751
            ],
            [
              -76.23714,
              4.22914
            ],
            [
              -76.21262,
              4.25969
            ],
            [
              -76.23867,
              4.27552
            ],
            [
              -76.24667,
              4.30603
            ],
            [
              -76.28143,
              4.27619
            ]
          ]
        ]
      },
      "properties": {
        "code": "76828",
        "departmentCode": "76",
        "name": "TRUJILLO",
        "resultType": "observed",
        "source": "dane-divipola-mgn-2025",
        "year": 2025
      }
    },
    {
      "type": "Feature",
      "id": 2642,
      "geometry": {
        "type": "Polygon",
        "coordinates": [
          [
            [
              -75.93633,
              4.18341
            ],
            [
              -76.00097,
              4.10197
            ],
            [
              -76.07094,
              4.08824
            ],
            [
              -76.08362,
              4.06645
            ],
            [
              -76.11146,
              4.06679
            ],
            [
              -76.12977,
              4.11064
            ],
            [
              -76.22799,
              4.1465
            ],
            [
              -76.24473,
              4.16833
            ],
            [
              -76.24833,
              4.13662
            ],
            [
              -76.28104,
              4.10486
            ],
            [
              -76.28687,
              4.12404
            ],
            [
              -76.30041,
              4.11426
            ],
            [
              -76.31379,
              4.07914
            ],
            [
              -76.29531,
              4.07522
            ],
            [
              -76.3081,
              4.06919
            ],
            [
              -76.2971,
              4.04665
            ],
            [
              -76.16176,
              4.02257
            ],
            [
              -76.13489,
              3.97469
            ],
            [
              -76.08958,
              3.95116
            ],
            [
              -76.07289,
              3.90053
            ],
            [
              -75.99814,
              3.89406
            ],
            [
              -75.87796,
              3.92728
            ],
            [
              -75.8498,
              3.88922
            ],
            [
              -75.8232,
              3.90454
            ],
            [
              -75.81902,
              3.94081
            ],
            [
              -75.84643,
              3.98712
            ],
            [
              -75.86053,
              4.06993
            ],
            [
              -75.90122,
              4.08441
            ],
            [
              -75.89855,
              4.1499
            ],
            [
              -75.93633,
              4.18341
            ]
          ]
        ]
      },
      "properties": {
        "code": "76834",
        "departmentCode": "76",
        "name": "TULUÁ",
        "resultType": "observed",
        "source": "dane-divipola-mgn-2025",
        "year": 2025
      }
    },
    {
      "type": "Feature",
      "id": 2643,
      "geometry": {
        "type": "Polygon",
        "coordinates": [
          [
            [
              -75.71489,
              4.71308
            ],
            [
              -75.78943,
              4.71613
            ],
            [
              -75.8311,
              4.73782
            ],
            [
              -75.85659,
              4.72659
            ],
            [
              -75.85657,
              4.71321
            ],
            [
              -75.8281,
              4.71764
            ],
            [
              -75.82638,
              4.70226
            ],
            [
              -75.71077,
              4.67851
            ],
            [
              -75.71489,
              4.71308
            ]
          ]
        ]
      },
      "properties": {
        "code": "76845",
        "departmentCode": "76",
        "name": "ULLOA",
        "resultType": "observed",
        "source": "dane-divipola-mgn-2025",
        "year": 2025
      }
    },
    {
      "type": "Feature",
      "id": 2644,
      "geometry": {
        "type": "Polygon",
        "coordinates": [
          [
            [
              -76.29529,
              4.69784
            ],
            [
              -76.30465,
              4.63811
            ],
            [
              -76.29117,
              4.6076
            ],
            [
              -76.27131,
              4.58258
            ],
            [
              -76.24448,
              4.61433
            ],
            [
              -76.22317,
              4.6069
            ],
            [
              -76.24706,
              4.56042
            ],
            [
              -76.22474,
              4.5638
            ],
            [
              -76.21674,
              4.52555
            ],
            [
              -76.15265,
              4.56376
            ],
            [
              -76.16126,
              4.60138
            ],
            [
              -76.12267,
              4.65121
            ],
            [
              -76.16407,
              4.66624
            ],
            [
              -76.19236,
              4.65463
            ],
            [
              -76.19446,
              4.68177
            ],
            [
              -76.23132,
              4.67497
            ],
            [
              -76.29529,
              4.69784
            ]
          ]
        ]
      },
      "properties": {
        "code": "76863",
        "departmentCode": "76",
        "name": "VERSALLES",
        "resultType": "observed",
        "source": "dane-divipola-mgn-2025",
        "year": 2025
      }
    },
    {
      "type": "Feature",
      "id": 2645,
      "geometry": {
        "type": "Polygon",
        "coordinates": [
          [
            [
              -76.46136,
              3.82634
            ],
            [
              -76.49701,
              3.7648
            ],
            [
              -76.53693,
              3.74894
            ],
            [
              -76.50383,
              3.69665
            ],
            [
              -76.42605,
              3.68104
            ],
            [
              -76.40089,
              3.74034
            ],
            [
              -76.42141,
              3.72923
            ],
            [
              -76.44542,
              3.74645
            ],
            [
              -76.45563,
              3.78771
            ],
            [
              -76.43393,
              3.82369
            ],
            [
              -76.46136,
              3.82634
            ]
          ]
        ]
      },
      "properties": {
        "code": "76869",
        "departmentCode": "76",
        "name": "VIJES",
        "resultType": "observed",
        "source": "dane-divipola-mgn-2025",
        "year": 2025
      }
    },
    {
      "type": "Feature",
      "id": 2646,
      "geometry": {
        "type": "Polygon",
        "coordinates": [
          [
            [
              -76.29635,
              4.06096
            ],
            [
              -76.35575,
              4.05329
            ],
            [
              -76.36437,
              4.02265
            ],
            [
              -76.41568,
              4.00977
            ],
            [
              -76.41852,
              3.98892
            ],
            [
              -76.3968,
              3.97615
            ],
            [
              -76.44658,
              3.91766
            ],
            [
              -76.46048,
              3.86509
            ],
            [
              -76.48988,
              3.85542
            ],
            [
              -76.48046,
              3.83495
            ],
            [
              -76.43393,
              3.82369
            ],
            [
              -76.45513,
              3.77056
            ],
            [
              -76.42255,
              3.72963
            ],
            [
              -76.40089,
              3.74034
            ],
            [
              -76.40057,
              3.78455
            ],
            [
              -76.38506,
              3.77745
            ],
            [
              -76.38879,
              3.79663
            ],
            [
              -76.37405,
              3.80144
            ],
            [
              -76.37887,
              3.84398
            ],
            [
              -76.33919,
              3.90494
            ],
            [
              -76.34777,
              3.91424
            ],
            [
              -76.32855,
              3.91843
            ],
            [
              -76.33282,
              3.94187
            ],
            [
              -76.32061,
              3.93797
            ],
            [
              -76.32406,
              3.98279
            ],
            [
              -76.31022,
              3.98748
            ],
            [
              -76.32523,
              3.98972
            ],
            [
              -76.3028,
              4.00056
            ],
            [
              -76.31095,
              4.01968
            ],
            [
              -76.29707,
              4.01466
            ],
            [
              -76.30991,
              4.04003
            ],
            [
              -76.29635,
              4.06096
            ]
          ]
        ]
      },
      "properties": {
        "code": "76890",
        "departmentCode": "76",
        "name": "YOTOCO",
        "resultType": "observed",
        "source": "dane-divipola-mgn-2025",
        "year": 2025
      }
    },
    {
      "type": "Feature",
      "id": 2647,
      "geometry": {
        "type": "Polygon",
        "coordinates": [
          [
            [
              -76.5015,
              3.69572
            ],
            [
              -76.55301,
              3.63754
            ],
            [
              -76.59289,
              3.54829
            ],
            [
              -76.54563,
              3.49607
            ],
            [
              -76.51004,
              3.49051
            ],
            [
              -76.49122,
              3.50614
            ],
            [
              -76.48804,
              3.53632
            ],
            [
              -76.46864,
              3.53631
            ],
            [
              -76.4874,
              3.55918
            ],
            [
              -76.46185,
              3.56011
            ],
            [
              -76.46098,
              3.62473
            ],
            [
              -76.42605,
              3.68104
            ],
            [
              -76.5015,
              3.69572
            ]
          ]
        ]
      },
      "properties": {
        "code": "76892",
        "departmentCode": "76",
        "name": "YUMBO",
        "resultType": "observed",
        "source": "dane-divipola-mgn-2025",
        "year": 2025
      }
    },
    {
      "type": "Feature",
      "id": 2648,
      "geometry": {
        "type": "Polygon",
        "coordinates": [
          [
            [
              -75.88558,
              4.4111
            ],
            [
              -75.89563,
              4.42613
            ],
            [
              -75.92815,
              4.40127
            ],
            [
              -75.95808,
              4.4022
            ],
            [
              -75.96339,
              4.42018
            ],
            [
              -75.99598,
              4.40593
            ],
            [
              -75.99992,
              4.43607
            ],
            [
              -76.05433,
              4.46366
            ],
            [
              -76.07319,
              4.4336
            ],
            [
              -76.08445,
              4.44286
            ],
            [
              -76.10366,
              4.40084
            ],
            [
              -76.12773,
              4.40302
            ],
            [
              -76.14169,
              4.37957
            ],
            [
              -76.13031,
              4.37255
            ],
            [
              -76.1475,
              4.37444
            ],
            [
              -76.1524,
              4.3591
            ],
            [
              -76.13828,
              4.35305
            ],
            [
              -76.16199,
              4.3485
            ],
            [
              -76.15047,
              4.34113
            ],
            [
              -76.17135,
              4.3174
            ],
            [
              -76.09273,
              4.2454
            ],
            [
              -76.0393,
              4.25417
            ],
            [
              -76.021,
              4.30371
            ],
            [
              -75.9947,
              4.30036
            ],
            [
              -75.97917,
              4.32742
            ],
            [
              -75.95576,
              4.32193
            ],
            [
              -75.94029,
              4.38686
            ],
            [
              -75.88558,
              4.4111
            ]
          ]
        ]
      },
      "properties": {
        "code": "76895",
        "departmentCode": "76",
        "name": "ZARZAL",
        "resultType": "observed",
        "source": "dane-divipola-mgn-2025",
        "year": 2025
      }
    }
  ]
}
