{
  "type": "FeatureCollection",
  "metadata": {
    "source": "DANE DIVIPOLA MGN 2025",
    "downloadedAt": "2026-07-27T05:06:31Z",
    "crs": "EPSG:4326",
    "simplification": "ArcGIS maxAllowableOffset=0.01 grados y geometryPrecision=5; solo visualización web"
  },
  "features": [
    {
      "type": "Feature",
      "id": 2649,
      "geometry": {
        "type": "Polygon",
        "coordinates": [
          [
            [
              -70.68038,
              7.09393
            ],
            [
              -70.68721,
              7.10438
            ],
            [
              -70.73596,
              7.0887
            ],
            [
              -70.76049,
              7.09766
            ],
            [
              -70.77743,
              7.07669
            ],
            [
              -70.8533,
              7.07765
            ],
            [
              -70.84913,
              7.05702
            ],
            [
              -70.88632,
              7.06438
            ],
            [
              -70.90768,
              7.04128
            ],
            [
              -70.91896,
              7.05255
            ],
            [
              -70.92036,
              7.02464
            ],
            [
              -70.96978,
              7.01636
            ],
            [
              -70.99658,
              6.98238
            ],
            [
              -71.08928,
              6.98338
            ],
            [
              -71.20827,
              6.86917
            ],
            [
              -71.04322,
              6.8401
            ],
            [
              -70.95794,
              6.64866
            ],
            [
              -70.84643,
              6.60935
            ],
            [
              -70.81376,
              6.58996
            ],
            [
              -70.81693,
              6.57597
            ],
            [
              -70.75916,
              6.56955
            ],
            [
              -70.72484,
              6.58905
            ],
            [
              -70.70243,
              6.5531
            ],
            [
              -70.69032,
              6.55754
            ],
            [
              -70.68436,
              6.53012
            ],
            [
              -70.66675,
              6.53604
            ],
            [
              -70.65516,
              6.48495
            ],
            [
              -70.40531,
              6.64828
            ],
            [
              -70.39092,
              6.63537
            ],
            [
              -70.28119,
              6.63174
            ],
            [
              -70.25334,
              6.59611
            ],
            [
              -70.23279,
              6.61113
            ],
            [
              -70.22149,
              6.59778
            ],
            [
              -70.1849,
              6.60778
            ],
            [
              -70.13226,
              6.57981
            ],
            [
              -70.10517,
              6.58856
            ],
            [
              -70.01757,
              6.56213
            ],
            [
              -69.96031,
              6.56326
            ],
            [
              -69.93724,
              6.54585
            ],
            [
              -69.91474,
              6.55445
            ],
            [
              -69.88017,
              6.50711
            ],
            [
              -69.83663,
              6.4959
            ],
            [
              -69.80344,
              6.52993
            ],
            [
              -69.76178,
              6.52973
            ],
            [
              -70.1178,
              6.97941
            ],
            [
              -70.22433,
              6.97472
            ],
            [
              -70.2655,
              6.94123
            ],
            [
              -70.32239,
              6.93457
            ],
            [
              -70.36075,
              6.95622
            ],
            [
              -70.37211,
              6.98091
            ],
            [
              -70.41667,
              6.98087
            ],
            [
              -70.43111,
              7.00728
            ],
            [
              -70.50234,
              7.00567
            ],
            [
              -70.55633,
              7.07932
            ],
            [
              -70.60761,
              7.06367
            ],
            [
              -70.68038,
              7.09393
            ]
          ]
        ]
      },
      "properties": {
        "code": "81001",
        "departmentCode": "81",
        "name": "ARAUCA",
        "originalCode": "001",
        "originalName": "ARAUCA",
        "MPIO_TIPO": "MUNICIPIO",
        "type": "MUNICIPIO",
        "unitType": "municipio",
        "MPIO_NAREA": 5767.22611123,
        "MPIO_NANO": 2024,
        "MPIO_CRSLCION": "1959",
        "areaName": 5767.22611123,
        "creationYear": 2024,
        "creationResolution": "1959",
        "resultType": "observed",
        "source": "dane-divipola-mgn-2025",
        "year": 2025
      }
    },
    {
      "type": "Feature",
      "id": 2650,
      "geometry": {
        "type": "Polygon",
        "coordinates": [
          [
            [
              -71.58441,
              7.04299
            ],
            [
              -71.58772,
              7.0552
            ],
            [
              -71.61671,
              7.04258
            ],
            [
              -71.64038,
              7.05352
            ],
            [
              -71.66167,
              7.03355
            ],
            [
              -71.69298,
              7.0372
            ],
            [
              -71.67031,
              6.87459
            ],
            [
              -71.33833,
              6.56944
            ],
            [
              -71.31284,
              6.57187
            ],
            [
              -71.30638,
              6.58887
            ],
            [
              -71.18509,
              6.54119
            ],
            [
              -71.17531,
              6.55608
            ],
            [
              -71.10366,
              6.55736
            ],
            [
              -70.98933,
              6.54411
            ],
            [
              -70.95765,
              6.56182
            ],
            [
              -70.92999,
              6.54302
            ],
            [
              -70.90406,
              6.5548
            ],
            [
              -70.88829,
              6.52963
            ],
            [
              -70.86828,
              6.52863
            ],
            [
              -70.88526,
              6.6228
            ],
            [
              -70.95836,
              6.64914
            ],
            [
              -71.04305,
              6.83998
            ],
            [
              -71.20827,
              6.86917
            ],
            [
              -71.08928,
              6.98338
            ],
            [
              -71.11301,
              6.99084
            ],
            [
              -71.11506,
              7.00665
            ],
            [
              -71.10312,
              7.00687
            ],
            [
              -71.12858,
              7.03224
            ],
            [
              -71.19147,
              7.01896
            ],
            [
              -71.22792,
              7.02741
            ],
            [
              -71.24095,
              7.01183
            ],
            [
              -71.26448,
              7.03206
            ],
            [
              -71.36985,
              7.01535
            ],
            [
              -71.39174,
              7.03594
            ],
            [
              -71.42436,
              7.03893
            ],
            [
              -71.45497,
              7.00978
            ],
            [
              -71.46523,
              7.04223
            ],
            [
              -71.48023,
              7.01474
            ],
            [
              -71.49846,
              7.03628
            ],
            [
              -71.51204,
              7.02163
            ],
            [
              -71.54031,
              7.03475
            ],
            [
              -71.58868,
              7.01669
            ],
            [
              -71.58441,
              7.04299
            ]
          ]
        ]
      },
      "properties": {
        "code": "81065",
        "departmentCode": "81",
        "name": "ARAUQUITA",
        "originalCode": "065",
        "originalName": "ARAUQUITA",
        "MPIO_TIPO": "MUNICIPIO",
        "type": "MUNICIPIO",
        "unitType": "municipio",
        "MPIO_NAREA": 3037.58298726,
        "MPIO_NANO": 2024,
        "MPIO_CRSLCION": "Decreto 1447 del 28 de Julio de 1971",
        "areaName": 3037.58298726,
        "creationYear": 2024,
        "creationResolution": "Decreto 1447 del 28 de Julio de 1971",
        "resultType": "observed",
        "source": "dane-divipola-mgn-2025",
        "year": 2025
      }
    },
    {
      "type": "Feature",
      "id": 2651,
      "geometry": {
        "type": "Polygon",
        "coordinates": [
          [
            [
              -69.76161,
              6.53034
            ],
            [
              -69.80344,
              6.52993
            ],
            [
              -69.83663,
              6.4959
            ],
            [
              -69.88017,
              6.50711
            ],
            [
              -69.91474,
              6.55445
            ],
            [
              -69.93724,
              6.54585
            ],
            [
              -69.96031,
              6.56326
            ],
            [
              -70.01757,
              6.56213
            ],
            [
              -70.10517,
              6.58856
            ],
            [
              -70.13226,
              6.57981
            ],
            [
              -70.1849,
              6.60778
            ],
            [
              -70.22149,
              6.59778
            ],
            [
              -70.23279,
              6.61113
            ],
            [
              -70.25334,
              6.59611
            ],
            [
              -70.28119,
              6.63174
            ],
            [
              -70.4102,
              6.64742
            ],
            [
              -70.65516,
              6.48495
            ],
            [
              -70.72007,
              6.22085
            ],
            [
              -70.63077,
              6.22715
            ],
            [
              -70.57967,
              6.24962
            ],
            [
              -70.53902,
              6.24505
            ],
            [
              -70.53055,
              6.23009
            ],
            [
              -70.43067,
              6.27805
            ],
            [
              -70.43069,
              6.2915
            ],
            [
              -70.38094,
              6.30242
            ],
            [
              -70.27148,
              6.27391
            ],
            [
              -70.19838,
              6.29574
            ],
            [
              -70.17519,
              6.27902
            ],
            [
              -70.16149,
              6.29834
            ],
            [
              -70.14953,
              6.26887
            ],
            [
              -70.12207,
              6.26173
            ],
            [
              -70.11475,
              6.23282
            ],
            [
              -70.06621,
              6.21146
            ],
            [
              -70.0602,
              6.18505
            ],
            [
              -70.04009,
              6.18463
            ],
            [
              -70.058,
              6.1587
            ],
            [
              -70.00268,
              6.14888
            ],
            [
              -69.99006,
              6.1659
            ],
            [
              -69.98519,
              6.13657
            ],
            [
              -69.94625,
              6.14084
            ],
            [
              -69.89949,
              6.09627
            ],
            [
              -69.89727,
              6.05966
            ],
            [
              -69.8682,
              6.04167
            ],
            [
              -69.78432,
              6.05855
            ],
            [
              -69.68258,
              6.03842
            ],
            [
              -69.54155,
              6.04365
            ],
            [
              -69.45181,
              6.08377
            ],
            [
              -69.42885,
              6.10908
            ],
            [
              -69.76161,
              6.53034
            ]
          ]
        ]
      },
      "properties": {
        "code": "81220",
        "departmentCode": "81",
        "name": "CRAVO NORTE",
        "originalCode": "220",
        "originalName": "CRAVO NORTE",
        "MPIO_TIPO": "MUNICIPIO",
        "type": "MUNICIPIO",
        "unitType": "municipio",
        "MPIO_NAREA": 5192.41327615,
        "MPIO_NANO": 2025,
        "MPIO_CRSLCION": "Decreto Nal 677 de Abril 13 de  1987",
        "areaName": 5192.41327615,
        "creationYear": 2025,
        "creationResolution": "Decreto Nal 677 de Abril 13 de  1987",
        "resultType": "observed",
        "source": "dane-divipola-mgn-2025",
        "year": 2025
      }
    },
    {
      "type": "Feature",
      "id": 2652,
      "geometry": {
        "type": "Polygon",
        "coordinates": [
          [
            [
              -71.54019,
              6.75507
            ],
            [
              -71.67031,
              6.87459
            ],
            [
              -71.75924,
              6.811
            ],
            [
              -72.10013,
              6.74647
            ],
            [
              -72.09143,
              6.64596
            ],
            [
              -72.11303,
              6.61143
            ],
            [
              -72.12902,
              6.5247
            ],
            [
              -72.06704,
              6.51828
            ],
            [
              -71.97882,
              6.55094
            ],
            [
              -71.96891,
              6.58486
            ],
            [
              -71.94255,
              6.60002
            ],
            [
              -71.94304,
              6.62145
            ],
            [
              -71.90368,
              6.64977
            ],
            [
              -71.88651,
              6.68387
            ],
            [
              -71.73298,
              6.70383
            ],
            [
              -71.67183,
              6.64905
            ],
            [
              -71.63458,
              6.65563
            ],
            [
              -71.62698,
              6.64214
            ],
            [
              -71.6218,
              6.65542
            ],
            [
              -71.60214,
              6.64108
            ],
            [
              -71.59828,
              6.65305
            ],
            [
              -71.58591,
              6.63641
            ],
            [
              -71.5789,
              6.65446
            ],
            [
              -71.55348,
              6.65018
            ],
            [
              -71.53598,
              6.66479
            ],
            [
              -71.5254,
              6.65326
            ],
            [
              -71.51207,
              6.68505
            ],
            [
              -71.47657,
              6.66754
            ],
            [
              -71.45347,
              6.67542
            ],
            [
              -71.54019,
              6.75507
            ]
          ]
        ]
      },
      "properties": {
        "code": "81300",
        "departmentCode": "81",
        "name": "FORTUL",
        "originalCode": "300",
        "originalName": "FORTUL",
        "MPIO_TIPO": "MUNICIPIO",
        "type": "MUNICIPIO",
        "unitType": "municipio",
        "MPIO_NAREA": 1155.45461563,
        "MPIO_NANO": 2024,
        "MPIO_CRSLCION": "Decreto 2926 de 1989",
        "areaName": 1155.45461563,
        "creationYear": 2024,
        "creationResolution": "Decreto 2926 de 1989",
        "resultType": "observed",
        "source": "dane-divipola-mgn-2025",
        "year": 2025
      }
    },
    {
      "type": "Feature",
      "id": 2653,
      "geometry": {
        "type": "Polygon",
        "coordinates": [
          [
            [
              -70.87879,
              6.62133
            ],
            [
              -70.87805,
              6.52626
            ],
            [
              -70.90406,
              6.5548
            ],
            [
              -70.92999,
              6.54302
            ],
            [
              -70.95765,
              6.56182
            ],
            [
              -70.98933,
              6.54411
            ],
            [
              -71.10366,
              6.55736
            ],
            [
              -71.17531,
              6.55608
            ],
            [
              -71.18509,
              6.54119
            ],
            [
              -71.27166,
              6.58182
            ],
            [
              -71.30638,
              6.58887
            ],
            [
              -71.31284,
              6.57187
            ],
            [
              -71.33502,
              6.57475
            ],
            [
              -71.26783,
              6.50555
            ],
            [
              -71.27676,
              6.29917
            ],
            [
              -71.2604,
              6.28747
            ],
            [
              -71.2185,
              6.29823
            ],
            [
              -71.15815,
              6.26292
            ],
            [
              -71.09258,
              6.27914
            ],
            [
              -71.05979,
              6.25462
            ],
            [
              -71.0354,
              6.25461
            ],
            [
              -71.03471,
              6.2662
            ],
            [
              -70.98516,
              6.22883
            ],
            [
              -70.89583,
              6.2357
            ],
            [
              -70.86791,
              6.22162
            ],
            [
              -70.86116,
              6.23935
            ],
            [
              -70.79717,
              6.25349
            ],
            [
              -70.76939,
              6.22874
            ],
            [
              -70.72318,
              6.2175
            ],
            [
              -70.65557,
              6.51564
            ],
            [
              -70.66805,
              6.53713
            ],
            [
              -70.68436,
              6.53012
            ],
            [
              -70.69032,
              6.55754
            ],
            [
              -70.70243,
              6.5531
            ],
            [
              -70.72484,
              6.58905
            ],
            [
              -70.75916,
              6.56955
            ],
            [
              -70.81693,
              6.57597
            ],
            [
              -70.81857,
              6.59403
            ],
            [
              -70.87879,
              6.62133
            ]
          ]
        ]
      },
      "properties": {
        "code": "81591",
        "departmentCode": "81",
        "name": "PUERTO RONDÓN",
        "originalCode": "591",
        "originalName": "PUERTO RONDÓN",
        "MPIO_TIPO": "MUNICIPIO",
        "type": "MUNICIPIO",
        "unitType": "municipio",
        "MPIO_NAREA": 2273.98869923,
        "MPIO_NANO": 2024,
        "MPIO_CRSLCION": "Decreto Nal 677 de Abril 13 de  1987",
        "areaName": 2273.98869923,
        "creationYear": 2024,
        "creationResolution": "Decreto Nal 677 de Abril 13 de  1987",
        "resultType": "observed",
        "source": "dane-divipola-mgn-2025",
        "year": 2025
      }
    },
    {
      "type": "Feature",
      "id": 2654,
      "geometry": {
        "type": "Polygon",
        "coordinates": [
          [
            [
              -71.76224,
              7.06602
            ],
            [
              -71.82466,
              7.05658
            ],
            [
              -71.83496,
              7.02566
            ],
            [
              -71.96015,
              7.0016
            ],
            [
              -72.0506,
              6.7689
            ],
            [
              -72.10013,
              6.74647
            ],
            [
              -71.75924,
              6.811
            ],
            [
              -71.67031,
              6.87459
            ],
            [
              -71.69298,
              7.0372
            ],
            [
              -71.71455,
              7.0345
            ],
            [
              -71.71882,
              7.05462
            ],
            [
              -71.76224,
              7.06602
            ]
          ]
        ]
      },
      "properties": {
        "code": "81736",
        "departmentCode": "81",
        "name": "SARAVENA",
        "originalCode": "736",
        "originalName": "SARAVENA",
        "MPIO_TIPO": "MUNICIPIO",
        "type": "MUNICIPIO",
        "unitType": "municipio",
        "MPIO_NAREA": 942.58736174,
        "MPIO_NANO": 2024,
        "MPIO_CRSLCION": "Decreto Nal 204 de Feb 3 de 1976",
        "areaName": 942.58736174,
        "creationYear": 2024,
        "creationResolution": "Decreto Nal 204 de Feb 3 de 1976",
        "resultType": "observed",
        "source": "dane-divipola-mgn-2025",
        "year": 2025
      }
    },
    {
      "type": "Feature",
      "id": 2655,
      "geometry": {
        "type": "Polygon",
        "coordinates": [
          [
            [
              -71.73216,
              6.70304
            ],
            [
              -71.88859,
              6.68324
            ],
            [
              -71.90368,
              6.64977
            ],
            [
              -71.94304,
              6.62145
            ],
            [
              -71.94255,
              6.60002
            ],
            [
              -71.96891,
              6.58486
            ],
            [
              -71.97882,
              6.55094
            ],
            [
              -72.06075,
              6.51949
            ],
            [
              -72.10353,
              6.53053
            ],
            [
              -72.15121,
              6.51557
            ],
            [
              -72.17788,
              6.49676
            ],
            [
              -72.17475,
              6.46301
            ],
            [
              -72.21336,
              6.46577
            ],
            [
              -72.23551,
              6.42174
            ],
            [
              -72.26787,
              6.44158
            ],
            [
              -72.28272,
              6.37939
            ],
            [
              -72.31549,
              6.35771
            ],
            [
              -72.32165,
              6.33184
            ],
            [
              -72.34573,
              6.34173
            ],
            [
              -72.36662,
              6.30689
            ],
            [
              -72.34388,
              6.22603
            ],
            [
              -72.28513,
              6.19755
            ],
            [
              -72.28904,
              6.1632
            ],
            [
              -72.27272,
              6.13122
            ],
            [
              -72.13766,
              6.06661
            ],
            [
              -72.07744,
              6.11293
            ],
            [
              -72.01041,
              6.12998
            ],
            [
              -71.95471,
              6.16899
            ],
            [
              -71.87939,
              6.15915
            ],
            [
              -71.82408,
              6.18724
            ],
            [
              -71.67149,
              6.19037
            ],
            [
              -71.63759,
              6.2287
            ],
            [
              -71.61401,
              6.22683
            ],
            [
              -71.61228,
              6.21009
            ],
            [
              -71.59261,
              6.21143
            ],
            [
              -71.57516,
              6.19111
            ],
            [
              -71.57403,
              6.20979
            ],
            [
              -71.5533,
              6.19716
            ],
            [
              -71.53516,
              6.22564
            ],
            [
              -71.50979,
              6.19775
            ],
            [
              -71.49661,
              6.2166
            ],
            [
              -71.48765,
              6.20143
            ],
            [
              -71.45634,
              6.22289
            ],
            [
              -71.44005,
              6.21456
            ],
            [
              -71.44832,
              6.24591
            ],
            [
              -71.42031,
              6.22503
            ],
            [
              -71.4163,
              6.24297
            ],
            [
              -71.38132,
              6.24159
            ],
            [
              -71.37789,
              6.22515
            ],
            [
              -71.34747,
              6.22971
            ],
            [
              -71.33245,
              6.2566
            ],
            [
              -71.29588,
              6.27259
            ],
            [
              -71.27238,
              6.26138
            ],
            [
              -71.26767,
              6.28498
            ],
            [
              -71.2329,
              6.264
            ],
            [
              -71.21793,
              6.28948
            ],
            [
              -71.2604,
              6.28747
            ],
            [
              -71.27779,
              6.3035
            ],
            [
              -71.26783,
              6.50555
            ],
            [
              -71.45347,
              6.67542
            ],
            [
              -71.47657,
              6.66754
            ],
            [
              -71.51207,
              6.68505
            ],
            [
              -71.5254,
              6.65326
            ],
            [
              -71.54871,
              6.66286
            ],
            [
              -71.55348,
              6.65018
            ],
            [
              -71.57995,
              6.65383
            ],
            [
              -71.58682,
              6.63646
            ],
            [
              -71.59828,
              6.65305
            ],
            [
              -71.60214,
              6.64108
            ],
            [
              -71.6218,
              6.65542
            ],
            [
              -71.62698,
              6.64214
            ],
            [
              -71.63458,
              6.65563
            ],
            [
              -71.67183,
              6.64905
            ],
            [
              -71.73216,
              6.70304
            ]
          ]
        ]
      },
      "properties": {
        "code": "81794",
        "departmentCode": "81",
        "name": "TAME",
        "originalCode": "794",
        "originalName": "TAME",
        "MPIO_TIPO": "MUNICIPIO",
        "type": "MUNICIPIO",
        "unitType": "municipio",
        "MPIO_NAREA": 5403.8756577,
        "MPIO_NANO": 2024,
        "MPIO_CRSLCION": "1959",
        "areaName": 5403.8756577,
        "creationYear": 2024,
        "creationResolution": "1959",
        "resultType": "observed",
        "source": "dane-divipola-mgn-2025",
        "year": 2025
      }
    }
  ]
}
