{
  "type": "FeatureCollection",
  "metadata": {
    "source": "DANE DIVIPOLA MGN 2025",
    "downloadedAt": "2026-07-25T07:50:10Z",
    "crs": "EPSG:4326",
    "simplification": "ArcGIS maxAllowableOffset=0.01 grados y geometryPrecision=5; solo visualización web"
  },
  "features": [
    {
      "type": "Feature",
      "id": 2656,
      "geometry": {
        "type": "Polygon",
        "coordinates": [
          [
            [
              -72.39513,
              5.56853
            ],
            [
              -72.4209,
              5.56324
            ],
            [
              -72.44239,
              5.51926
            ],
            [
              -72.48986,
              5.48183
            ],
            [
              -72.50343,
              5.44303
            ],
            [
              -72.58398,
              5.38199
            ],
            [
              -72.54119,
              5.35048
            ],
            [
              -72.4805,
              5.24986
            ],
            [
              -72.39849,
              5.22917
            ],
            [
              -72.40214,
              5.19902
            ],
            [
              -72.38052,
              5.1918
            ],
            [
              -72.38844,
              5.1754
            ],
            [
              -72.35873,
              5.13126
            ],
            [
              -72.36697,
              5.08688
            ],
            [
              -72.29934,
              5.04171
            ],
            [
              -72.30428,
              5.02137
            ],
            [
              -72.27427,
              4.99432
            ],
            [
              -72.28008,
              4.96383
            ],
            [
              -72.23779,
              4.9742
            ],
            [
              -72.20221,
              4.94261
            ],
            [
              -72.20124,
              4.92287
            ],
            [
              -72.15585,
              4.90351
            ],
            [
              -72.0812,
              4.96816
            ],
            [
              -71.93892,
              5.0277
            ],
            [
              -71.97713,
              5.05354
            ],
            [
              -72.02423,
              5.16713
            ],
            [
              -72.05481,
              5.18674
            ],
            [
              -72.03524,
              5.21701
            ],
            [
              -72.09649,
              5.26029
            ],
            [
              -72.08176,
              5.27728
            ],
            [
              -72.09882,
              5.29465
            ],
            [
              -72.08244,
              5.30069
            ],
            [
              -72.11953,
              5.32586
            ],
            [
              -72.09872,
              5.34502
            ],
            [
              -72.12183,
              5.34258
            ],
            [
              -72.1029,
              5.3596
            ],
            [
              -72.12067,
              5.35615
            ],
            [
              -72.11632,
              5.37416
            ],
            [
              -72.14057,
              5.3754
            ],
            [
              -72.12787,
              5.3943
            ],
            [
              -72.14129,
              5.38486
            ],
            [
              -72.15732,
              5.39709
            ],
            [
              -72.14041,
              5.41369
            ],
            [
              -72.16854,
              5.38787
            ],
            [
              -72.1728,
              5.41859
            ],
            [
              -72.20128,
              5.43069
            ],
            [
              -72.22236,
              5.53697
            ],
            [
              -72.26137,
              5.54579
            ],
            [
              -72.29212,
              5.51009
            ],
            [
              -72.32841,
              5.4972
            ],
            [
              -72.39513,
              5.56853
            ]
          ]
        ]
      },
      "properties": {
        "code": "85001",
        "departmentCode": "85",
        "name": "YOPAL",
        "resultType": "observed",
        "source": "dane-divipola-mgn-2025",
        "year": 2025
      }
    },
    {
      "type": "Feature",
      "id": 2657,
      "geometry": {
        "type": "Polygon",
        "coordinates": [
          [
            [
              -72.56545,
              5.36972
            ],
            [
              -72.57975,
              5.35033
            ],
            [
              -72.63336,
              5.34209
            ],
            [
              -72.65478,
              5.3044
            ],
            [
              -72.70097,
              5.2791
            ],
            [
              -72.70705,
              5.23589
            ],
            [
              -72.75052,
              5.21777
            ],
            [
              -72.7564,
              5.18605
            ],
            [
              -72.73096,
              5.15358
            ],
            [
              -72.74051,
              5.10542
            ],
            [
              -72.72359,
              5.05034
            ],
            [
              -72.67801,
              5.0033
            ],
            [
              -72.55104,
              4.9741
            ],
            [
              -72.50605,
              4.89792
            ],
            [
              -72.476,
              4.90004
            ],
            [
              -72.47173,
              4.86675
            ],
            [
              -72.43529,
              4.85124
            ],
            [
              -72.42128,
              4.86385
            ],
            [
              -72.40709,
              4.84038
            ],
            [
              -72.38675,
              4.84219
            ],
            [
              -72.37761,
              4.85434
            ],
            [
              -72.44185,
              4.90696
            ],
            [
              -72.48463,
              4.98935
            ],
            [
              -72.47418,
              5.01727
            ],
            [
              -72.42291,
              4.97233
            ],
            [
              -72.41377,
              4.97932
            ],
            [
              -72.41722,
              4.96848
            ],
            [
              -72.39656,
              4.99761
            ],
            [
              -72.33924,
              5.00215
            ],
            [
              -72.35431,
              5.07178
            ],
            [
              -72.33802,
              5.06756
            ],
            [
              -72.37203,
              5.09981
            ],
            [
              -72.35883,
              5.13163
            ],
            [
              -72.38844,
              5.1754
            ],
            [
              -72.38052,
              5.1918
            ],
            [
              -72.40214,
              5.19902
            ],
            [
              -72.39849,
              5.22917
            ],
            [
              -72.4805,
              5.24986
            ],
            [
              -72.50637,
              5.28025
            ],
            [
              -72.50802,
              5.30668
            ],
            [
              -72.56545,
              5.36972
            ]
          ]
        ]
      },
      "properties": {
        "code": "85010",
        "departmentCode": "85",
        "name": "AGUAZUL",
        "resultType": "observed",
        "source": "dane-divipola-mgn-2025",
        "year": 2025
      }
    },
    {
      "type": "Feature",
      "id": 2658,
      "geometry": {
        "type": "Polygon",
        "coordinates": [
          [
            [
              -72.81017,
              5.3666
            ],
            [
              -72.81207,
              5.37817
            ],
            [
              -72.8382,
              5.36557
            ],
            [
              -72.85984,
              5.34035
            ],
            [
              -72.88569,
              5.3588
            ],
            [
              -72.89621,
              5.26208
            ],
            [
              -72.97389,
              5.15036
            ],
            [
              -72.92803,
              5.09939
            ],
            [
              -72.90931,
              5.10346
            ],
            [
              -72.9161,
              5.12512
            ],
            [
              -72.90165,
              5.15054
            ],
            [
              -72.83881,
              5.15125
            ],
            [
              -72.80558,
              5.12457
            ],
            [
              -72.77626,
              5.14669
            ],
            [
              -72.7771,
              5.17423
            ],
            [
              -72.83961,
              5.20323
            ],
            [
              -72.81961,
              5.2258
            ],
            [
              -72.78817,
              5.33185
            ],
            [
              -72.81017,
              5.3666
            ]
          ]
        ]
      },
      "properties": {
        "code": "85015",
        "departmentCode": "85",
        "name": "CHÁMEZA",
        "resultType": "observed",
        "source": "dane-divipola-mgn-2025",
        "year": 2025
      }
    },
    {
      "type": "Feature",
      "id": 2659,
      "geometry": {
        "type": "Polygon",
        "coordinates": [
          [
            [
              -70.3614,
              6.29907
            ],
            [
              -70.43069,
              6.2915
            ],
            [
              -70.43067,
              6.27805
            ],
            [
              -70.53055,
              6.23009
            ],
            [
              -70.53902,
              6.24505
            ],
            [
              -70.57967,
              6.24962
            ],
            [
              -70.63077,
              6.22715
            ],
            [
              -70.72578,
              6.21641
            ],
            [
              -70.79717,
              6.25349
            ],
            [
              -70.86116,
              6.23935
            ],
            [
              -70.86791,
              6.22162
            ],
            [
              -70.89583,
              6.2357
            ],
            [
              -70.98516,
              6.22883
            ],
            [
              -71.03471,
              6.2662
            ],
            [
              -71.0354,
              6.25461
            ],
            [
              -71.05979,
              6.25462
            ],
            [
              -71.09258,
              6.27914
            ],
            [
              -71.15815,
              6.26292
            ],
            [
              -71.22055,
              6.29831
            ],
            [
              -71.23359,
              6.26361
            ],
            [
              -71.26767,
              6.28498
            ],
            [
              -71.27238,
              6.26138
            ],
            [
              -71.29776,
              6.27184
            ],
            [
              -71.33245,
              6.2566
            ],
            [
              -71.3486,
              6.22917
            ],
            [
              -71.37789,
              6.22515
            ],
            [
              -71.38067,
              6.2413
            ],
            [
              -71.41428,
              6.24341
            ],
            [
              -71.42086,
              6.22511
            ],
            [
              -71.44871,
              6.2458
            ],
            [
              -71.43966,
              6.21492
            ],
            [
              -71.45634,
              6.22289
            ],
            [
              -71.48717,
              6.20143
            ],
            [
              -71.49661,
              6.2166
            ],
            [
              -71.50979,
              6.19775
            ],
            [
              -71.53516,
              6.22564
            ],
            [
              -71.5533,
              6.19716
            ],
            [
              -71.57403,
              6.20979
            ],
            [
              -71.57516,
              6.19111
            ],
            [
              -71.59261,
              6.21143
            ],
            [
              -71.61228,
              6.21009
            ],
            [
              -71.61401,
              6.22683
            ],
            [
              -71.63759,
              6.2287
            ],
            [
              -71.67149,
              6.19037
            ],
            [
              -71.82408,
              6.18724
            ],
            [
              -71.87939,
              6.15915
            ],
            [
              -71.95471,
              6.16899
            ],
            [
              -72.01041,
              6.12998
            ],
            [
              -72.06127,
              6.11723
            ],
            [
              -72.0671,
              6.08006
            ],
            [
              -71.96046,
              6.00964
            ],
            [
              -71.92049,
              5.92716
            ],
            [
              -71.80344,
              5.89921
            ],
            [
              -71.78519,
              5.8869
            ],
            [
              -71.79535,
              5.87276
            ],
            [
              -71.74977,
              5.85487
            ],
            [
              -71.73872,
              5.82994
            ],
            [
              -71.70433,
              5.83094
            ],
            [
              -71.71522,
              5.81811
            ],
            [
              -71.69153,
              5.81183
            ],
            [
              -71.66569,
              5.84626
            ],
            [
              -71.60612,
              5.85026
            ],
            [
              -71.60416,
              5.86446
            ],
            [
              -71.56519,
              5.85259
            ],
            [
              -71.51312,
              5.87434
            ],
            [
              -71.5104,
              5.89827
            ],
            [
              -71.46174,
              5.89345
            ],
            [
              -71.436,
              5.92016
            ],
            [
              -71.39018,
              5.92533
            ],
            [
              -71.36092,
              5.96676
            ],
            [
              -71.35272,
              5.95358
            ],
            [
              -71.31818,
              5.97659
            ],
            [
              -71.28602,
              6.0337
            ],
            [
              -71.13259,
              6.05969
            ],
            [
              -70.89865,
              6.03325
            ],
            [
              -70.877,
              6.05498
            ],
            [
              -70.81828,
              6.05278
            ],
            [
              -70.80568,
              6.08416
            ],
            [
              -70.7412,
              6.12084
            ],
            [
              -70.70962,
              6.11996
            ],
            [
              -70.68425,
              6.08846
            ],
            [
              -70.58949,
              6.10762
            ],
            [
              -70.53656,
              6.06427
            ],
            [
              -70.44666,
              6.07722
            ],
            [
              -70.40977,
              6.06047
            ],
            [
              -70.38995,
              6.08699
            ],
            [
              -70.37288,
              6.0808
            ],
            [
              -70.35222,
              6.09428
            ],
            [
              -70.35789,
              6.10503
            ],
            [
              -70.33713,
              6.1018
            ],
            [
              -70.32869,
              6.126
            ],
            [
              -70.29364,
              6.10335
            ],
            [
              -70.28512,
              6.11491
            ],
            [
              -70.23952,
              6.1056
            ],
            [
              -70.16108,
              6.12259
            ],
            [
              -70.15226,
              6.09926
            ],
            [
              -70.10681,
              6.11351
            ],
            [
              -70.05393,
              6.07756
            ],
            [
              -70.02824,
              6.0777
            ],
            [
              -70.01622,
              6.05619
            ],
            [
              -69.97602,
              6.07392
            ],
            [
              -69.95015,
              6.05642
            ],
            [
              -69.93919,
              6.06614
            ],
            [
              -69.91322,
              6.05427
            ],
            [
              -69.91059,
              6.06546
            ],
            [
              -69.8919,
              6.05406
            ],
            [
              -69.89949,
              6.09627
            ],
            [
              -69.94358,
              6.13915
            ],
            [
              -69.98519,
              6.13657
            ],
            [
              -69.99006,
              6.1659
            ],
            [
              -70.00268,
              6.14888
            ],
            [
              -70.06157,
              6.16185
            ],
            [
              -70.04009,
              6.18463
            ],
            [
              -70.0602,
              6.18505
            ],
            [
              -70.06621,
              6.21146
            ],
            [
              -70.11475,
              6.23282
            ],
            [
              -70.12343,
              6.26334
            ],
            [
              -70.15406,
              6.27497
            ],
            [
              -70.15456,
              6.29716
            ],
            [
              -70.17519,
              6.27902
            ],
            [
              -70.19838,
              6.29574
            ],
            [
              -70.27148,
              6.27391
            ],
            [
              -70.3614,
              6.29907
            ]
          ]
        ]
      },
      "properties": {
        "code": "85125",
        "departmentCode": "85",
        "name": "HATO COROZAL",
        "resultType": "observed",
        "source": "dane-divipola-mgn-2025",
        "year": 2025
      }
    },
    {
      "type": "Feature",
      "id": 2660,
      "geometry": {
        "type": "Polygon",
        "coordinates": [
          [
            [
              -72.33885,
              6.34471
            ],
            [
              -72.35539,
              6.34192
            ],
            [
              -72.39615,
              6.27416
            ],
            [
              -72.38724,
              6.26101
            ],
            [
              -72.41894,
              6.18725
            ],
            [
              -72.39253,
              6.18833
            ],
            [
              -72.3931,
              6.16157
            ],
            [
              -72.37391,
              6.1477
            ],
            [
              -72.38918,
              6.12374
            ],
            [
              -72.36408,
              6.09933
            ],
            [
              -72.37538,
              6.0925
            ],
            [
              -72.36251,
              6.0752
            ],
            [
              -72.3167,
              6.09033
            ],
            [
              -72.27262,
              6.13113
            ],
            [
              -72.28662,
              6.19989
            ],
            [
              -72.33891,
              6.22105
            ],
            [
              -72.36159,
              6.26229
            ],
            [
              -72.36662,
              6.30689
            ],
            [
              -72.33885,
              6.34471
            ]
          ]
        ]
      },
      "properties": {
        "code": "85136",
        "departmentCode": "85",
        "name": "LA SALINA",
        "resultType": "observed",
        "source": "dane-divipola-mgn-2025",
        "year": 2025
      }
    },
    {
      "type": "Feature",
      "id": 2661,
      "geometry": {
        "type": "Polygon",
        "coordinates": [
          [
            [
              -72.34155,
              5.06495
            ],
            [
              -72.35431,
              5.07178
            ],
            [
              -72.34519,
              4.99829
            ],
            [
              -72.39656,
              4.99761
            ],
            [
              -72.41722,
              4.96848
            ],
            [
              -72.41377,
              4.97932
            ],
            [
              -72.42291,
              4.97233
            ],
            [
              -72.47418,
              5.01727
            ],
            [
              -72.48463,
              4.98935
            ],
            [
              -72.44185,
              4.90696
            ],
            [
              -72.37761,
              4.85434
            ],
            [
              -72.38622,
              4.84259
            ],
            [
              -72.40709,
              4.84038
            ],
            [
              -72.42128,
              4.86385
            ],
            [
              -72.43529,
              4.85124
            ],
            [
              -72.48906,
              4.86199
            ],
            [
              -72.49761,
              4.84772
            ],
            [
              -72.56348,
              4.83246
            ],
            [
              -72.61495,
              4.8354
            ],
            [
              -72.5785,
              4.81574
            ],
            [
              -72.58357,
              4.79338
            ],
            [
              -72.54606,
              4.73551
            ],
            [
              -72.53356,
              4.70127
            ],
            [
              -72.54108,
              4.64086
            ],
            [
              -72.50826,
              4.55714
            ],
            [
              -72.45263,
              4.48908
            ],
            [
              -72.42591,
              4.48775
            ],
            [
              -72.41108,
              4.46723
            ],
            [
              -72.38286,
              4.47212
            ],
            [
              -72.34849,
              4.44578
            ],
            [
              -72.35765,
              4.41469
            ],
            [
              -72.32278,
              4.40942
            ],
            [
              -72.26918,
              4.43832
            ],
            [
              -72.25785,
              4.4179
            ],
            [
              -72.2434,
              4.43456
            ],
            [
              -72.14311,
              4.4403
            ],
            [
              -72.07084,
              4.40809
            ],
            [
              -72.06064,
              4.375
            ],
            [
              -71.9903,
              4.38354
            ],
            [
              -71.80675,
              4.58355
            ],
            [
              -71.73517,
              4.57453
            ],
            [
              -71.66972,
              4.60971
            ],
            [
              -71.76262,
              4.59746
            ],
            [
              -71.83326,
              4.6188
            ],
            [
              -71.89664,
              4.68163
            ],
            [
              -71.91929,
              4.73489
            ],
            [
              -71.9933,
              4.78401
            ],
            [
              -72.00872,
              4.83114
            ],
            [
              -72.038,
              4.84732
            ],
            [
              -72.05065,
              4.83523
            ],
            [
              -72.08436,
              4.88467
            ],
            [
              -72.14641,
              4.88374
            ],
            [
              -72.15936,
              4.90766
            ],
            [
              -72.20124,
              4.92287
            ],
            [
              -72.20221,
              4.94261
            ],
            [
              -72.23779,
              4.9742
            ],
            [
              -72.28008,
              4.96383
            ],
            [
              -72.27427,
              4.99432
            ],
            [
              -72.30428,
              5.02137
            ],
            [
              -72.29934,
              5.04171
            ],
            [
              -72.34155,
              5.06495
            ]
          ]
        ]
      },
      "properties": {
        "code": "85139",
        "departmentCode": "85",
        "name": "MANÍ",
        "resultType": "observed",
        "source": "dane-divipola-mgn-2025",
        "year": 2025
      }
    },
    {
      "type": "Feature",
      "id": 2662,
      "geometry": {
        "type": "Polygon",
        "coordinates": [
          [
            [
              -72.89989,
              5.03466
            ],
            [
              -72.90382,
              5.06793
            ],
            [
              -72.96979,
              4.98644
            ],
            [
              -72.97525,
              4.97451
            ],
            [
              -72.94327,
              4.96301
            ],
            [
              -72.94121,
              4.9458
            ],
            [
              -72.98954,
              4.84437
            ],
            [
              -72.96736,
              4.82952
            ],
            [
              -72.94275,
              4.7587
            ],
            [
              -72.77851,
              4.68382
            ],
            [
              -72.78494,
              4.65492
            ],
            [
              -72.75668,
              4.64176
            ],
            [
              -72.75782,
              4.66792
            ],
            [
              -72.71082,
              4.69486
            ],
            [
              -72.69099,
              4.73813
            ],
            [
              -72.71132,
              4.75987
            ],
            [
              -72.75538,
              4.89759
            ],
            [
              -72.82233,
              4.94513
            ],
            [
              -72.83314,
              5.00137
            ],
            [
              -72.8534,
              4.99385
            ],
            [
              -72.88886,
              5.01153
            ],
            [
              -72.89989,
              5.03466
            ]
          ]
        ]
      },
      "properties": {
        "code": "85162",
        "departmentCode": "85",
        "name": "MONTERREY",
        "resultType": "observed",
        "source": "dane-divipola-mgn-2025",
        "year": 2025
      }
    },
    {
      "type": "Feature",
      "id": 2663,
      "geometry": {
        "type": "Polygon",
        "coordinates": [
          [
            [
              -72.19558,
              5.71924
            ],
            [
              -72.20332,
              5.72826
            ],
            [
              -72.24833,
              5.69587
            ],
            [
              -72.22583,
              5.66764
            ],
            [
              -72.27214,
              5.66222
            ],
            [
              -72.26269,
              5.63354
            ],
            [
              -72.28747,
              5.60564
            ],
            [
              -72.3009,
              5.50597
            ],
            [
              -72.26137,
              5.54579
            ],
            [
              -72.22261,
              5.53725
            ],
            [
              -72.20173,
              5.43152
            ],
            [
              -72.1728,
              5.41859
            ],
            [
              -72.16854,
              5.38787
            ],
            [
              -72.13874,
              5.41202
            ],
            [
              -72.15752,
              5.39757
            ],
            [
              -72.14129,
              5.38486
            ],
            [
              -72.12787,
              5.3943
            ],
            [
              -72.14057,
              5.3754
            ],
            [
              -72.11632,
              5.37416
            ],
            [
              -72.12067,
              5.35615
            ],
            [
              -72.1029,
              5.3596
            ],
            [
              -72.11687,
              5.33587
            ],
            [
              -72.09823,
              5.34385
            ],
            [
              -72.09152,
              5.37483
            ],
            [
              -72.0407,
              5.39231
            ],
            [
              -71.97027,
              5.39407
            ],
            [
              -71.9287,
              5.37839
            ],
            [
              -71.89037,
              5.40586
            ],
            [
              -71.83431,
              5.40857
            ],
            [
              -71.86651,
              5.46996
            ],
            [
              -71.94825,
              5.50439
            ],
            [
              -71.96183,
              5.54566
            ],
            [
              -71.95168,
              5.54715
            ],
            [
              -72.01965,
              5.62751
            ],
            [
              -72.0807,
              5.6672
            ],
            [
              -72.1013,
              5.66515
            ],
            [
              -72.10519,
              5.71368
            ],
            [
              -72.19558,
              5.71924
            ]
          ]
        ]
      },
      "properties": {
        "code": "85225",
        "departmentCode": "85",
        "name": "NUNCHÍA",
        "resultType": "observed",
        "source": "dane-divipola-mgn-2025",
        "year": 2025
      }
    },
    {
      "type": "Feature",
      "id": 2664,
      "geometry": {
        "type": "Polygon",
        "coordinates": [
          [
            [
              -71.50965,
              5.2173
            ],
            [
              -71.51788,
              5.22416
            ],
            [
              -71.5496,
              5.18739
            ],
            [
              -71.59931,
              5.17945
            ],
            [
              -71.65057,
              5.2116
            ],
            [
              -71.65542,
              5.15675
            ],
            [
              -71.62713,
              5.10179
            ],
            [
              -71.65716,
              5.11789
            ],
            [
              -71.70753,
              5.1158
            ],
            [
              -71.69341,
              5.09065
            ],
            [
              -71.70522,
              5.05937
            ],
            [
              -71.7055,
              5.0831
            ],
            [
              -71.73265,
              5.09538
            ],
            [
              -71.78479,
              5.08511
            ],
            [
              -71.82546,
              5.11055
            ],
            [
              -71.83655,
              5.0929
            ],
            [
              -71.84809,
              5.11535
            ],
            [
              -71.95618,
              5.12907
            ],
            [
              -71.9609,
              5.07381
            ],
            [
              -71.98178,
              5.06319
            ],
            [
              -71.93892,
              5.0277
            ],
            [
              -72.0812,
              4.96816
            ],
            [
              -72.10322,
              4.93932
            ],
            [
              -72.14038,
              4.92911
            ],
            [
              -72.15574,
              4.9016
            ],
            [
              -72.12063,
              4.877
            ],
            [
              -72.08436,
              4.88467
            ],
            [
              -72.05065,
              4.83523
            ],
            [
              -72.038,
              4.84732
            ],
            [
              -72.00872,
              4.83114
            ],
            [
              -71.9933,
              4.78401
            ],
            [
              -71.91929,
              4.73489
            ],
            [
              -71.89664,
              4.68163
            ],
            [
              -71.83326,
              4.6188
            ],
            [
              -71.76262,
              4.59746
            ],
            [
              -71.7199,
              4.60081
            ],
            [
              -71.64851,
              4.61393
            ],
            [
              -71.57676,
              4.67503
            ],
            [
              -71.4293,
              4.72329
            ],
            [
              -71.39017,
              4.75669
            ],
            [
              -71.32278,
              4.76672
            ],
            [
              -71.28828,
              4.80305
            ],
            [
              -71.21175,
              4.81733
            ],
            [
              -71.05734,
              4.90571
            ],
            [
              -70.96775,
              5.05828
            ],
            [
              -70.98157,
              5.07671
            ],
            [
              -71.03819,
              5.00638
            ],
            [
              -71.14662,
              5.03202
            ],
            [
              -71.21197,
              5.00582
            ],
            [
              -71.2488,
              5.06272
            ],
            [
              -71.30843,
              5.08134
            ],
            [
              -71.31388,
              5.14874
            ],
            [
              -71.33774,
              5.13579
            ],
            [
              -71.37899,
              5.17194
            ],
            [
              -71.40743,
              5.16989
            ],
            [
              -71.45323,
              5.22037
            ],
            [
              -71.50965,
              5.2173
            ]
          ]
        ]
      },
      "properties": {
        "code": "85230",
        "departmentCode": "85",
        "name": "OROCUÉ",
        "resultType": "observed",
        "source": "dane-divipola-mgn-2025",
        "year": 2025
      }
    },
    {
      "type": "Feature",
      "id": 2665,
      "geometry": {
        "type": "Polygon",
        "coordinates": [
          [
            [
              -69.8919,
              6.05406
            ],
            [
              -69.91059,
              6.06546
            ],
            [
              -69.91322,
              6.05427
            ],
            [
              -69.93919,
              6.06614
            ],
            [
              -69.95015,
              6.05642
            ],
            [
              -69.97602,
              6.07392
            ],
            [
              -70.01622,
              6.05619
            ],
            [
              -70.02824,
              6.0777
            ],
            [
              -70.05393,
              6.07756
            ],
            [
              -70.10681,
              6.11351
            ],
            [
              -70.15226,
              6.09926
            ],
            [
              -70.16108,
              6.12259
            ],
            [
              -70.23952,
              6.1056
            ],
            [
              -70.28512,
              6.11491
            ],
            [
              -70.29364,
              6.10335
            ],
            [
              -70.32869,
              6.126
            ],
            [
              -70.33713,
              6.1018
            ],
            [
              -70.35789,
              6.10503
            ],
            [
              -70.35222,
              6.09428
            ],
            [
              -70.37288,
              6.0808
            ],
            [
              -70.38995,
              6.08699
            ],
            [
              -70.40977,
              6.06047
            ],
            [
              -70.44666,
              6.07722
            ],
            [
              -70.53656,
              6.06427
            ],
            [
              -70.58949,
              6.10762
            ],
            [
              -70.68425,
              6.08846
            ],
            [
              -70.70962,
              6.11996
            ],
            [
              -70.7412,
              6.12084
            ],
            [
              -70.80568,
              6.08416
            ],
            [
              -70.81828,
              6.05278
            ],
            [
              -70.877,
              6.05498
            ],
            [
              -70.89865,
              6.03325
            ],
            [
              -71.13259,
              6.05969
            ],
            [
              -71.28602,
              6.0337
            ],
            [
              -71.31818,
              5.97659
            ],
            [
              -71.35272,
              5.95358
            ],
            [
              -71.36092,
              5.96676
            ],
            [
              -71.39018,
              5.92533
            ],
            [
              -71.436,
              5.92016
            ],
            [
              -71.46174,
              5.89345
            ],
            [
              -71.5104,
              5.89827
            ],
            [
              -71.51312,
              5.87434
            ],
            [
              -71.56519,
              5.85259
            ],
            [
              -71.60416,
              5.86446
            ],
            [
              -71.60612,
              5.85026
            ],
            [
              -71.66569,
              5.84626
            ],
            [
              -71.69087,
              5.81183
            ],
            [
              -71.79535,
              5.87276
            ],
            [
              -71.78519,
              5.8869
            ],
            [
              -71.80344,
              5.89921
            ],
            [
              -71.92049,
              5.92716
            ],
            [
              -71.96046,
              6.00964
            ],
            [
              -72.02569,
              6.04886
            ],
            [
              -72.00893,
              5.93767
            ],
            [
              -72.03342,
              5.89543
            ],
            [
              -72.03015,
              5.85702
            ],
            [
              -72.04885,
              5.83787
            ],
            [
              -72.02112,
              5.8076
            ],
            [
              -71.97162,
              5.80184
            ],
            [
              -71.96073,
              5.7693
            ],
            [
              -71.92117,
              5.7513
            ],
            [
              -71.888,
              5.71008
            ],
            [
              -71.83597,
              5.7084
            ],
            [
              -71.80926,
              5.66927
            ],
            [
              -71.77788,
              5.67233
            ],
            [
              -71.76978,
              5.6455
            ],
            [
              -71.7276,
              5.63467
            ],
            [
              -71.69929,
              5.57254
            ],
            [
              -71.65843,
              5.55462
            ],
            [
              -71.6338,
              5.57108
            ],
            [
              -71.5994,
              5.53936
            ],
            [
              -71.58907,
              5.54978
            ],
            [
              -71.57254,
              5.53429
            ],
            [
              -71.53733,
              5.53402
            ],
            [
              -71.47693,
              5.49507
            ],
            [
              -71.43965,
              5.50431
            ],
            [
              -71.41959,
              5.49056
            ],
            [
              -71.39735,
              5.50372
            ],
            [
              -71.37672,
              5.48502
            ],
            [
              -71.36381,
              5.49942
            ],
            [
              -71.36424,
              5.48554
            ],
            [
              -71.32123,
              5.45835
            ],
            [
              -71.27415,
              5.46656
            ],
            [
              -71.24676,
              5.44521
            ],
            [
              -71.18955,
              5.4371
            ],
            [
              -71.1506,
              5.45647
            ],
            [
              -71.10714,
              5.4529
            ],
            [
              -71.09572,
              5.46831
            ],
            [
              -71.01548,
              5.41643
            ],
            [
              -70.96351,
              5.44507
            ],
            [
              -70.92556,
              5.42918
            ],
            [
              -70.92043,
              5.45382
            ],
            [
              -70.87179,
              5.43257
            ],
            [
              -70.84391,
              5.44337
            ],
            [
              -70.79743,
              5.42031
            ],
            [
              -70.76762,
              5.4451
            ],
            [
              -70.7623,
              5.43426
            ],
            [
              -70.73012,
              5.44892
            ],
            [
              -70.68964,
              5.44166
            ],
            [
              -70.64942,
              5.46166
            ],
            [
              -70.62664,
              5.45511
            ],
            [
              -70.62945,
              5.42236
            ],
            [
              -70.62214,
              5.43934
            ],
            [
              -70.60429,
              5.42223
            ],
            [
              -70.36052,
              5.58702
            ],
            [
              -70.26383,
              5.56357
            ],
            [
              -70.19467,
              5.60316
            ],
            [
              -70.15314,
              5.6009
            ],
            [
              -70.11495,
              5.63145
            ],
            [
              -70.05179,
              5.71125
            ],
            [
              -70.04378,
              5.74622
            ],
            [
              -69.97882,
              5.80734
            ],
            [
              -69.96634,
              5.86155
            ],
            [
              -69.93253,
              5.87645
            ],
            [
              -69.88279,
              5.96979
            ],
            [
              -69.85435,
              5.98447
            ],
            [
              -69.83591,
              6.04126
            ],
            [
              -69.8919,
              6.05406
            ]
          ]
        ]
      },
      "properties": {
        "code": "85250",
        "departmentCode": "85",
        "name": "PAZ DE ARIPORO",
        "resultType": "observed",
        "source": "dane-divipola-mgn-2025",
        "year": 2025
      }
    },
    {
      "type": "Feature",
      "id": 2666,
      "geometry": {
        "type": "Polygon",
        "coordinates": [
          [
            [
              -72.04587,
              5.83819
            ],
            [
              -72.08252,
              5.81636
            ],
            [
              -72.10204,
              5.7829
            ],
            [
              -72.11188,
              5.68517
            ],
            [
              -72.10099,
              5.66494
            ],
            [
              -72.04206,
              5.64766
            ],
            [
              -71.96418,
              5.55343
            ],
            [
              -71.9003,
              5.53771
            ],
            [
              -71.88472,
              5.56519
            ],
            [
              -71.86807,
              5.53721
            ],
            [
              -71.8627,
              5.55047
            ],
            [
              -71.85203,
              5.53417
            ],
            [
              -71.80561,
              5.55254
            ],
            [
              -71.80436,
              5.53558
            ],
            [
              -71.75926,
              5.52997
            ],
            [
              -71.73786,
              5.5497
            ],
            [
              -71.74526,
              5.55815
            ],
            [
              -71.71204,
              5.57258
            ],
            [
              -71.66162,
              5.55248
            ],
            [
              -71.67566,
              5.57154
            ],
            [
              -71.69929,
              5.57254
            ],
            [
              -71.70656,
              5.60996
            ],
            [
              -71.72291,
              5.60658
            ],
            [
              -71.72815,
              5.63499
            ],
            [
              -71.76978,
              5.6455
            ],
            [
              -71.77749,
              5.67214
            ],
            [
              -71.80926,
              5.66927
            ],
            [
              -71.83597,
              5.7084
            ],
            [
              -71.888,
              5.71008
            ],
            [
              -71.92117,
              5.7513
            ],
            [
              -71.96073,
              5.7693
            ],
            [
              -71.97162,
              5.80184
            ],
            [
              -72.0218,
              5.80793
            ],
            [
              -72.04587,
              5.83819
            ]
          ]
        ]
      },
      "properties": {
        "code": "85263",
        "departmentCode": "85",
        "name": "PORE",
        "resultType": "observed",
        "source": "dane-divipola-mgn-2025",
        "year": 2025
      }
    },
    {
      "type": "Feature",
      "id": 2667,
      "geometry": {
        "type": "Polygon",
        "coordinates": [
          [
            [
              -72.80501,
              5.38093
            ],
            [
              -72.81382,
              5.37359
            ],
            [
              -72.78817,
              5.33185
            ],
            [
              -72.81961,
              5.2258
            ],
            [
              -72.83961,
              5.20323
            ],
            [
              -72.79391,
              5.17139
            ],
            [
              -72.75612,
              5.18484
            ],
            [
              -72.75052,
              5.21777
            ],
            [
              -72.70705,
              5.23589
            ],
            [
              -72.69787,
              5.26194
            ],
            [
              -72.72558,
              5.31802
            ],
            [
              -72.80501,
              5.38093
            ]
          ]
        ]
      },
      "properties": {
        "code": "85279",
        "departmentCode": "85",
        "name": "RECETOR",
        "resultType": "observed",
        "source": "dane-divipola-mgn-2025",
        "year": 2025
      }
    },
    {
      "type": "Feature",
      "id": 2668,
      "geometry": {
        "type": "Polygon",
        "coordinates": [
          [
            [
              -73.01487,
              5.00174
            ],
            [
              -73.04892,
              4.92363
            ],
            [
              -73.04148,
              4.87833
            ],
            [
              -73.07777,
              4.80973
            ],
            [
              -73.04572,
              4.75798
            ],
            [
              -73.0451,
              4.68396
            ],
            [
              -72.98404,
              4.66114
            ],
            [
              -72.9451,
              4.68964
            ],
            [
              -72.85671,
              4.71785
            ],
            [
              -72.93071,
              4.75028
            ],
            [
              -72.95986,
              4.78263
            ],
            [
              -72.96724,
              4.8293
            ],
            [
              -72.98964,
              4.8453
            ],
            [
              -72.94105,
              4.95842
            ],
            [
              -73.01487,
              5.00174
            ]
          ]
        ]
      },
      "properties": {
        "code": "85300",
        "departmentCode": "85",
        "name": "SABANALARGA",
        "resultType": "observed",
        "source": "dane-divipola-mgn-2025",
        "year": 2025
      }
    },
    {
      "type": "Feature",
      "id": 2669,
      "geometry": {
        "type": "Polygon",
        "coordinates": [
          [
            [
              -72.27117,
              6.13031
            ],
            [
              -72.3,
              6.11685
            ],
            [
              -72.32419,
              6.06498
            ],
            [
              -72.36367,
              6.04201
            ],
            [
              -72.34327,
              6.00137
            ],
            [
              -72.27517,
              6.01077
            ],
            [
              -72.25221,
              6.03247
            ],
            [
              -72.19253,
              5.97621
            ],
            [
              -72.15744,
              5.96811
            ],
            [
              -72.13328,
              5.98649
            ],
            [
              -72.12945,
              6.02629
            ],
            [
              -72.11732,
              6.00567
            ],
            [
              -72.0934,
              6.00498
            ],
            [
              -72.08881,
              6.06131
            ],
            [
              -72.02569,
              6.04886
            ],
            [
              -72.03372,
              6.06573
            ],
            [
              -72.06334,
              6.07147
            ],
            [
              -72.06127,
              6.11723
            ],
            [
              -72.13968,
              6.06668
            ],
            [
              -72.27117,
              6.13031
            ]
          ]
        ]
      },
      "properties": {
        "code": "85315",
        "departmentCode": "85",
        "name": "SÁCAMA",
        "resultType": "observed",
        "source": "dane-divipola-mgn-2025",
        "year": 2025
      }
    },
    {
      "type": "Feature",
      "id": 2670,
      "geometry": {
        "type": "Polygon",
        "coordinates": [
          [
            [
              -71.66906,
              5.41448
            ],
            [
              -71.77214,
              5.43583
            ],
            [
              -71.76192,
              5.45146
            ],
            [
              -71.79092,
              5.46165
            ],
            [
              -71.79081,
              5.44764
            ],
            [
              -71.81707,
              5.44367
            ],
            [
              -71.80367,
              5.46706
            ],
            [
              -71.82918,
              5.47136
            ],
            [
              -71.82313,
              5.488
            ],
            [
              -71.84243,
              5.48163
            ],
            [
              -71.85869,
              5.51665
            ],
            [
              -71.88616,
              5.51518
            ],
            [
              -71.91773,
              5.54878
            ],
            [
              -71.96151,
              5.54753
            ],
            [
              -71.94825,
              5.50439
            ],
            [
              -71.86651,
              5.46996
            ],
            [
              -71.83431,
              5.40857
            ],
            [
              -71.89037,
              5.40586
            ],
            [
              -71.9287,
              5.37839
            ],
            [
              -71.97027,
              5.39407
            ],
            [
              -72.0407,
              5.39231
            ],
            [
              -72.09152,
              5.37483
            ],
            [
              -72.09758,
              5.33752
            ],
            [
              -72.11959,
              5.3264
            ],
            [
              -72.08244,
              5.30069
            ],
            [
              -72.09882,
              5.29465
            ],
            [
              -72.08176,
              5.27728
            ],
            [
              -72.09626,
              5.25984
            ],
            [
              -72.03524,
              5.21701
            ],
            [
              -72.05481,
              5.18674
            ],
            [
              -72.02437,
              5.16736
            ],
            [
              -72.00869,
              5.10632
            ],
            [
              -71.98073,
              5.07163
            ],
            [
              -71.9609,
              5.07381
            ],
            [
              -71.95618,
              5.12907
            ],
            [
              -71.91653,
              5.13108
            ],
            [
              -71.84809,
              5.11535
            ],
            [
              -71.83655,
              5.0929
            ],
            [
              -71.82546,
              5.11055
            ],
            [
              -71.78479,
              5.08511
            ],
            [
              -71.73265,
              5.09538
            ],
            [
              -71.7055,
              5.0831
            ],
            [
              -71.70522,
              5.05937
            ],
            [
              -71.69341,
              5.09065
            ],
            [
              -71.70753,
              5.1158
            ],
            [
              -71.65716,
              5.11789
            ],
            [
              -71.62713,
              5.10179
            ],
            [
              -71.65542,
              5.15675
            ],
            [
              -71.65057,
              5.2116
            ],
            [
              -71.59931,
              5.17945
            ],
            [
              -71.5496,
              5.18739
            ],
            [
              -71.51724,
              5.22446
            ],
            [
              -71.50184,
              5.21148
            ],
            [
              -71.47004,
              5.22195
            ],
            [
              -71.43871,
              5.21179
            ],
            [
              -71.42712,
              5.18046
            ],
            [
              -71.37872,
              5.1718
            ],
            [
              -71.34687,
              5.13904
            ],
            [
              -71.31388,
              5.14874
            ],
            [
              -71.30843,
              5.08134
            ],
            [
              -71.2488,
              5.06272
            ],
            [
              -71.21235,
              5.00599
            ],
            [
              -71.14662,
              5.03202
            ],
            [
              -71.03819,
              5.00638
            ],
            [
              -70.94379,
              5.12429
            ],
            [
              -70.91347,
              5.1406
            ],
            [
              -70.91159,
              5.16058
            ],
            [
              -70.9332,
              5.16222
            ],
            [
              -70.93085,
              5.18372
            ],
            [
              -70.9527,
              5.18209
            ],
            [
              -70.96858,
              5.20092
            ],
            [
              -70.9786,
              5.18805
            ],
            [
              -71.03543,
              5.20363
            ],
            [
              -71.10136,
              5.19572
            ],
            [
              -71.19015,
              5.2343
            ],
            [
              -71.20021,
              5.22452
            ],
            [
              -71.22812,
              5.26491
            ],
            [
              -71.26794,
              5.249
            ],
            [
              -71.36923,
              5.25579
            ],
            [
              -71.3791,
              5.27531
            ],
            [
              -71.40495,
              5.27548
            ],
            [
              -71.45357,
              5.31476
            ],
            [
              -71.54482,
              5.32627
            ],
            [
              -71.55077,
              5.34801
            ],
            [
              -71.56938,
              5.35223
            ],
            [
              -71.56314,
              5.36454
            ],
            [
              -71.66565,
              5.39792
            ],
            [
              -71.66906,
              5.41448
            ]
          ]
        ]
      },
      "properties": {
        "code": "85325",
        "departmentCode": "85",
        "name": "SAN LUIS DE PALENQUE",
        "resultType": "observed",
        "source": "dane-divipola-mgn-2025",
        "year": 2025
      }
    },
    {
      "type": "Feature",
      "id": 2671,
      "geometry": {
        "type": "Polygon",
        "coordinates": [
          [
            [
              -72.07143,
              6.06339
            ],
            [
              -72.0956,
              6.05621
            ],
            [
              -72.0934,
              6.00498
            ],
            [
              -72.11732,
              6.00567
            ],
            [
              -72.12945,
              6.02629
            ],
            [
              -72.13328,
              5.98649
            ],
            [
              -72.15744,
              5.96811
            ],
            [
              -72.19253,
              5.97621
            ],
            [
              -72.25221,
              6.03247
            ],
            [
              -72.27517,
              6.01077
            ],
            [
              -72.34283,
              6.00121
            ],
            [
              -72.34061,
              5.95322
            ],
            [
              -72.32506,
              5.93504
            ],
            [
              -72.33278,
              5.89211
            ],
            [
              -72.41555,
              5.90401
            ],
            [
              -72.45089,
              5.87837
            ],
            [
              -72.46298,
              5.84797
            ],
            [
              -72.3076,
              5.7928
            ],
            [
              -72.30047,
              5.75827
            ],
            [
              -72.24833,
              5.69587
            ],
            [
              -72.20168,
              5.72863
            ],
            [
              -72.1481,
              5.70743
            ],
            [
              -72.12321,
              5.72162
            ],
            [
              -72.10427,
              5.71404
            ],
            [
              -72.10204,
              5.7829
            ],
            [
              -72.03015,
              5.85702
            ],
            [
              -72.03342,
              5.89543
            ],
            [
              -72.00893,
              5.93767
            ],
            [
              -72.02569,
              6.04886
            ],
            [
              -72.06247,
              6.0496
            ],
            [
              -72.07143,
              6.06339
            ]
          ]
        ]
      },
      "properties": {
        "code": "85400",
        "departmentCode": "85",
        "name": "TÁMARA",
        "resultType": "observed",
        "source": "dane-divipola-mgn-2025",
        "year": 2025
      }
    },
    {
      "type": "Feature",
      "id": 2672,
      "geometry": {
        "type": "Polygon",
        "coordinates": [
          [
            [
              -72.75737,
              5.18477
            ],
            [
              -72.80527,
              5.12462
            ],
            [
              -72.87225,
              5.1573
            ],
            [
              -72.90165,
              5.15054
            ],
            [
              -72.91615,
              5.1241
            ],
            [
              -72.88919,
              5.01181
            ],
            [
              -72.8534,
              4.99385
            ],
            [
              -72.83314,
              5.00137
            ],
            [
              -72.82233,
              4.94513
            ],
            [
              -72.75538,
              4.89759
            ],
            [
              -72.71132,
              4.75987
            ],
            [
              -72.69089,
              4.73781
            ],
            [
              -72.71082,
              4.69486
            ],
            [
              -72.75793,
              4.66749
            ],
            [
              -72.76649,
              4.61563
            ],
            [
              -72.75092,
              4.60199
            ],
            [
              -72.75717,
              4.55526
            ],
            [
              -72.73997,
              4.54194
            ],
            [
              -72.75329,
              4.50897
            ],
            [
              -72.74462,
              4.48136
            ],
            [
              -72.68719,
              4.44877
            ],
            [
              -72.69047,
              4.42896
            ],
            [
              -72.65827,
              4.41303
            ],
            [
              -72.67392,
              4.3453
            ],
            [
              -72.65523,
              4.3209
            ],
            [
              -72.63308,
              4.33309
            ],
            [
              -72.62606,
              4.31521
            ],
            [
              -72.57855,
              4.3008
            ],
            [
              -72.55069,
              4.35413
            ],
            [
              -72.46682,
              4.31738
            ],
            [
              -72.42795,
              4.35371
            ],
            [
              -72.40504,
              4.31786
            ],
            [
              -72.35622,
              4.34174
            ],
            [
              -72.34219,
              4.37153
            ],
            [
              -72.3205,
              4.37092
            ],
            [
              -72.30263,
              4.40857
            ],
            [
              -72.25785,
              4.4179
            ],
            [
              -72.25972,
              4.43381
            ],
            [
              -72.30771,
              4.42609
            ],
            [
              -72.32278,
              4.40942
            ],
            [
              -72.35765,
              4.41469
            ],
            [
              -72.34849,
              4.44578
            ],
            [
              -72.38286,
              4.47212
            ],
            [
              -72.41108,
              4.46723
            ],
            [
              -72.42591,
              4.48775
            ],
            [
              -72.45263,
              4.48908
            ],
            [
              -72.50826,
              4.55714
            ],
            [
              -72.54108,
              4.64086
            ],
            [
              -72.53356,
              4.70127
            ],
            [
              -72.54606,
              4.73551
            ],
            [
              -72.58357,
              4.79338
            ],
            [
              -72.5785,
              4.81574
            ],
            [
              -72.61495,
              4.8354
            ],
            [
              -72.56348,
              4.83246
            ],
            [
              -72.49761,
              4.84772
            ],
            [
              -72.4894,
              4.86197
            ],
            [
              -72.44701,
              4.85488
            ],
            [
              -72.47253,
              4.86744
            ],
            [
              -72.476,
              4.90004
            ],
            [
              -72.50605,
              4.89792
            ],
            [
              -72.55104,
              4.9741
            ],
            [
              -72.67632,
              5.00258
            ],
            [
              -72.71576,
              5.04154
            ],
            [
              -72.74051,
              5.10542
            ],
            [
              -72.73096,
              5.15358
            ],
            [
              -72.75737,
              5.18477
            ]
          ]
        ]
      },
      "properties": {
        "code": "85410",
        "departmentCode": "85",
        "name": "TAURAMENA",
        "resultType": "observed",
        "source": "dane-divipola-mgn-2025",
        "year": 2025
      }
    },
    {
      "type": "Feature",
      "id": 2673,
      "geometry": {
        "type": "Polygon",
        "coordinates": [
          [
            [
              -71.66906,
              5.41448
            ],
            [
              -71.66565,
              5.39792
            ],
            [
              -71.56314,
              5.36454
            ],
            [
              -71.56938,
              5.35223
            ],
            [
              -71.55077,
              5.34801
            ],
            [
              -71.54482,
              5.32627
            ],
            [
              -71.45357,
              5.31476
            ],
            [
              -71.40495,
              5.27548
            ],
            [
              -71.3791,
              5.27531
            ],
            [
              -71.36923,
              5.25579
            ],
            [
              -71.26794,
              5.249
            ],
            [
              -71.22812,
              5.26491
            ],
            [
              -71.20021,
              5.22452
            ],
            [
              -71.19015,
              5.2343
            ],
            [
              -71.10136,
              5.19572
            ],
            [
              -71.03543,
              5.20363
            ],
            [
              -70.9786,
              5.18805
            ],
            [
              -70.96858,
              5.20092
            ],
            [
              -70.9527,
              5.18209
            ],
            [
              -70.93085,
              5.18372
            ],
            [
              -70.9332,
              5.16222
            ],
            [
              -70.91159,
              5.16058
            ],
            [
              -70.91347,
              5.1406
            ],
            [
              -70.86204,
              5.14421
            ],
            [
              -70.69539,
              5.2818
            ],
            [
              -70.67411,
              5.31547
            ],
            [
              -70.68003,
              5.36101
            ],
            [
              -70.60429,
              5.42223
            ],
            [
              -70.62214,
              5.43934
            ],
            [
              -70.62945,
              5.42236
            ],
            [
              -70.62664,
              5.45511
            ],
            [
              -70.64942,
              5.46166
            ],
            [
              -70.68964,
              5.44166
            ],
            [
              -70.73012,
              5.44892
            ],
            [
              -70.7623,
              5.43426
            ],
            [
              -70.76762,
              5.4451
            ],
            [
              -70.79743,
              5.42031
            ],
            [
              -70.84391,
              5.44337
            ],
            [
              -70.87179,
              5.43257
            ],
            [
              -70.92043,
              5.45382
            ],
            [
              -70.92556,
              5.42918
            ],
            [
              -70.96351,
              5.44507
            ],
            [
              -71.01548,
              5.41643
            ],
            [
              -71.09572,
              5.46831
            ],
            [
              -71.10714,
              5.4529
            ],
            [
              -71.1506,
              5.45647
            ],
            [
              -71.18955,
              5.4371
            ],
            [
              -71.24676,
              5.44521
            ],
            [
              -71.27415,
              5.46656
            ],
            [
              -71.32123,
              5.45835
            ],
            [
              -71.36424,
              5.48554
            ],
            [
              -71.36381,
              5.49942
            ],
            [
              -71.37672,
              5.48502
            ],
            [
              -71.39735,
              5.50372
            ],
            [
              -71.41959,
              5.49056
            ],
            [
              -71.43965,
              5.50431
            ],
            [
              -71.47693,
              5.49507
            ],
            [
              -71.53733,
              5.53402
            ],
            [
              -71.57254,
              5.53429
            ],
            [
              -71.58907,
              5.54978
            ],
            [
              -71.5994,
              5.53936
            ],
            [
              -71.6338,
              5.57108
            ],
            [
              -71.66295,
              5.55198
            ],
            [
              -71.71204,
              5.57258
            ],
            [
              -71.74526,
              5.55815
            ],
            [
              -71.73786,
              5.5497
            ],
            [
              -71.75926,
              5.52997
            ],
            [
              -71.80436,
              5.53558
            ],
            [
              -71.8052,
              5.55249
            ],
            [
              -71.85203,
              5.53417
            ],
            [
              -71.88446,
              5.56515
            ],
            [
              -71.90216,
              5.55441
            ],
            [
              -71.904,
              5.53171
            ],
            [
              -71.88383,
              5.52682
            ],
            [
              -71.88616,
              5.51518
            ],
            [
              -71.85869,
              5.51665
            ],
            [
              -71.84243,
              5.48163
            ],
            [
              -71.82313,
              5.488
            ],
            [
              -71.82918,
              5.47136
            ],
            [
              -71.80386,
              5.46734
            ],
            [
              -71.81707,
              5.44367
            ],
            [
              -71.79081,
              5.44764
            ],
            [
              -71.79092,
              5.46165
            ],
            [
              -71.76192,
              5.45146
            ],
            [
              -71.77214,
              5.43583
            ],
            [
              -71.66906,
              5.41448
            ]
          ]
        ]
      },
      "properties": {
        "code": "85430",
        "departmentCode": "85",
        "name": "TRINIDAD",
        "resultType": "observed",
        "source": "dane-divipola-mgn-2025",
        "year": 2025
      }
    },
    {
      "type": "Feature",
      "id": 2674,
      "geometry": {
        "type": "Polygon",
        "coordinates": [
          [
            [
              -72.82487,
              4.70321
            ],
            [
              -72.85689,
              4.7189
            ],
            [
              -72.98404,
              4.66114
            ],
            [
              -73.04013,
              4.67394
            ],
            [
              -72.96798,
              4.59919
            ],
            [
              -72.93826,
              4.52329
            ],
            [
              -72.89684,
              4.47466
            ],
            [
              -72.84154,
              4.43168
            ],
            [
              -72.81347,
              4.42981
            ],
            [
              -72.82503,
              4.41761
            ],
            [
              -72.78827,
              4.39752
            ],
            [
              -72.80058,
              4.37835
            ],
            [
              -72.76892,
              4.36639
            ],
            [
              -72.77969,
              4.35277
            ],
            [
              -72.76297,
              4.34784
            ],
            [
              -72.76947,
              4.33318
            ],
            [
              -72.69464,
              4.28767
            ],
            [
              -72.68238,
              4.31616
            ],
            [
              -72.62654,
              4.30426
            ],
            [
              -72.62585,
              4.32805
            ],
            [
              -72.65523,
              4.3209
            ],
            [
              -72.67387,
              4.34496
            ],
            [
              -72.6565,
              4.40085
            ],
            [
              -72.66398,
              4.42273
            ],
            [
              -72.69005,
              4.42865
            ],
            [
              -72.68719,
              4.44877
            ],
            [
              -72.74462,
              4.48136
            ],
            [
              -72.75329,
              4.50897
            ],
            [
              -72.73997,
              4.54194
            ],
            [
              -72.75717,
              4.55526
            ],
            [
              -72.75092,
              4.60199
            ],
            [
              -72.76649,
              4.61563
            ],
            [
              -72.75452,
              4.63136
            ],
            [
              -72.77276,
              4.64152
            ],
            [
              -72.768,
              4.65596
            ],
            [
              -72.78494,
              4.65492
            ],
            [
              -72.77782,
              4.6829
            ],
            [
              -72.82487,
              4.70321
            ]
          ]
        ]
      },
      "properties": {
        "code": "85440",
        "departmentCode": "85",
        "name": "VILLANUEVA",
        "resultType": "observed",
        "source": "dane-divipola-mgn-2025",
        "year": 2025
      }
    }
  ]
}
