{
  "type": "FeatureCollection",
  "metadata": {
    "source": "DANE DIVIPOLA MGN 2025",
    "downloadedAt": "2026-07-27T05:06:31Z",
    "crs": "EPSG:4326",
    "simplification": "ArcGIS maxAllowableOffset=0.01 grados y geometryPrecision=5; solo visualización web"
  },
  "features": [
    {
      "type": "Feature",
      "id": 2675,
      "geometry": {
        "type": "Polygon",
        "coordinates": [
          [
            [
              -76.6705,
              1.46732
            ],
            [
              -76.75105,
              1.42012
            ],
            [
              -76.88681,
              1.37184
            ],
            [
              -76.92092,
              1.33588
            ],
            [
              -76.90444,
              1.29846
            ],
            [
              -76.8655,
              1.2891
            ],
            [
              -76.85564,
              1.25046
            ],
            [
              -76.82374,
              1.24294
            ],
            [
              -76.8123,
              1.21787
            ],
            [
              -76.73028,
              1.21262
            ],
            [
              -76.79105,
              1.12132
            ],
            [
              -76.76772,
              1.10479
            ],
            [
              -76.77868,
              1.05605
            ],
            [
              -76.75501,
              1.04485
            ],
            [
              -76.74027,
              1.0059
            ],
            [
              -76.7179,
              1.00065
            ],
            [
              -76.72504,
              1.01413
            ],
            [
              -76.63646,
              1.07553
            ],
            [
              -76.6245,
              1.04738
            ],
            [
              -76.56069,
              1.03062
            ],
            [
              -76.52994,
              0.99985
            ],
            [
              -76.5115,
              0.92571
            ],
            [
              -76.48068,
              0.9044
            ],
            [
              -76.46659,
              0.86924
            ],
            [
              -76.41015,
              0.86853
            ],
            [
              -76.47574,
              0.91778
            ],
            [
              -76.51578,
              0.9954
            ],
            [
              -76.48553,
              1.00788
            ],
            [
              -76.49241,
              1.02713
            ],
            [
              -76.54448,
              1.03727
            ],
            [
              -76.56812,
              1.08257
            ],
            [
              -76.53723,
              1.2092
            ],
            [
              -76.56571,
              1.23855
            ],
            [
              -76.58602,
              1.30063
            ],
            [
              -76.57097,
              1.328
            ],
            [
              -76.58431,
              1.34355
            ],
            [
              -76.57402,
              1.38576
            ],
            [
              -76.6705,
              1.46732
            ]
          ]
        ]
      },
      "properties": {
        "code": "86001",
        "departmentCode": "86",
        "name": "MOCOA",
        "originalCode": "001",
        "originalName": "MOCOA",
        "MPIO_TIPO": "MUNICIPIO",
        "type": "MUNICIPIO",
        "unitType": "municipio",
        "MPIO_NAREA": 1305.26361705,
        "MPIO_NANO": 2024,
        "MPIO_CRSLCION": "1958",
        "areaName": 1305.26361705,
        "creationYear": 2024,
        "creationResolution": "1958",
        "resultType": "observed",
        "source": "dane-divipola-mgn-2025",
        "year": 2025
      }
    },
    {
      "type": "Feature",
      "id": 2676,
      "geometry": {
        "type": "Polygon",
        "coordinates": [
          [
            [
              -76.96835,
              1.28631
            ],
            [
              -76.98403,
              1.27185
            ],
            [
              -76.97129,
              1.25214
            ],
            [
              -76.97893,
              1.22507
            ],
            [
              -77.02096,
              1.19622
            ],
            [
              -76.96553,
              1.1573
            ],
            [
              -76.92658,
              1.27344
            ],
            [
              -76.93307,
              1.2854
            ],
            [
              -76.96276,
              1.27365
            ],
            [
              -76.96835,
              1.28631
            ]
          ]
        ]
      },
      "properties": {
        "code": "86219",
        "departmentCode": "86",
        "name": "COLÓN",
        "originalCode": "219",
        "originalName": "COLÓN",
        "MPIO_TIPO": "MUNICIPIO",
        "type": "MUNICIPIO",
        "unitType": "municipio",
        "MPIO_NAREA": 64.31747923,
        "MPIO_NANO": 2024,
        "MPIO_CRSLCION": "Decreto 2830 de Diciembre 2 de 1989",
        "areaName": 64.31747923,
        "creationYear": 2024,
        "creationResolution": "Decreto 2830 de Diciembre 2 de 1989",
        "resultType": "observed",
        "source": "dane-divipola-mgn-2025",
        "year": 2025
      }
    },
    {
      "type": "Feature",
      "id": 2677,
      "geometry": {
        "type": "Polygon",
        "coordinates": [
          [
            [
              -76.71742,
              0.75372
            ],
            [
              -76.76607,
              0.79298
            ],
            [
              -76.89089,
              0.76998
            ],
            [
              -76.93059,
              0.81581
            ],
            [
              -76.94626,
              0.90016
            ],
            [
              -76.98004,
              0.91322
            ],
            [
              -77.01455,
              0.9033
            ],
            [
              -77.07972,
              0.94061
            ],
            [
              -77.12121,
              0.89316
            ],
            [
              -77.10207,
              0.83365
            ],
            [
              -77.13915,
              0.82151
            ],
            [
              -77.18681,
              0.63095
            ],
            [
              -77.11736,
              0.59136
            ],
            [
              -77.13134,
              0.53539
            ],
            [
              -77.10207,
              0.47038
            ],
            [
              -77.10134,
              0.42708
            ],
            [
              -77.08983,
              0.42032
            ],
            [
              -77.02142,
              0.55831
            ],
            [
              -76.99926,
              0.49247
            ],
            [
              -76.9764,
              0.48484
            ],
            [
              -76.84514,
              0.47827
            ],
            [
              -76.79419,
              0.51303
            ],
            [
              -76.77141,
              0.50516
            ],
            [
              -76.65478,
              0.63156
            ],
            [
              -76.65194,
              0.69986
            ],
            [
              -76.69104,
              0.706
            ],
            [
              -76.69868,
              0.74493
            ],
            [
              -76.71742,
              0.75372
            ]
          ]
        ]
      },
      "properties": {
        "code": "86320",
        "departmentCode": "86",
        "name": "ORITO",
        "originalCode": "320",
        "originalName": "ORITO",
        "MPIO_TIPO": "MUNICIPIO",
        "type": "MUNICIPIO",
        "unitType": "municipio",
        "MPIO_NAREA": 1940.59417359,
        "MPIO_NANO": 2024,
        "MPIO_CRSLCION": "Decreto 2891 de Diciembre 28 de 1978",
        "areaName": 1940.59417359,
        "creationYear": 2024,
        "creationResolution": "Decreto 2891 de Diciembre 28 de 1978",
        "resultType": "observed",
        "source": "dane-divipola-mgn-2025",
        "year": 2025
      }
    },
    {
      "type": "Feature",
      "id": 2678,
      "geometry": {
        "type": "Polygon",
        "coordinates": [
          [
            [
              -76.2263,
              0.63889
            ],
            [
              -76.23701,
              0.66152
            ],
            [
              -76.60984,
              0.60416
            ],
            [
              -76.61089,
              0.6281
            ],
            [
              -76.65409,
              0.64766
            ],
            [
              -76.77141,
              0.50516
            ],
            [
              -76.7593,
              0.49068
            ],
            [
              -76.69224,
              0.50583
            ],
            [
              -76.64119,
              0.25803
            ],
            [
              -76.62493,
              0.26098
            ],
            [
              -76.58872,
              0.21918
            ],
            [
              -76.53539,
              0.25892
            ],
            [
              -76.5034,
              0.2362
            ],
            [
              -76.44806,
              0.23951
            ],
            [
              -76.43327,
              0.25898
            ],
            [
              -76.42088,
              0.23603
            ],
            [
              -76.41235,
              0.38128
            ],
            [
              -76.36776,
              0.3937
            ],
            [
              -76.34312,
              0.38085
            ],
            [
              -76.31213,
              0.43364
            ],
            [
              -76.29661,
              0.42069
            ],
            [
              -76.27409,
              0.43507
            ],
            [
              -76.25714,
              0.39981
            ],
            [
              -76.23275,
              0.40033
            ],
            [
              -76.2266,
              0.37333
            ],
            [
              -76.20871,
              0.38507
            ],
            [
              -76.18652,
              0.3698
            ],
            [
              -76.15958,
              0.38855
            ],
            [
              -76.14434,
              0.37532
            ],
            [
              -75.77211,
              0.43976
            ],
            [
              -75.79762,
              0.45207
            ],
            [
              -75.79817,
              0.48478
            ],
            [
              -75.8222,
              0.5166
            ],
            [
              -75.86102,
              0.55288
            ],
            [
              -75.88685,
              0.55367
            ],
            [
              -75.91166,
              0.59036
            ],
            [
              -75.95382,
              0.55009
            ],
            [
              -75.97486,
              0.55054
            ],
            [
              -75.99957,
              0.58809
            ],
            [
              -76.01691,
              0.58055
            ],
            [
              -76.03232,
              0.59587
            ],
            [
              -76.04586,
              0.57652
            ],
            [
              -76.04643,
              0.59358
            ],
            [
              -76.07493,
              0.59429
            ],
            [
              -76.06978,
              0.60634
            ],
            [
              -76.09096,
              0.61462
            ],
            [
              -76.08427,
              0.62923
            ],
            [
              -76.11644,
              0.63407
            ],
            [
              -76.10912,
              0.64834
            ],
            [
              -76.13363,
              0.6486
            ],
            [
              -76.13845,
              0.63297
            ],
            [
              -76.19345,
              0.65221
            ],
            [
              -76.18964,
              0.63317
            ],
            [
              -76.20557,
              0.63565
            ],
            [
              -76.19391,
              0.62483
            ],
            [
              -76.20762,
              0.62105
            ],
            [
              -76.22248,
              0.62505
            ],
            [
              -76.2174,
              0.64456
            ],
            [
              -76.2263,
              0.63889
            ]
          ]
        ]
      },
      "properties": {
        "code": "86568",
        "departmentCode": "86",
        "name": "PUERTO ASÍS",
        "originalCode": "568",
        "originalName": "PUERTO ASÍS",
        "MPIO_TIPO": "MUNICIPIO",
        "type": "MUNICIPIO",
        "unitType": "municipio",
        "MPIO_NAREA": 2819.84374964,
        "MPIO_NANO": 2024,
        "MPIO_CRSLCION": "Decreto 1951 de Octubre 24 de 1967",
        "areaName": 2819.84374964,
        "creationYear": 2024,
        "creationResolution": "Decreto 1951 de Octubre 24 de 1967",
        "resultType": "observed",
        "source": "dane-divipola-mgn-2025",
        "year": 2025
      }
    },
    {
      "type": "Feature",
      "id": 2679,
      "geometry": {
        "type": "Polygon",
        "coordinates": [
          [
            [
              -76.71742,
              0.75372
            ],
            [
              -76.69868,
              0.74493
            ],
            [
              -76.69104,
              0.706
            ],
            [
              -76.65194,
              0.69986
            ],
            [
              -76.65409,
              0.64766
            ],
            [
              -76.61089,
              0.6281
            ],
            [
              -76.60984,
              0.60416
            ],
            [
              -76.23701,
              0.66152
            ],
            [
              -76.23122,
              0.69761
            ],
            [
              -76.30351,
              0.7665
            ],
            [
              -76.32282,
              0.76585
            ],
            [
              -76.37718,
              0.80986
            ],
            [
              -76.41015,
              0.86853
            ],
            [
              -76.52084,
              0.86855
            ],
            [
              -76.50793,
              0.82768
            ],
            [
              -76.48577,
              0.81079
            ],
            [
              -76.49054,
              0.78608
            ],
            [
              -76.76607,
              0.79298
            ],
            [
              -76.71742,
              0.75372
            ]
          ]
        ]
      },
      "properties": {
        "code": "86569",
        "departmentCode": "86",
        "name": "PUERTO CAICEDO",
        "originalCode": "569",
        "originalName": "PUERTO CAICEDO",
        "MPIO_TIPO": "MUNICIPIO",
        "type": "MUNICIPIO",
        "unitType": "municipio",
        "MPIO_NAREA": 926.84282756,
        "MPIO_NANO": 2024,
        "MPIO_CRSLCION": "Ordenanza 12 de Noviembre 24 de 1992",
        "areaName": 926.84282756,
        "creationYear": 2024,
        "creationResolution": "Ordenanza 12 de Noviembre 24 de 1992",
        "resultType": "observed",
        "source": "dane-divipola-mgn-2025",
        "year": 2025
      }
    },
    {
      "type": "Feature",
      "id": 2680,
      "geometry": {
        "type": "Polygon",
        "coordinates": [
          [
            [
              -75.94095,
              1.02943
            ],
            [
              -75.99421,
              1.07259
            ],
            [
              -75.99401,
              1.02723
            ],
            [
              -76.00494,
              1.05467
            ],
            [
              -76.04925,
              1.04623
            ],
            [
              -76.08862,
              1.05804
            ],
            [
              -76.08044,
              1.02119
            ],
            [
              -76.10398,
              1.02523
            ],
            [
              -76.12614,
              1.00663
            ],
            [
              -76.17417,
              1.02952
            ],
            [
              -76.19071,
              1.00974
            ],
            [
              -76.20471,
              1.0171
            ],
            [
              -76.2083,
              1.00197
            ],
            [
              -76.19333,
              1.00665
            ],
            [
              -76.19001,
              0.99419
            ],
            [
              -76.20499,
              0.97976
            ],
            [
              -76.23642,
              0.98204
            ],
            [
              -76.23443,
              0.96486
            ],
            [
              -76.27602,
              0.98369
            ],
            [
              -76.29486,
              0.96145
            ],
            [
              -76.32803,
              0.95803
            ],
            [
              -76.33532,
              0.98071
            ],
            [
              -76.40098,
              0.98022
            ],
            [
              -76.42487,
              0.96024
            ],
            [
              -76.48553,
              1.00788
            ],
            [
              -76.51578,
              0.9954
            ],
            [
              -76.47562,
              0.9176
            ],
            [
              -76.42221,
              0.88618
            ],
            [
              -76.39207,
              0.82452
            ],
            [
              -76.23136,
              0.69802
            ],
            [
              -76.24035,
              0.67191
            ],
            [
              -76.23299,
              0.64227
            ],
            [
              -76.21726,
              0.64436
            ],
            [
              -76.22056,
              0.62181
            ],
            [
              -76.1942,
              0.62434
            ],
            [
              -76.20572,
              0.63533
            ],
            [
              -76.19009,
              0.63231
            ],
            [
              -76.19345,
              0.65221
            ],
            [
              -76.13845,
              0.63297
            ],
            [
              -76.13363,
              0.6486
            ],
            [
              -76.10912,
              0.64834
            ],
            [
              -76.11644,
              0.63407
            ],
            [
              -76.08427,
              0.62923
            ],
            [
              -76.09096,
              0.61462
            ],
            [
              -76.06978,
              0.60634
            ],
            [
              -76.07493,
              0.59429
            ],
            [
              -76.04643,
              0.59358
            ],
            [
              -76.04586,
              0.57652
            ],
            [
              -76.03232,
              0.59587
            ],
            [
              -76.01691,
              0.58055
            ],
            [
              -75.99957,
              0.58809
            ],
            [
              -75.97447,
              0.55048
            ],
            [
              -75.95382,
              0.55009
            ],
            [
              -75.91166,
              0.59036
            ],
            [
              -75.88685,
              0.55367
            ],
            [
              -75.86102,
              0.55288
            ],
            [
              -75.8222,
              0.5166
            ],
            [
              -75.79817,
              0.48478
            ],
            [
              -75.79762,
              0.45207
            ],
            [
              -75.77211,
              0.43976
            ],
            [
              -75.45621,
              0.49529
            ],
            [
              -75.26582,
              0.72385
            ],
            [
              -75.2975,
              0.72949
            ],
            [
              -75.33981,
              0.76923
            ],
            [
              -75.40905,
              0.73778
            ],
            [
              -75.46875,
              0.75884
            ],
            [
              -75.48307,
              0.78297
            ],
            [
              -75.50804,
              0.76816
            ],
            [
              -75.53839,
              0.78859
            ],
            [
              -75.53793,
              0.8268
            ],
            [
              -75.60777,
              0.83826
            ],
            [
              -75.63636,
              0.87674
            ],
            [
              -75.68193,
              0.85691
            ],
            [
              -75.73095,
              0.8587
            ],
            [
              -75.76228,
              0.83776
            ],
            [
              -75.80018,
              0.89573
            ],
            [
              -75.82852,
              0.87384
            ],
            [
              -75.8566,
              0.885
            ],
            [
              -75.90918,
              0.97306
            ],
            [
              -75.94693,
              0.98291
            ],
            [
              -75.92048,
              1.02447
            ],
            [
              -75.94095,
              1.02943
            ]
          ]
        ]
      },
      "properties": {
        "code": "86571",
        "departmentCode": "86",
        "name": "PUERTO GUZMÁN",
        "originalCode": "571",
        "originalName": "PUERTO GUZMÁN",
        "MPIO_TIPO": "MUNICIPIO",
        "type": "MUNICIPIO",
        "unitType": "municipio",
        "MPIO_NAREA": 4576.35166237,
        "MPIO_NANO": 2024,
        "MPIO_CRSLCION": "Ordenanza 13 de Noviembre 24 de 1992",
        "areaName": 4576.35166237,
        "creationYear": 2024,
        "creationResolution": "Ordenanza 13 de Noviembre 24 de 1992",
        "resultType": "observed",
        "source": "dane-divipola-mgn-2025",
        "year": 2025
      }
    },
    {
      "type": "Feature",
      "id": 2681,
      "geometry": {
        "type": "Polygon",
        "coordinates": [
          [
            [
              -75.20032,
              0.47931
            ],
            [
              -75.21836,
              0.48839
            ],
            [
              -75.19846,
              0.50469
            ],
            [
              -75.23555,
              0.56652
            ],
            [
              -75.20726,
              0.60147
            ],
            [
              -75.23118,
              0.64606
            ],
            [
              -75.27617,
              0.66742
            ],
            [
              -75.25709,
              0.70339
            ],
            [
              -75.2656,
              0.72564
            ],
            [
              -75.45621,
              0.49529
            ],
            [
              -76.14434,
              0.37532
            ],
            [
              -76.1138,
              0.31362
            ],
            [
              -76.06385,
              0.33358
            ],
            [
              -76.04551,
              0.30323
            ],
            [
              -76.0091,
              0.29752
            ],
            [
              -75.98455,
              0.25848
            ],
            [
              -76.00481,
              0.24716
            ],
            [
              -75.96592,
              0.23645
            ],
            [
              -75.95468,
              0.20007
            ],
            [
              -75.9004,
              0.16127
            ],
            [
              -75.90596,
              0.13601
            ],
            [
              -75.88325,
              0.13903
            ],
            [
              -75.8769,
              0.11643
            ],
            [
              -75.85413,
              0.13101
            ],
            [
              -75.80703,
              0.04685
            ],
            [
              -75.64935,
              0.02672
            ],
            [
              -75.63534,
              0.04669
            ],
            [
              -75.60844,
              0.01162
            ],
            [
              -75.58127,
              0.01378
            ],
            [
              -75.57673,
              -0.02816
            ],
            [
              -75.53005,
              -0.02671
            ],
            [
              -75.39833,
              -0.10093
            ],
            [
              -75.3586,
              -0.09213
            ],
            [
              -75.27593,
              -0.12739
            ],
            [
              -75.22584,
              -0.09107
            ],
            [
              -75.20222,
              -0.04485
            ],
            [
              -75.17023,
              -0.045
            ],
            [
              -75.06903,
              -0.09494
            ],
            [
              -75.01798,
              -0.14766
            ],
            [
              -74.97491,
              -0.1574
            ],
            [
              -74.97483,
              -0.18675
            ],
            [
              -74.9283,
              -0.22882
            ],
            [
              -74.91237,
              -0.21293
            ],
            [
              -74.88538,
              -0.24557
            ],
            [
              -74.85434,
              -0.24327
            ],
            [
              -74.80951,
              -0.19293
            ],
            [
              -74.78732,
              -0.20102
            ],
            [
              -74.73163,
              -0.30288
            ],
            [
              -74.72657,
              -0.34893
            ],
            [
              -74.70218,
              -0.35244
            ],
            [
              -74.68375,
              -0.33144
            ],
            [
              -74.68929,
              -0.36334
            ],
            [
              -74.65623,
              -0.37678
            ],
            [
              -74.60993,
              -0.35321
            ],
            [
              -74.61547,
              -0.37961
            ],
            [
              -74.58089,
              -0.38954
            ],
            [
              -74.53048,
              -0.46975
            ],
            [
              -74.50635,
              -0.46449
            ],
            [
              -74.49149,
              -0.49057
            ],
            [
              -74.47093,
              -0.48001
            ],
            [
              -74.45729,
              -0.50577
            ],
            [
              -74.42681,
              -0.49978
            ],
            [
              -74.42093,
              -0.5615
            ],
            [
              -74.39665,
              -0.54212
            ],
            [
              -74.38913,
              -0.55368
            ],
            [
              -73.84132,
              -0.39798
            ],
            [
              -73.88192,
              -0.36974
            ],
            [
              -74.00723,
              -0.34058
            ],
            [
              -74.0384,
              -0.30606
            ],
            [
              -74.04467,
              -0.27476
            ],
            [
              -74.08176,
              -0.27982
            ],
            [
              -74.11157,
              -0.23508
            ],
            [
              -74.14304,
              -0.23796
            ],
            [
              -74.16846,
              -0.26653
            ],
            [
              -74.18831,
              -0.25855
            ],
            [
              -74.20031,
              -0.20978
            ],
            [
              -74.24045,
              -0.2347
            ],
            [
              -74.28942,
              -0.20036
            ],
            [
              -74.26679,
              -0.14255
            ],
            [
              -74.30308,
              -0.14749
            ],
            [
              -74.34187,
              -0.10965
            ],
            [
              -74.40185,
              -0.11429
            ],
            [
              -74.44627,
              -0.1396
            ],
            [
              -74.42336,
              -0.09795
            ],
            [
              -74.45437,
              -0.07076
            ],
            [
              -74.47482,
              -0.13032
            ],
            [
              -74.49716,
              -0.13738
            ],
            [
              -74.51896,
              -0.08861
            ],
            [
              -74.53466,
              -0.09514
            ],
            [
              -74.53232,
              -0.12568
            ],
            [
              -74.63177,
              -0.08846
            ],
            [
              -74.616,
              -0.06217
            ],
            [
              -74.63136,
              -0.04405
            ],
            [
              -74.64857,
              -0.03895
            ],
            [
              -74.67734,
              -0.0605
            ],
            [
              -74.65637,
              -0.01157
            ],
            [
              -74.70457,
              0.04148
            ],
            [
              -74.675,
              0.04558
            ],
            [
              -74.65606,
              0.07277
            ],
            [
              -74.71255,
              0.09158
            ],
            [
              -74.68026,
              0.09204
            ],
            [
              -74.67279,
              0.11518
            ],
            [
              -74.67829,
              0.16172
            ],
            [
              -74.70769,
              0.19365
            ],
            [
              -74.74508,
              0.21087
            ],
            [
              -74.84191,
              0.21333
            ],
            [
              -74.89692,
              0.2504
            ],
            [
              -74.96043,
              0.24274
            ],
            [
              -75.00389,
              0.2732
            ],
            [
              -75.01058,
              0.29145
            ],
            [
              -74.97989,
              0.31462
            ],
            [
              -75.00714,
              0.34227
            ],
            [
              -75.01657,
              0.38343
            ],
            [
              -74.98292,
              0.40937
            ],
            [
              -75.02674,
              0.48061
            ],
            [
              -75.10439,
              0.47298
            ],
            [
              -75.09395,
              0.5012
            ],
            [
              -75.11046,
              0.51295
            ],
            [
              -75.15284,
              0.48155
            ],
            [
              -75.20032,
              0.47931
            ]
          ]
        ]
      },
      "properties": {
        "code": "86573",
        "departmentCode": "86",
        "name": "PUERTO LEGUÍZAMO",
        "originalCode": "573",
        "originalName": "PUERTO LEGUÍZAMO",
        "MPIO_TIPO": "MUNICIPIO",
        "type": "MUNICIPIO",
        "unitType": "municipio",
        "MPIO_NAREA": 10900.42598581,
        "MPIO_NANO": 2024,
        "MPIO_CRSLCION": "Decreto 698 de Noviembre 13 de 1953",
        "areaName": 10900.42598581,
        "creationYear": 2024,
        "creationResolution": "Decreto 698 de Noviembre 13 de 1953",
        "resultType": "observed",
        "source": "dane-divipola-mgn-2025",
        "year": 2025
      }
    },
    {
      "type": "Feature",
      "id": 2682,
      "geometry": {
        "type": "Polygon",
        "coordinates": [
          [
            [
              -76.9043,
              1.29919
            ],
            [
              -76.90415,
              1.32094
            ],
            [
              -76.92998,
              1.29674
            ],
            [
              -76.93993,
              1.21095
            ],
            [
              -76.96521,
              1.15709
            ],
            [
              -76.88876,
              1.1732
            ],
            [
              -76.87411,
              1.18998
            ],
            [
              -76.89438,
              1.25628
            ],
            [
              -76.87691,
              1.28947
            ],
            [
              -76.9043,
              1.29919
            ]
          ]
        ]
      },
      "properties": {
        "code": "86749",
        "departmentCode": "86",
        "name": "SIBUNDOY",
        "originalCode": "749",
        "originalName": "SIBUNDOY",
        "MPIO_TIPO": "MUNICIPIO",
        "type": "MUNICIPIO",
        "unitType": "municipio",
        "MPIO_NAREA": 97.79631883,
        "MPIO_NANO": 2024,
        "MPIO_CRSLCION": "Decreto 1871 de Julio 1 de 1982",
        "areaName": 97.79631883,
        "creationYear": 2024,
        "creationResolution": "Decreto 1871 de Julio 1 de 1982",
        "resultType": "observed",
        "source": "dane-divipola-mgn-2025",
        "year": 2025
      }
    },
    {
      "type": "Feature",
      "id": 2683,
      "geometry": {
        "type": "Polygon",
        "coordinates": [
          [
            [
              -76.87345,
              1.28986
            ],
            [
              -76.89439,
              1.25653
            ],
            [
              -76.87523,
              1.18745
            ],
            [
              -76.96553,
              1.1573
            ],
            [
              -76.98688,
              1.09399
            ],
            [
              -76.92942,
              1.08964
            ],
            [
              -76.90152,
              1.05855
            ],
            [
              -76.73752,
              1.00715
            ],
            [
              -76.75501,
              1.04485
            ],
            [
              -76.77868,
              1.05605
            ],
            [
              -76.76772,
              1.10479
            ],
            [
              -76.79105,
              1.12132
            ],
            [
              -76.73028,
              1.21262
            ],
            [
              -76.8123,
              1.21787
            ],
            [
              -76.82374,
              1.24294
            ],
            [
              -76.85564,
              1.25046
            ],
            [
              -76.87345,
              1.28986
            ]
          ]
        ]
      },
      "properties": {
        "code": "86755",
        "departmentCode": "86",
        "name": "SAN FRANCISCO",
        "originalCode": "755",
        "originalName": "SAN FRANCISCO",
        "MPIO_TIPO": "MUNICIPIO",
        "type": "MUNICIPIO",
        "unitType": "municipio",
        "MPIO_NAREA": 407.59616234,
        "MPIO_NANO": 2024,
        "MPIO_CRSLCION": "Decreto 2830 de Diciembre 2 de 1989",
        "areaName": 407.59616234,
        "creationYear": 2024,
        "creationResolution": "Decreto 2830 de Diciembre 2 de 1989",
        "resultType": "observed",
        "source": "dane-divipola-mgn-2025",
        "year": 2025
      }
    },
    {
      "type": "Feature",
      "id": 2684,
      "geometry": {
        "type": "Polygon",
        "coordinates": [
          [
            [
              -76.99677,
              0.37419
            ],
            [
              -77.01473,
              0.37848
            ],
            [
              -77.02393,
              0.36273
            ],
            [
              -77.01178,
              0.32537
            ],
            [
              -77.02334,
              0.31441
            ],
            [
              -77.03817,
              0.3235
            ],
            [
              -77.04902,
              0.28934
            ],
            [
              -77.02975,
              0.27733
            ],
            [
              -77.00533,
              0.2951
            ],
            [
              -76.98468,
              0.26838
            ],
            [
              -76.9343,
              0.27657
            ],
            [
              -76.93526,
              0.262
            ],
            [
              -76.9061,
              0.24534
            ],
            [
              -76.84621,
              0.23913
            ],
            [
              -76.79799,
              0.2649
            ],
            [
              -76.75862,
              0.24698
            ],
            [
              -76.76651,
              0.26354
            ],
            [
              -76.73364,
              0.28863
            ],
            [
              -76.71269,
              0.26896
            ],
            [
              -76.66097,
              0.27341
            ],
            [
              -76.65446,
              0.25177
            ],
            [
              -76.64119,
              0.25803
            ],
            [
              -76.65658,
              0.33112
            ],
            [
              -76.76076,
              0.34187
            ],
            [
              -76.84179,
              0.30253
            ],
            [
              -76.86054,
              0.35335
            ],
            [
              -76.90705,
              0.36461
            ],
            [
              -76.91853,
              0.3819
            ],
            [
              -76.94716,
              0.38347
            ],
            [
              -76.95992,
              0.34974
            ],
            [
              -76.98974,
              0.35426
            ],
            [
              -76.99677,
              0.37419
            ]
          ]
        ]
      },
      "properties": {
        "code": "86757",
        "departmentCode": "86",
        "name": "SAN MIGUEL",
        "originalCode": "757",
        "originalName": "SAN MIGUEL",
        "MPIO_TIPO": "MUNICIPIO",
        "type": "MUNICIPIO",
        "unitType": "municipio",
        "MPIO_NAREA": 379.96831073,
        "MPIO_NANO": 2024,
        "MPIO_CRSLCION": "Ordenanza 45 de Abril 29 de 1994",
        "areaName": 379.96831073,
        "creationYear": 2024,
        "creationResolution": "Ordenanza 45 de Abril 29 de 1994",
        "resultType": "observed",
        "source": "dane-divipola-mgn-2025",
        "year": 2025
      }
    },
    {
      "type": "Feature",
      "id": 2685,
      "geometry": {
        "type": "Polygon",
        "coordinates": [
          [
            [
              -77.0344,
              1.19921
            ],
            [
              -77.08843,
              1.18337
            ],
            [
              -77.10143,
              1.14319
            ],
            [
              -77.08871,
              1.0672
            ],
            [
              -77.05657,
              1.03363
            ],
            [
              -77.0368,
              1.04706
            ],
            [
              -77.02807,
              0.99493
            ],
            [
              -77.04651,
              0.97891
            ],
            [
              -76.96457,
              0.98175
            ],
            [
              -76.92916,
              1.01909
            ],
            [
              -76.85358,
              1.04407
            ],
            [
              -76.90152,
              1.05855
            ],
            [
              -76.92942,
              1.08964
            ],
            [
              -76.98614,
              1.0931
            ],
            [
              -76.96553,
              1.1573
            ],
            [
              -77.0088,
              1.19882
            ],
            [
              -77.0344,
              1.19921
            ]
          ]
        ]
      },
      "properties": {
        "code": "86760",
        "departmentCode": "86",
        "name": "SANTIAGO",
        "originalCode": "760",
        "originalName": "SANTIAGO",
        "MPIO_TIPO": "MUNICIPIO",
        "type": "MUNICIPIO",
        "unitType": "municipio",
        "MPIO_NAREA": 342.16073335,
        "MPIO_NANO": 2024,
        "MPIO_CRSLCION": "Decreto 2830 de Diciembre 2 de 1989",
        "areaName": 342.16073335,
        "creationYear": 2024,
        "creationResolution": "Decreto 2830 de Diciembre 2 de 1989",
        "resultType": "observed",
        "source": "dane-divipola-mgn-2025",
        "year": 2025
      }
    },
    {
      "type": "Feature",
      "id": 2686,
      "geometry": {
        "type": "Polygon",
        "coordinates": [
          [
            [
              -77.00282,
              0.50364
            ],
            [
              -77.02142,
              0.55831
            ],
            [
              -77.09894,
              0.41147
            ],
            [
              -77.08817,
              0.39412
            ],
            [
              -77.11293,
              0.38143
            ],
            [
              -77.07879,
              0.28623
            ],
            [
              -77.05434,
              0.28504
            ],
            [
              -77.03817,
              0.3235
            ],
            [
              -77.02334,
              0.31441
            ],
            [
              -77.01178,
              0.32537
            ],
            [
              -77.0248,
              0.35856
            ],
            [
              -77.00007,
              0.38356
            ],
            [
              -76.98974,
              0.35426
            ],
            [
              -76.95992,
              0.34974
            ],
            [
              -76.94716,
              0.38347
            ],
            [
              -76.8622,
              0.35436
            ],
            [
              -76.84179,
              0.30253
            ],
            [
              -76.76076,
              0.34187
            ],
            [
              -76.65658,
              0.33112
            ],
            [
              -76.69224,
              0.50583
            ],
            [
              -76.76066,
              0.49071
            ],
            [
              -76.79377,
              0.51314
            ],
            [
              -76.84514,
              0.47827
            ],
            [
              -76.9764,
              0.48484
            ],
            [
              -77.00282,
              0.50364
            ]
          ]
        ]
      },
      "properties": {
        "code": "86865",
        "departmentCode": "86",
        "name": "VALLE DEL GUAMUEZ",
        "originalCode": "865",
        "originalName": "VALLE DEL GUAMUEZ",
        "MPIO_TIPO": "MUNICIPIO",
        "type": "MUNICIPIO",
        "unitType": "municipio",
        "MPIO_NAREA": 815.66121418,
        "MPIO_NANO": 2024,
        "MPIO_CRSLCION": "Decreto DAINCO 3293 de Noviembre 12 de 1985",
        "areaName": 815.66121418,
        "creationYear": 2024,
        "creationResolution": "Decreto DAINCO 3293 de Noviembre 12 de 1985",
        "resultType": "observed",
        "source": "dane-divipola-mgn-2025",
        "year": 2025
      }
    },
    {
      "type": "Feature",
      "id": 2687,
      "geometry": {
        "type": "Polygon",
        "coordinates": [
          [
            [
              -76.77018,
              0.79027
            ],
            [
              -76.49024,
              0.78623
            ],
            [
              -76.48577,
              0.81079
            ],
            [
              -76.5212,
              0.86766
            ],
            [
              -76.46521,
              0.87049
            ],
            [
              -76.5115,
              0.92571
            ],
            [
              -76.52994,
              0.99985
            ],
            [
              -76.56069,
              1.03062
            ],
            [
              -76.60332,
              1.03348
            ],
            [
              -76.63646,
              1.07553
            ],
            [
              -76.72504,
              1.01413
            ],
            [
              -76.72299,
              0.9985
            ],
            [
              -76.8654,
              1.04419
            ],
            [
              -76.92916,
              1.01909
            ],
            [
              -76.96457,
              0.98175
            ],
            [
              -77.07658,
              0.96582
            ],
            [
              -77.04976,
              0.91589
            ],
            [
              -76.94626,
              0.90016
            ],
            [
              -76.93059,
              0.81581
            ],
            [
              -76.89089,
              0.76998
            ],
            [
              -76.77018,
              0.79027
            ]
          ]
        ]
      },
      "properties": {
        "code": "86885",
        "departmentCode": "86",
        "name": "VILLAGARZÓN",
        "originalCode": "885",
        "originalName": "VILLAGARZÓN",
        "MPIO_TIPO": "MUNICIPIO",
        "type": "MUNICIPIO",
        "unitType": "municipio",
        "MPIO_NAREA": 1397.70273326,
        "MPIO_NANO": 2024,
        "MPIO_CRSLCION": "Decreto 574 de Marzo 14 de 1977",
        "areaName": 1397.70273326,
        "creationYear": 2024,
        "creationResolution": "Decreto 574 de Marzo 14 de 1977",
        "resultType": "observed",
        "source": "dane-divipola-mgn-2025",
        "year": 2025
      }
    }
  ]
}
