{
  "type": "FeatureCollection",
  "metadata": {
    "source": "DANE DIVIPOLA MGN 2025",
    "downloadedAt": "2026-07-25T07:50:10Z",
    "crs": "EPSG:4326",
    "simplification": "ArcGIS maxAllowableOffset=0.01 grados y geometryPrecision=5; solo visualización web"
  },
  "features": [
    {
      "type": "Feature",
      "id": 2688,
      "geometry": {
        "type": "MultiPolygon",
        "coordinates": [
          [
            [
              [
                -81.7042,
                12.59481
              ],
              [
                -81.73252,
                12.55489
              ],
              [
                -81.73008,
                12.4803
              ],
              [
                -81.70353,
                12.54379
              ],
              [
                -81.70757,
                12.57206
              ],
              [
                -81.68706,
                12.58091
              ],
              [
                -81.7042,
                12.59481
              ]
            ]
          ],
          [
            [
              [
                -81.68843,
                12.54957
              ],
              [
                -81.68812,
                12.55057
              ],
              [
                -81.68923,
                12.55104
              ],
              [
                -81.68843,
                12.54957
              ]
            ]
          ],
          [
            [
              [
                -81.68874,
                12.55266
              ],
              [
                -81.68874,
                12.55293
              ],
              [
                -81.68894,
                12.5531
              ],
              [
                -81.68874,
                12.55266
              ]
            ]
          ],
          [
            [
              [
                -81.68948,
                12.59922
              ],
              [
                -81.68984,
                12.60105
              ],
              [
                -81.69071,
                12.59929
              ],
              [
                -81.68948,
                12.59922
              ]
            ]
          ]
        ]
      },
      "properties": {
        "code": "88001",
        "departmentCode": "88",
        "name": "SAN ANDRÉS",
        "resultType": "observed",
        "source": "dane-divipola-mgn-2025",
        "year": 2025
      }
    },
    {
      "type": "Feature",
      "id": 2689,
      "geometry": {
        "type": "MultiPolygon",
        "coordinates": [
          [
            [
              [
                -81.36434,
                13.38561
              ],
              [
                -81.39232,
                13.35892
              ],
              [
                -81.38917,
                13.32076
              ],
              [
                -81.34972,
                13.35687
              ],
              [
                -81.36434,
                13.38561
              ]
            ]
          ],
          [
            [
              [
                -81.37077,
                13.3945
              ],
              [
                -81.37969,
                13.39146
              ],
              [
                -81.37674,
                13.3815
              ],
              [
                -81.37077,
                13.3945
              ]
            ]
          ]
        ]
      },
      "properties": {
        "code": "88564",
        "departmentCode": "88",
        "name": "PROVIDENCIA",
        "resultType": "observed",
        "source": "dane-divipola-mgn-2025",
        "year": 2025
      }
    }
  ]
}
