{
  "type": "FeatureCollection",
  "metadata": {
    "source": "DANE DIVIPOLA MGN 2025",
    "downloadedAt": "2026-07-25T07:50:10Z",
    "crs": "EPSG:4326",
    "simplification": "ArcGIS maxAllowableOffset=0.01 grados y geometryPrecision=5; solo visualización web"
  },
  "features": [
    {
      "type": "Feature",
      "id": 2690,
      "geometry": {
        "type": "Polygon",
        "coordinates": [
          [
            [
              -69.74085,
              -3.00263
            ],
            [
              -69.97981,
              -3.00299
            ],
            [
              -70.00334,
              -3.01671
            ],
            [
              -69.99483,
              -3.04514
            ],
            [
              -70.01807,
              -3.03035
            ],
            [
              -70.02608,
              -3.04466
            ],
            [
              -70.05754,
              -3.04658
            ],
            [
              -70.03915,
              -3.0897
            ],
            [
              -70.0581,
              -3.08709
            ],
            [
              -70.0635,
              -3.10393
            ],
            [
              -70.10099,
              -3.08913
            ],
            [
              -70.1229,
              -3.10776
            ],
            [
              -70.12293,
              -3.13016
            ],
            [
              -70.1486,
              -3.14048
            ],
            [
              -70.14695,
              -3.16355
            ],
            [
              -70.16341,
              -3.15908
            ],
            [
              -70.17026,
              -3.18078
            ],
            [
              -70.1696,
              -3.16859
            ],
            [
              -70.19124,
              -3.17509
            ],
            [
              -70.1977,
              -3.19781
            ],
            [
              -70.24938,
              -3.17827
            ],
            [
              -70.31796,
              -3.21025
            ],
            [
              -70.33571,
              -3.19691
            ],
            [
              -70.3655,
              -3.68987
            ],
            [
              -70.31436,
              -3.72822
            ],
            [
              -70.30765,
              -3.81214
            ],
            [
              -70.27427,
              -3.83235
            ],
            [
              -70.24809,
              -3.89508
            ],
            [
              -70.18322,
              -3.92863
            ],
            [
              -70.16745,
              -4.05151
            ],
            [
              -70.06493,
              -4.08091
            ],
            [
              -69.94984,
              -4.22941
            ],
            [
              -69.93321,
              -4.21968
            ],
            [
              -69.71422,
              -3.00261
            ],
            [
              -69.74085,
              -3.00263
            ]
          ]
        ]
      },
      "properties": {
        "code": "91001",
        "departmentCode": "91",
        "name": "LETICIA",
        "resultType": "observed",
        "source": "dane-divipola-mgn-2025",
        "year": 2025
      }
    },
    {
      "type": "Feature",
      "id": 2691,
      "geometry": {
        "type": "Polygon",
        "coordinates": [
          [
            [
              -73.03183,
              -1.50293
            ],
            [
              -73.49245,
              -1.50287
            ],
            [
              -73.47897,
              -1.52924
            ],
            [
              -73.49838,
              -1.56603
            ],
            [
              -73.4582,
              -1.57624
            ],
            [
              -73.50886,
              -1.62404
            ],
            [
              -73.5413,
              -1.6975
            ],
            [
              -73.50646,
              -1.73148
            ],
            [
              -73.45176,
              -1.74889
            ],
            [
              -73.43117,
              -1.79033
            ],
            [
              -73.3802,
              -1.78121
            ],
            [
              -73.3149,
              -1.82878
            ],
            [
              -73.29782,
              -1.82476
            ],
            [
              -73.30568,
              -1.8002
            ],
            [
              -73.28513,
              -1.78067
            ],
            [
              -73.24513,
              -1.78378
            ],
            [
              -73.25372,
              -1.80855
            ],
            [
              -73.23124,
              -1.8022
            ],
            [
              -73.21992,
              -1.74991
            ],
            [
              -73.18515,
              -1.80832
            ],
            [
              -73.14684,
              -1.80511
            ],
            [
              -73.15461,
              -1.86008
            ],
            [
              -73.10876,
              -1.88377
            ],
            [
              -73.13016,
              -1.9927
            ],
            [
              -73.09338,
              -2.04043
            ],
            [
              -73.11426,
              -2.07425
            ],
            [
              -73.0689,
              -2.08829
            ],
            [
              -73.11679,
              -2.12826
            ],
            [
              -73.1341,
              -2.18148
            ],
            [
              -73.17157,
              -2.18605
            ],
            [
              -73.17275,
              -2.22063
            ],
            [
              -73.12535,
              -2.29654
            ],
            [
              -73.12256,
              -2.32742
            ],
            [
              -73.09757,
              -2.32682
            ],
            [
              -73.05704,
              -2.366
            ],
            [
              -73.04036,
              -2.35471
            ],
            [
              -73.03938,
              -2.32778
            ],
            [
              -73.00152,
              -2.36302
            ],
            [
              -72.97593,
              -2.34469
            ],
            [
              -72.93403,
              -2.41642
            ],
            [
              -72.93377,
              -2.45756
            ],
            [
              -72.83126,
              -2.43115
            ],
            [
              -72.77492,
              -2.39415
            ],
            [
              -72.75118,
              -2.42937
            ],
            [
              -72.72994,
              -2.4211
            ],
            [
              -72.72887,
              -2.39915
            ],
            [
              -72.7024,
              -2.39831
            ],
            [
              -72.68236,
              -2.45337
            ],
            [
              -72.66226,
              -2.44124
            ],
            [
              -72.63114,
              -2.35968
            ],
            [
              -72.59706,
              -2.36801
            ],
            [
              -72.56791,
              -2.40513
            ],
            [
              -72.54322,
              -2.40513
            ],
            [
              -72.51833,
              -2.42711
            ],
            [
              -72.47669,
              -2.42064
            ],
            [
              -72.43299,
              -2.44203
            ],
            [
              -72.40865,
              -2.41598
            ],
            [
              -72.39837,
              -2.47037
            ],
            [
              -72.37346,
              -2.4925
            ],
            [
              -72.29589,
              -2.47735
            ],
            [
              -72.28393,
              -2.45426
            ],
            [
              -72.2552,
              -2.45902
            ],
            [
              -72.25133,
              -2.43178
            ],
            [
              -72.22188,
              -2.44968
            ],
            [
              -72.18729,
              -2.43553
            ],
            [
              -72.15656,
              -2.48113
            ],
            [
              -72.1285,
              -2.41408
            ],
            [
              -72.04882,
              -2.33881
            ],
            [
              -72.01423,
              -2.36929
            ],
            [
              -71.95916,
              -2.3592
            ],
            [
              -71.91972,
              -2.38056
            ],
            [
              -71.92613,
              -2.31543
            ],
            [
              -71.88028,
              -2.31154
            ],
            [
              -71.83288,
              -2.19596
            ],
            [
              -71.79984,
              -2.20793
            ],
            [
              -71.76917,
              -2.18055
            ],
            [
              -71.77896,
              -2.16506
            ],
            [
              -71.79317,
              -2.17375
            ],
            [
              -71.80516,
              -2.14918
            ],
            [
              -71.82031,
              -2.1618
            ],
            [
              -71.84313,
              -2.15384
            ],
            [
              -71.85354,
              -2.1748
            ],
            [
              -71.88223,
              -2.15081
            ],
            [
              -71.93488,
              -2.16366
            ],
            [
              -71.91919,
              -2.17822
            ],
            [
              -71.94536,
              -2.18688
            ],
            [
              -71.95767,
              -2.1583
            ],
            [
              -72.00946,
              -2.13237
            ],
            [
              -72.09211,
              -2.18509
            ],
            [
              -72.11242,
              -2.15411
            ],
            [
              -72.09615,
              -2.16385
            ],
            [
              -72.08528,
              -2.1519
            ],
            [
              -72.0894,
              -2.09424
            ],
            [
              -72.11541,
              -2.08791
            ],
            [
              -72.11552,
              -2.12969
            ],
            [
              -72.1321,
              -2.11323
            ],
            [
              -72.14006,
              -2.12852
            ],
            [
              -72.14158,
              -2.10752
            ],
            [
              -72.16537,
              -2.12464
            ],
            [
              -72.17361,
              -2.11303
            ],
            [
              -72.162,
              -2.10872
            ],
            [
              -72.18401,
              -2.08962
            ],
            [
              -72.22116,
              -2.10907
            ],
            [
              -72.21262,
              -2.07592
            ],
            [
              -72.24461,
              -2.08962
            ],
            [
              -72.24178,
              -2.07421
            ],
            [
              -72.25281,
              -2.07522
            ],
            [
              -72.23615,
              -2.02797
            ],
            [
              -72.25125,
              -2.04101
            ],
            [
              -72.2697,
              -2.02288
            ],
            [
              -72.25824,
              -1.97847
            ],
            [
              -72.28903,
              -1.97676
            ],
            [
              -72.26317,
              -1.95083
            ],
            [
              -72.28239,
              -1.94287
            ],
            [
              -72.28406,
              -1.91095
            ],
            [
              -72.2938,
              -1.90462
            ],
            [
              -72.29932,
              -1.91949
            ],
            [
              -72.31636,
              -1.89954
            ],
            [
              -72.34571,
              -1.9042
            ],
            [
              -72.36761,
              -1.8618
            ],
            [
              -72.3725,
              -1.88595
            ],
            [
              -72.39448,
              -1.87853
            ],
            [
              -72.38877,
              -1.8531
            ],
            [
              -72.4008,
              -1.8465
            ],
            [
              -72.40911,
              -1.85982
            ],
            [
              -72.40348,
              -1.84484
            ],
            [
              -72.45295,
              -1.8446
            ],
            [
              -72.45865,
              -1.78839
            ],
            [
              -72.47228,
              -1.81164
            ],
            [
              -72.4623,
              -1.81898
            ],
            [
              -72.47461,
              -1.81906
            ],
            [
              -72.50334,
              -1.77499
            ],
            [
              -72.49779,
              -1.74937
            ],
            [
              -72.48408,
              -1.75647
            ],
            [
              -72.46801,
              -1.72759
            ],
            [
              -72.49441,
              -1.73225
            ],
            [
              -72.48552,
              -1.71058
            ],
            [
              -72.5132,
              -1.72464
            ],
            [
              -72.52512,
              -1.68212
            ],
            [
              -72.54061,
              -1.69509
            ],
            [
              -72.53378,
              -1.71862
            ],
            [
              -72.55206,
              -1.69711
            ],
            [
              -72.57365,
              -1.71399
            ],
            [
              -72.58778,
              -1.6819
            ],
            [
              -72.62651,
              -1.67631
            ],
            [
              -72.60498,
              -1.65245
            ],
            [
              -72.61401,
              -1.63783
            ],
            [
              -72.64385,
              -1.65273
            ],
            [
              -72.63244,
              -1.6493
            ],
            [
              -72.64377,
              -1.61498
            ],
            [
              -72.62632,
              -1.59725
            ],
            [
              -72.65332,
              -1.57513
            ],
            [
              -72.65883,
              -1.59483
            ],
            [
              -72.66167,
              -1.57693
            ],
            [
              -72.67617,
              -1.58286
            ],
            [
              -72.68699,
              -1.56808
            ],
            [
              -72.68769,
              -1.517
            ],
            [
              -72.67483,
              -1.52758
            ],
            [
              -72.66966,
              -1.50993
            ],
            [
              -73.03183,
              -1.50293
            ]
          ]
        ]
      },
      "properties": {
        "code": "91263",
        "departmentCode": "91",
        "name": "EL ENCANTO",
        "resultType": "observed",
        "source": "dane-divipola-mgn-2025",
        "year": 2025
      }
    },
    {
      "type": "Feature",
      "id": 2692,
      "geometry": {
        "type": "Polygon",
        "coordinates": [
          [
            [
              -72.99694,
              -0.534
            ],
            [
              -73.04689,
              -0.5372
            ],
            [
              -73.07479,
              -0.62129
            ],
            [
              -73.12142,
              -0.60413
            ],
            [
              -73.20298,
              -0.62648
            ],
            [
              -73.33188,
              -0.5061
            ],
            [
              -73.37435,
              -0.53588
            ],
            [
              -73.43034,
              -0.5109
            ],
            [
              -73.48875,
              -0.52815
            ],
            [
              -73.51712,
              -0.52108
            ],
            [
              -73.53614,
              -0.48751
            ],
            [
              -73.56413,
              -0.51782
            ],
            [
              -73.58465,
              -0.44912
            ],
            [
              -73.60816,
              -0.43915
            ],
            [
              -73.6514,
              -0.45717
            ],
            [
              -73.63926,
              -0.41886
            ],
            [
              -73.68568,
              -0.41768
            ],
            [
              -73.71317,
              -0.38286
            ],
            [
              -73.73481,
              -0.38157
            ],
            [
              -73.76607,
              -0.40797
            ],
            [
              -73.81638,
              -0.4116
            ],
            [
              -73.84132,
              -0.39798
            ],
            [
              -72.99656,
              -1.50293
            ],
            [
              -72.66966,
              -1.50993
            ],
            [
              -72.67483,
              -1.52758
            ],
            [
              -72.68769,
              -1.517
            ],
            [
              -72.68699,
              -1.56808
            ],
            [
              -72.67617,
              -1.58286
            ],
            [
              -72.66167,
              -1.57693
            ],
            [
              -72.65883,
              -1.59483
            ],
            [
              -72.65332,
              -1.57513
            ],
            [
              -72.62632,
              -1.59725
            ],
            [
              -72.64377,
              -1.61498
            ],
            [
              -72.63244,
              -1.6493
            ],
            [
              -72.64385,
              -1.65273
            ],
            [
              -72.61401,
              -1.63783
            ],
            [
              -72.60498,
              -1.65245
            ],
            [
              -72.62651,
              -1.67631
            ],
            [
              -72.58778,
              -1.6819
            ],
            [
              -72.57365,
              -1.71399
            ],
            [
              -72.55206,
              -1.69711
            ],
            [
              -72.53378,
              -1.71862
            ],
            [
              -72.54061,
              -1.69509
            ],
            [
              -72.52512,
              -1.68212
            ],
            [
              -72.5132,
              -1.72464
            ],
            [
              -72.48552,
              -1.71058
            ],
            [
              -72.49441,
              -1.73225
            ],
            [
              -72.46801,
              -1.72759
            ],
            [
              -72.48408,
              -1.75647
            ],
            [
              -72.49779,
              -1.74937
            ],
            [
              -72.50334,
              -1.77499
            ],
            [
              -72.47461,
              -1.81906
            ],
            [
              -72.4623,
              -1.81898
            ],
            [
              -72.47228,
              -1.81164
            ],
            [
              -72.45865,
              -1.78839
            ],
            [
              -72.45295,
              -1.8446
            ],
            [
              -72.40348,
              -1.84484
            ],
            [
              -72.40911,
              -1.85982
            ],
            [
              -72.4008,
              -1.8465
            ],
            [
              -72.38877,
              -1.8531
            ],
            [
              -72.39448,
              -1.87853
            ],
            [
              -72.3725,
              -1.88595
            ],
            [
              -72.36761,
              -1.8618
            ],
            [
              -72.34571,
              -1.9042
            ],
            [
              -72.31636,
              -1.89954
            ],
            [
              -72.29932,
              -1.91949
            ],
            [
              -72.2938,
              -1.90462
            ],
            [
              -72.28406,
              -1.91095
            ],
            [
              -72.28239,
              -1.94287
            ],
            [
              -72.26317,
              -1.95083
            ],
            [
              -72.28903,
              -1.97676
            ],
            [
              -72.26744,
              -1.98472
            ],
            [
              -72.26286,
              -1.97121
            ],
            [
              -72.25642,
              -2.00157
            ],
            [
              -72.2697,
              -2.02288
            ],
            [
              -72.24889,
              -2.04121
            ],
            [
              -72.24205,
              -2.02381
            ],
            [
              -72.23239,
              -2.03927
            ],
            [
              -72.24857,
              -2.04773
            ],
            [
              -72.24562,
              -2.089
            ],
            [
              -72.21336,
              -2.07553
            ],
            [
              -72.22116,
              -2.10907
            ],
            [
              -72.18401,
              -2.08962
            ],
            [
              -72.16825,
              -2.09727
            ],
            [
              -72.16468,
              -2.12503
            ],
            [
              -72.13952,
              -2.10814
            ],
            [
              -72.13843,
              -2.12903
            ],
            [
              -72.1321,
              -2.11323
            ],
            [
              -72.11366,
              -2.12841
            ],
            [
              -72.11424,
              -2.08706
            ],
            [
              -72.0894,
              -2.09424
            ],
            [
              -72.08528,
              -2.1519
            ],
            [
              -72.09615,
              -2.16385
            ],
            [
              -72.11242,
              -2.15411
            ],
            [
              -72.09308,
              -2.18493
            ],
            [
              -72.02126,
              -2.13474
            ],
            [
              -72.0,
              -2.13875
            ],
            [
              -71.99822,
              -1.47746
            ],
            [
              -72.026,
              -1.48763
            ],
            [
              -72.02338,
              -1.46763
            ],
            [
              -72.0492,
              -1.46972
            ],
            [
              -72.04255,
              -1.42682
            ],
            [
              -72.05552,
              -1.40177
            ],
            [
              -72.04305,
              -1.38811
            ],
            [
              -72.06202,
              -1.38924
            ],
            [
              -72.08287,
              -1.3588
            ],
            [
              -72.06561,
              -1.34278
            ],
            [
              -72.08572,
              -1.31699
            ],
            [
              -72.07129,
              -1.31677
            ],
            [
              -72.08569,
              -1.30152
            ],
            [
              -72.10606,
              -1.31462
            ],
            [
              -72.09988,
              -1.30138
            ],
            [
              -72.12443,
              -1.29153
            ],
            [
              -72.10416,
              -1.27439
            ],
            [
              -72.12307,
              -1.27691
            ],
            [
              -72.12299,
              -1.25685
            ],
            [
              -72.10052,
              -1.25189
            ],
            [
              -72.10841,
              -1.23876
            ],
            [
              -72.09582,
              -1.24236
            ],
            [
              -72.09458,
              -1.22249
            ],
            [
              -72.11332,
              -1.20733
            ],
            [
              -72.12753,
              -1.22344
            ],
            [
              -72.13342,
              -1.20677
            ],
            [
              -72.15818,
              -1.23347
            ],
            [
              -72.16385,
              -1.22084
            ],
            [
              -72.19387,
              -1.22492
            ],
            [
              -72.19733,
              -1.25381
            ],
            [
              -72.22061,
              -1.26077
            ],
            [
              -72.22677,
              -1.24293
            ],
            [
              -72.25907,
              -1.23193
            ],
            [
              -72.26565,
              -1.20839
            ],
            [
              -72.40995,
              -1.21324
            ],
            [
              -72.45906,
              -1.15653
            ],
            [
              -72.52776,
              -1.17789
            ],
            [
              -72.59609,
              -1.13202
            ],
            [
              -72.66992,
              -1.16466
            ],
            [
              -72.73857,
              -1.15222
            ],
            [
              -72.77826,
              -1.1281
            ],
            [
              -72.7905,
              -1.07613
            ],
            [
              -72.78261,
              -1.0071
            ],
            [
              -72.99694,
              -0.534
            ]
          ]
        ]
      },
      "properties": {
        "code": "91405",
        "departmentCode": "91",
        "name": "LA CHORRERA",
        "resultType": "observed",
        "source": "dane-divipola-mgn-2025",
        "year": 2025
      }
    },
    {
      "type": "Feature",
      "id": 2693,
      "geometry": {
        "type": "Polygon",
        "coordinates": [
          [
            [
              -70.45577,
              -0.49577
            ],
            [
              -70.45259,
              -0.43969
            ],
            [
              -70.49656,
              -0.38635
            ],
            [
              -70.49653,
              -2.00343
            ],
            [
              -69.5349,
              -2.00257
            ],
            [
              -69.45168,
              -1.53891
            ],
            [
              -69.45624,
              -1.48865
            ],
            [
              -69.43267,
              -1.45276
            ],
            [
              -69.43031,
              -1.39216
            ],
            [
              -69.39748,
              -1.3609
            ],
            [
              -69.42999,
              -1.22695
            ],
            [
              -69.39613,
              -1.13672
            ],
            [
              -69.40045,
              -1.11041
            ],
            [
              -69.43297,
              -1.06949
            ],
            [
              -69.46264,
              -1.07759
            ],
            [
              -69.46093,
              -1.13835
            ],
            [
              -69.48925,
              -1.15111
            ],
            [
              -69.46503,
              -1.18931
            ],
            [
              -69.48504,
              -1.21534
            ],
            [
              -69.56473,
              -1.19326
            ],
            [
              -69.59254,
              -1.14584
            ],
            [
              -69.63454,
              -1.16805
            ],
            [
              -69.63799,
              -1.21391
            ],
            [
              -69.66419,
              -1.2263
            ],
            [
              -69.68031,
              -1.20125
            ],
            [
              -69.68091,
              -1.12133
            ],
            [
              -69.66155,
              -1.11648
            ],
            [
              -69.6523,
              -1.13369
            ],
            [
              -69.64936,
              -1.1168
            ],
            [
              -69.70471,
              -1.04778
            ],
            [
              -69.74952,
              -1.02762
            ],
            [
              -69.77282,
              -1.03704
            ],
            [
              -69.75795,
              -1.0731
            ],
            [
              -69.73447,
              -1.08234
            ],
            [
              -69.7571,
              -1.09887
            ],
            [
              -69.78409,
              -1.08651
            ],
            [
              -69.81754,
              -1.03232
            ],
            [
              -69.83981,
              -1.02847
            ],
            [
              -69.87593,
              -1.07831
            ],
            [
              -69.95505,
              -1.09614
            ],
            [
              -69.97151,
              -1.07299
            ],
            [
              -69.94144,
              -1.03474
            ],
            [
              -69.95424,
              -0.9956
            ],
            [
              -69.90198,
              -0.97193
            ],
            [
              -69.94141,
              -0.94659
            ],
            [
              -69.95819,
              -0.96775
            ],
            [
              -69.99892,
              -0.97604
            ],
            [
              -70.00076,
              -0.946
            ],
            [
              -70.0166,
              -0.93693
            ],
            [
              -70.0308,
              -0.97875
            ],
            [
              -70.07895,
              -0.9469
            ],
            [
              -70.12228,
              -0.97238
            ],
            [
              -70.13561,
              -1.01468
            ],
            [
              -70.08791,
              -1.01235
            ],
            [
              -70.07914,
              -1.03788
            ],
            [
              -70.12787,
              -1.11073
            ],
            [
              -70.1682,
              -1.1132
            ],
            [
              -70.17755,
              -1.0749
            ],
            [
              -70.2276,
              -1.04967
            ],
            [
              -70.19747,
              -0.98507
            ],
            [
              -70.21992,
              -0.98535
            ],
            [
              -70.23206,
              -1.01458
            ],
            [
              -70.25318,
              -1.02078
            ],
            [
              -70.30712,
              -0.9646
            ],
            [
              -70.29589,
              -0.93649
            ],
            [
              -70.26059,
              -0.93804
            ],
            [
              -70.22125,
              -0.88635
            ],
            [
              -70.29713,
              -0.79132
            ],
            [
              -70.29023,
              -0.75247
            ],
            [
              -70.2488,
              -0.7394
            ],
            [
              -70.26191,
              -0.71155
            ],
            [
              -70.25613,
              -0.60286
            ],
            [
              -70.28224,
              -0.55818
            ],
            [
              -70.29994,
              -0.55929
            ],
            [
              -70.30975,
              -0.59029
            ],
            [
              -70.32513,
              -0.56081
            ],
            [
              -70.24493,
              -0.47017
            ],
            [
              -70.20869,
              -0.47763
            ],
            [
              -70.20073,
              -0.45675
            ],
            [
              -70.22005,
              -0.43602
            ],
            [
              -70.24879,
              -0.44453
            ],
            [
              -70.28833,
              -0.41293
            ],
            [
              -70.30976,
              -0.4415
            ],
            [
              -70.36507,
              -0.45396
            ],
            [
              -70.35116,
              -0.47254
            ],
            [
              -70.32125,
              -0.46982
            ],
            [
              -70.33461,
              -0.49928
            ],
            [
              -70.37777,
              -0.4979
            ],
            [
              -70.39962,
              -0.46285
            ],
            [
              -70.45577,
              -0.49577
            ]
          ]
        ]
      },
      "properties": {
        "code": "91407",
        "departmentCode": "91",
        "name": "LA PEDRERA",
        "resultType": "observed",
        "source": "dane-divipola-mgn-2025",
        "year": 2025
      }
    },
    {
      "type": "Feature",
      "id": 2694,
      "geometry": {
        "type": "Polygon",
        "coordinates": [
          [
            [
              -71.14469,
              0.05572
            ],
            [
              -71.1893,
              0.09705
            ],
            [
              -71.18714,
              0.08115
            ],
            [
              -71.22575,
              0.0542
            ],
            [
              -71.23882,
              0.06606
            ],
            [
              -71.31515,
              0.02054
            ],
            [
              -71.37059,
              0.03118
            ],
            [
              -71.40045,
              0.00561
            ],
            [
              -71.43723,
              0.00643
            ],
            [
              -71.44158,
              -0.01071
            ],
            [
              -71.36686,
              -0.0507
            ],
            [
              -71.29694,
              -0.03441
            ],
            [
              -71.27311,
              -0.04606
            ],
            [
              -71.27918,
              -0.10963
            ],
            [
              -71.2598,
              -0.16688
            ],
            [
              -71.16238,
              -0.25709
            ],
            [
              -71.11414,
              -0.26062
            ],
            [
              -71.08461,
              -0.30167
            ],
            [
              -70.97209,
              -0.29672
            ],
            [
              -70.93131,
              -0.33261
            ],
            [
              -70.90929,
              -0.32018
            ],
            [
              -70.91509,
              -0.33753
            ],
            [
              -70.90211,
              -0.34737
            ],
            [
              -70.85321,
              -0.34829
            ],
            [
              -70.84271,
              -0.32774
            ],
            [
              -70.87818,
              -0.27996
            ],
            [
              -70.88309,
              -0.21394
            ],
            [
              -70.91508,
              -0.20179
            ],
            [
              -70.94655,
              -0.15408
            ],
            [
              -70.9307,
              -0.12901
            ],
            [
              -70.90157,
              -0.13251
            ],
            [
              -70.89214,
              -0.11617
            ],
            [
              -70.92658,
              -0.08888
            ],
            [
              -70.92725,
              -0.05176
            ],
            [
              -70.96128,
              -0.03983
            ],
            [
              -70.9689,
              -0.00931
            ],
            [
              -70.99174,
              -0.00196
            ],
            [
              -71.01573,
              -0.01247
            ],
            [
              -71.01209,
              -0.04151
            ],
            [
              -71.03109,
              -0.04744
            ],
            [
              -71.05306,
              -0.0277
            ],
            [
              -71.03951,
              -0.00452
            ],
            [
              -71.09503,
              -0.00816
            ],
            [
              -71.10433,
              0.026
            ],
            [
              -71.13398,
              0.00417
            ],
            [
              -71.14469,
              0.05572
            ]
          ]
        ]
      },
      "properties": {
        "code": "91430",
        "departmentCode": "91",
        "name": "LA VICTORIA",
        "resultType": "observed",
        "source": "dane-divipola-mgn-2025",
        "year": 2025
      }
    },
    {
      "type": "Feature",
      "id": 2695,
      "geometry": {
        "type": "Polygon",
        "coordinates": [
          [
            [
              -71.48046,
              -0.01052
            ],
            [
              -71.56383,
              0.02117
            ],
            [
              -71.62603,
              -0.03459
            ],
            [
              -71.70296,
              -0.06475
            ],
            [
              -71.70093,
              -0.09746
            ],
            [
              -71.73646,
              -0.15453
            ],
            [
              -71.71065,
              -0.23234
            ],
            [
              -71.72919,
              -0.23133
            ],
            [
              -71.743,
              -0.25236
            ],
            [
              -71.83087,
              -0.2763
            ],
            [
              -71.9278,
              -0.26525
            ],
            [
              -71.99609,
              -0.27638
            ],
            [
              -71.99618,
              -0.78338
            ],
            [
              -71.94604,
              -0.75633
            ],
            [
              -71.90655,
              -0.75962
            ],
            [
              -71.88103,
              -0.80217
            ],
            [
              -71.80432,
              -0.84333
            ],
            [
              -71.80427,
              -0.9173
            ],
            [
              -71.7436,
              -0.96715
            ],
            [
              -71.58172,
              -0.93768
            ],
            [
              -71.53858,
              -0.94883
            ],
            [
              -71.53997,
              -0.98643
            ],
            [
              -71.58049,
              -1.07809
            ],
            [
              -71.56226,
              -1.12658
            ],
            [
              -71.53648,
              -1.14735
            ],
            [
              -71.47799,
              -1.15521
            ],
            [
              -71.41358,
              -1.12394
            ],
            [
              -71.34464,
              -1.04596
            ],
            [
              -71.18364,
              -1.05002
            ],
            [
              -71.08206,
              -1.11159
            ],
            [
              -70.9953,
              -1.24999
            ],
            [
              -70.96103,
              -1.26602
            ],
            [
              -70.90382,
              -1.2513
            ],
            [
              -70.8427,
              -1.28293
            ],
            [
              -70.77528,
              -1.40081
            ],
            [
              -70.67045,
              -1.45261
            ],
            [
              -70.58857,
              -1.41896
            ],
            [
              -70.56278,
              -1.4341
            ],
            [
              -70.53756,
              -1.47972
            ],
            [
              -70.49778,
              -1.47824
            ],
            [
              -70.49656,
              -0.38635
            ],
            [
              -70.52428,
              -0.35613
            ],
            [
              -70.53122,
              -0.37467
            ],
            [
              -70.55514,
              -0.36275
            ],
            [
              -70.56895,
              -0.38964
            ],
            [
              -70.58533,
              -0.38933
            ],
            [
              -70.63038,
              -0.31991
            ],
            [
              -70.67799,
              -0.35212
            ],
            [
              -70.73451,
              -0.28702
            ],
            [
              -70.77193,
              -0.30001
            ],
            [
              -70.78039,
              -0.31634
            ],
            [
              -70.75896,
              -0.32774
            ],
            [
              -70.82113,
              -0.36648
            ],
            [
              -70.8437,
              -0.33173
            ],
            [
              -70.85664,
              -0.35031
            ],
            [
              -70.898,
              -0.34892
            ],
            [
              -70.91507,
              -0.33761
            ],
            [
              -70.90929,
              -0.32018
            ],
            [
              -70.93131,
              -0.33261
            ],
            [
              -70.97205,
              -0.29673
            ],
            [
              -71.08465,
              -0.30165
            ],
            [
              -71.11414,
              -0.26062
            ],
            [
              -71.19765,
              -0.23652
            ],
            [
              -71.25968,
              -0.16709
            ],
            [
              -71.27918,
              -0.10963
            ],
            [
              -71.2732,
              -0.046
            ],
            [
              -71.29694,
              -0.03441
            ],
            [
              -71.36747,
              -0.05051
            ],
            [
              -71.43682,
              -0.01703
            ],
            [
              -71.43723,
              0.00643
            ],
            [
              -71.45375,
              -0.01223
            ],
            [
              -71.48046,
              -0.01052
            ]
          ]
        ]
      },
      "properties": {
        "code": "91460",
        "departmentCode": "91",
        "name": "MIRITÍ - PARANÁ",
        "resultType": "observed",
        "source": "dane-divipola-mgn-2025",
        "year": 2025
      }
    },
    {
      "type": "Feature",
      "id": 2696,
      "geometry": {
        "type": "Polygon",
        "coordinates": [
          [
            [
              -73.60741,
              -0.70392
            ],
            [
              -73.84132,
              -0.39798
            ],
            [
              -74.38913,
              -0.55368
            ],
            [
              -74.39634,
              -0.58079
            ],
            [
              -74.3636,
              -0.62129
            ],
            [
              -74.37404,
              -0.65869
            ],
            [
              -74.34188,
              -0.6936
            ],
            [
              -74.37913,
              -0.7146
            ],
            [
              -74.37545,
              -0.7355
            ],
            [
              -74.31424,
              -0.7681
            ],
            [
              -74.31773,
              -0.7962
            ],
            [
              -74.29193,
              -0.78039
            ],
            [
              -74.29337,
              -0.81853
            ],
            [
              -74.28052,
              -0.82949
            ],
            [
              -74.25465,
              -0.82195
            ],
            [
              -74.2714,
              -0.87912
            ],
            [
              -74.30299,
              -0.86309
            ],
            [
              -74.3218,
              -0.87927
            ],
            [
              -74.31449,
              -0.89675
            ],
            [
              -74.27565,
              -0.90961
            ],
            [
              -74.26318,
              -0.94464
            ],
            [
              -74.2743,
              -0.97986
            ],
            [
              -74.22133,
              -1.0115
            ],
            [
              -74.16776,
              -1.00874
            ],
            [
              -74.08652,
              -1.05437
            ],
            [
              -74.04966,
              -1.05295
            ],
            [
              -74.02417,
              -1.00639
            ],
            [
              -74.02815,
              -1.05994
            ],
            [
              -74.01197,
              -1.09793
            ],
            [
              -73.98232,
              -1.10994
            ],
            [
              -73.9621,
              -1.08495
            ],
            [
              -73.95237,
              -1.09681
            ],
            [
              -73.96847,
              -1.12724
            ],
            [
              -73.90657,
              -1.12659
            ],
            [
              -73.86401,
              -1.22939
            ],
            [
              -73.8125,
              -1.25005
            ],
            [
              -73.78818,
              -1.24139
            ],
            [
              -73.76928,
              -1.26275
            ],
            [
              -73.74504,
              -1.20085
            ],
            [
              -73.7286,
              -1.25363
            ],
            [
              -73.68166,
              -1.2414
            ],
            [
              -73.64583,
              -1.27015
            ],
            [
              -73.62012,
              -1.26484
            ],
            [
              -73.61314,
              -1.3197
            ],
            [
              -73.56958,
              -1.32406
            ],
            [
              -73.58258,
              -1.37649
            ],
            [
              -73.55228,
              -1.40242
            ],
            [
              -73.58739,
              -1.42379
            ],
            [
              -73.53711,
              -1.43424
            ],
            [
              -73.53061,
              -1.479
            ],
            [
              -73.49023,
              -1.4854
            ],
            [
              -73.49245,
              -1.50287
            ],
            [
              -72.99656,
              -1.50293
            ],
            [
              -73.60741,
              -0.70392
            ]
          ]
        ]
      },
      "properties": {
        "code": "91530",
        "departmentCode": "91",
        "name": "PUERTO ALEGRÍA",
        "resultType": "observed",
        "source": "dane-divipola-mgn-2025",
        "year": 2025
      }
    },
    {
      "type": "Feature",
      "id": 2697,
      "geometry": {
        "type": "Polygon",
        "coordinates": [
          [
            [
              -70.72814,
              -1.42879
            ],
            [
              -70.73227,
              -1.44922
            ],
            [
              -70.76536,
              -1.46964
            ],
            [
              -70.77355,
              -1.4343
            ],
            [
              -70.80041,
              -1.43582
            ],
            [
              -70.79889,
              -1.41178
            ],
            [
              -70.80635,
              -1.42546
            ],
            [
              -70.83984,
              -1.40891
            ],
            [
              -70.86073,
              -1.43173
            ],
            [
              -70.86389,
              -1.41585
            ],
            [
              -70.88655,
              -1.42121
            ],
            [
              -70.8927,
              -1.38751
            ],
            [
              -70.89299,
              -1.40455
            ],
            [
              -70.92156,
              -1.39787
            ],
            [
              -70.91438,
              -1.42773
            ],
            [
              -70.93442,
              -1.43734
            ],
            [
              -70.98881,
              -1.39857
            ],
            [
              -71.01557,
              -1.43842
            ],
            [
              -71.00844,
              -1.4168
            ],
            [
              -71.02975,
              -1.39395
            ],
            [
              -71.06545,
              -1.39523
            ],
            [
              -71.0643,
              -1.41264
            ],
            [
              -71.07758,
              -1.39049
            ],
            [
              -71.09807,
              -1.39466
            ],
            [
              -71.09512,
              -1.41276
            ],
            [
              -71.12016,
              -1.39453
            ],
            [
              -71.14758,
              -1.41503
            ],
            [
              -71.18061,
              -1.40769
            ],
            [
              -71.19466,
              -1.38327
            ],
            [
              -71.23375,
              -1.397
            ],
            [
              -71.20877,
              -1.39911
            ],
            [
              -71.23962,
              -1.42389
            ],
            [
              -71.21208,
              -1.4281
            ],
            [
              -71.20602,
              -1.45706
            ],
            [
              -71.24243,
              -1.4605
            ],
            [
              -71.26861,
              -1.49585
            ],
            [
              -71.27202,
              -1.4548
            ],
            [
              -71.33993,
              -1.46548
            ],
            [
              -71.31806,
              -1.51989
            ],
            [
              -71.34308,
              -1.51123
            ],
            [
              -71.34993,
              -1.52311
            ],
            [
              -71.3173,
              -1.53589
            ],
            [
              -71.31751,
              -1.56759
            ],
            [
              -71.35762,
              -1.54647
            ],
            [
              -71.37148,
              -1.64171
            ],
            [
              -71.4092,
              -1.64669
            ],
            [
              -71.40156,
              -1.6889
            ],
            [
              -71.43732,
              -1.69363
            ],
            [
              -71.42168,
              -1.7249
            ],
            [
              -71.43247,
              -1.7589
            ],
            [
              -71.44266,
              -1.7448
            ],
            [
              -71.44218,
              -1.76252
            ],
            [
              -71.44943,
              -1.75032
            ],
            [
              -71.48323,
              -1.77714
            ],
            [
              -71.4605,
              -1.79572
            ],
            [
              -71.48252,
              -1.79981
            ],
            [
              -71.48065,
              -1.81622
            ],
            [
              -71.49553,
              -1.80926
            ],
            [
              -71.49473,
              -1.83259
            ],
            [
              -71.5174,
              -1.83771
            ],
            [
              -71.52194,
              -1.82292
            ],
            [
              -71.54882,
              -1.85103
            ],
            [
              -71.57863,
              -1.83452
            ],
            [
              -71.57215,
              -1.85821
            ],
            [
              -71.60238,
              -1.89008
            ],
            [
              -71.6823,
              -1.7911
            ],
            [
              -71.65578,
              -1.77842
            ],
            [
              -71.67761,
              -1.77808
            ],
            [
              -71.67776,
              -1.75622
            ],
            [
              -71.69579,
              -1.76505
            ],
            [
              -71.70916,
              -1.74676
            ],
            [
              -71.70574,
              -1.71771
            ],
            [
              -71.72349,
              -1.72529
            ],
            [
              -71.73387,
              -1.68935
            ],
            [
              -71.77113,
              -1.69899
            ],
            [
              -71.76171,
              -1.68463
            ],
            [
              -71.79454,
              -1.67511
            ],
            [
              -71.80127,
              -1.61794
            ],
            [
              -71.82818,
              -1.62104
            ],
            [
              -71.81546,
              -1.59627
            ],
            [
              -71.83036,
              -1.60546
            ],
            [
              -71.83273,
              -1.5864
            ],
            [
              -71.8464,
              -1.59105
            ],
            [
              -71.83914,
              -1.55132
            ],
            [
              -71.84721,
              -1.56486
            ],
            [
              -71.85667,
              -1.5464
            ],
            [
              -71.86611,
              -1.56148
            ],
            [
              -71.8768,
              -1.54568
            ],
            [
              -71.8782,
              -1.56013
            ],
            [
              -71.91081,
              -1.56149
            ],
            [
              -71.90333,
              -1.53444
            ],
            [
              -71.923,
              -1.5408
            ],
            [
              -71.92332,
              -1.52377
            ],
            [
              -71.95939,
              -1.51309
            ],
            [
              -71.99051,
              -1.53338
            ],
            [
              -71.97881,
              -1.50842
            ],
            [
              -71.99587,
              -1.48354
            ],
            [
              -72.0,
              -2.13875
            ],
            [
              -71.95767,
              -2.1583
            ],
            [
              -71.94384,
              -2.18699
            ],
            [
              -71.91919,
              -2.17822
            ],
            [
              -71.93488,
              -2.16366
            ],
            [
              -71.88223,
              -2.15081
            ],
            [
              -71.85354,
              -2.1748
            ],
            [
              -71.84313,
              -2.15384
            ],
            [
              -71.82031,
              -2.1618
            ],
            [
              -71.80516,
              -2.14918
            ],
            [
              -71.79317,
              -2.17375
            ],
            [
              -71.77896,
              -2.16506
            ],
            [
              -71.76917,
              -2.18055
            ],
            [
              -71.74818,
              -2.17394
            ],
            [
              -71.74026,
              -2.14672
            ],
            [
              -71.71958,
              -2.16067
            ],
            [
              -71.72922,
              -2.22766
            ],
            [
              -71.70597,
              -2.23231
            ],
            [
              -71.65047,
              -2.20313
            ],
            [
              -71.60635,
              -2.23793
            ],
            [
              -71.51843,
              -2.2524
            ],
            [
              -71.52576,
              -2.32067
            ],
            [
              -71.49941,
              -2.35553
            ],
            [
              -71.47828,
              -2.34598
            ],
            [
              -71.48292,
              -2.2889
            ],
            [
              -71.45659,
              -2.27851
            ],
            [
              -71.3994,
              -2.35805
            ],
            [
              -71.40971,
              -2.39059
            ],
            [
              -71.39513,
              -2.4114
            ],
            [
              -71.31845,
              -2.38143
            ],
            [
              -71.29663,
              -2.34738
            ],
            [
              -71.27691,
              -2.35197
            ],
            [
              -71.2933,
              -2.37809
            ],
            [
              -71.28441,
              -2.38872
            ],
            [
              -71.22798,
              -2.34833
            ],
            [
              -71.19624,
              -2.38187
            ],
            [
              -71.1722,
              -2.38113
            ],
            [
              -71.1661,
              -2.34334
            ],
            [
              -71.12745,
              -2.33849
            ],
            [
              -71.14074,
              -2.30311
            ],
            [
              -71.12563,
              -2.28598
            ],
            [
              -71.03662,
              -2.27614
            ],
            [
              -70.99427,
              -2.30871
            ],
            [
              -70.98698,
              -2.29138
            ],
            [
              -71.01415,
              -2.22646
            ],
            [
              -71.00248,
              -2.21171
            ],
            [
              -70.98149,
              -2.214
            ],
            [
              -70.93712,
              -2.2571
            ],
            [
              -70.8799,
              -2.22318
            ],
            [
              -70.85749,
              -2.23889
            ],
            [
              -70.8388,
              -2.29238
            ],
            [
              -70.77066,
              -2.29906
            ],
            [
              -70.7523,
              -2.3313
            ],
            [
              -70.66371,
              -2.3597
            ],
            [
              -70.68303,
              -2.40415
            ],
            [
              -70.64405,
              -2.41407
            ],
            [
              -70.62827,
              -2.39895
            ],
            [
              -70.64503,
              -2.45406
            ],
            [
              -70.62897,
              -2.47961
            ],
            [
              -70.55904,
              -2.47877
            ],
            [
              -70.54587,
              -2.45028
            ],
            [
              -70.58536,
              -2.42845
            ],
            [
              -70.56517,
              -2.4198
            ],
            [
              -70.52111,
              -2.47193
            ],
            [
              -70.49606,
              -2.47714
            ],
            [
              -70.49654,
              -1.47728
            ],
            [
              -70.53756,
              -1.47972
            ],
            [
              -70.56278,
              -1.4341
            ],
            [
              -70.58857,
              -1.41896
            ],
            [
              -70.664,
              -1.45241
            ],
            [
              -70.72814,
              -1.42879
            ]
          ]
        ]
      },
      "properties": {
        "code": "91536",
        "departmentCode": "91",
        "name": "PUERTO ARICA",
        "resultType": "observed",
        "source": "dane-divipola-mgn-2025",
        "year": 2025
      }
    },
    {
      "type": "Feature",
      "id": 2698,
      "geometry": {
        "type": "Polygon",
        "coordinates": [
          [
            [
              -70.36439,
              -3.69037
            ],
            [
              -70.33571,
              -3.19691
            ],
            [
              -70.71325,
              -3.79546
            ],
            [
              -70.6855,
              -3.79397
            ],
            [
              -70.65302,
              -3.82978
            ],
            [
              -70.62076,
              -3.83989
            ],
            [
              -70.57776,
              -3.81686
            ],
            [
              -70.5312,
              -3.87803
            ],
            [
              -70.48625,
              -3.87667
            ],
            [
              -70.35445,
              -3.80023
            ],
            [
              -70.30765,
              -3.81214
            ],
            [
              -70.3142,
              -3.72849
            ],
            [
              -70.36439,
              -3.69037
            ]
          ]
        ]
      },
      "properties": {
        "code": "91540",
        "departmentCode": "91",
        "name": "PUERTO NARIÑO",
        "resultType": "observed",
        "source": "dane-divipola-mgn-2025",
        "year": 2025
      }
    },
    {
      "type": "Feature",
      "id": 2699,
      "geometry": {
        "type": "Polygon",
        "coordinates": [
          [
            [
              -71.99609,
              -0.27638
            ],
            [
              -72.04017,
              -0.26824
            ],
            [
              -72.06272,
              -0.3247
            ],
            [
              -72.15344,
              -0.35533
            ],
            [
              -72.14803,
              -0.39539
            ],
            [
              -72.17279,
              -0.44393
            ],
            [
              -72.23061,
              -0.49298
            ],
            [
              -72.24283,
              -0.60526
            ],
            [
              -72.30845,
              -0.65183
            ],
            [
              -72.39465,
              -0.6139
            ],
            [
              -72.40777,
              -0.56797
            ],
            [
              -72.42497,
              -0.56229
            ],
            [
              -72.56281,
              -0.70569
            ],
            [
              -72.67381,
              -0.63518
            ],
            [
              -72.67765,
              -0.61596
            ],
            [
              -72.74062,
              -0.58011
            ],
            [
              -72.74973,
              -0.555
            ],
            [
              -72.81586,
              -0.59921
            ],
            [
              -72.91728,
              -0.61551
            ],
            [
              -72.99694,
              -0.534
            ],
            [
              -72.78261,
              -1.0071
            ],
            [
              -72.7905,
              -1.07613
            ],
            [
              -72.77849,
              -1.1279
            ],
            [
              -72.73857,
              -1.15222
            ],
            [
              -72.66992,
              -1.16466
            ],
            [
              -72.59609,
              -1.13202
            ],
            [
              -72.52776,
              -1.17789
            ],
            [
              -72.45906,
              -1.15653
            ],
            [
              -72.40995,
              -1.21324
            ],
            [
              -72.26565,
              -1.20839
            ],
            [
              -72.25907,
              -1.23193
            ],
            [
              -72.22677,
              -1.24293
            ],
            [
              -72.22061,
              -1.26077
            ],
            [
              -72.19733,
              -1.25381
            ],
            [
              -72.19417,
              -1.22503
            ],
            [
              -72.16385,
              -1.22084
            ],
            [
              -72.15825,
              -1.23349
            ],
            [
              -72.13445,
              -1.20709
            ],
            [
              -72.12708,
              -1.22352
            ],
            [
              -72.11092,
              -1.20789
            ],
            [
              -72.09543,
              -1.24143
            ],
            [
              -72.11662,
              -1.24809
            ],
            [
              -72.11205,
              -1.26347
            ],
            [
              -72.12292,
              -1.25672
            ],
            [
              -72.12307,
              -1.27691
            ],
            [
              -72.10416,
              -1.27439
            ],
            [
              -72.12447,
              -1.29141
            ],
            [
              -72.09988,
              -1.30138
            ],
            [
              -72.10606,
              -1.31462
            ],
            [
              -72.08569,
              -1.30152
            ],
            [
              -72.07129,
              -1.31677
            ],
            [
              -72.08572,
              -1.31699
            ],
            [
              -72.06561,
              -1.34278
            ],
            [
              -72.08287,
              -1.3588
            ],
            [
              -72.06202,
              -1.38924
            ],
            [
              -72.04305,
              -1.38811
            ],
            [
              -72.05552,
              -1.40177
            ],
            [
              -72.04255,
              -1.42682
            ],
            [
              -72.0492,
              -1.46972
            ],
            [
              -72.02338,
              -1.46763
            ],
            [
              -72.02587,
              -1.48765
            ],
            [
              -71.99838,
              -1.47692
            ],
            [
              -71.97882,
              -1.50836
            ],
            [
              -71.99047,
              -1.5334
            ],
            [
              -71.95939,
              -1.51309
            ],
            [
              -71.92332,
              -1.52377
            ],
            [
              -71.923,
              -1.5408
            ],
            [
              -71.90333,
              -1.53444
            ],
            [
              -71.91081,
              -1.56149
            ],
            [
              -71.8782,
              -1.56013
            ],
            [
              -71.8768,
              -1.54568
            ],
            [
              -71.86611,
              -1.56148
            ],
            [
              -71.85667,
              -1.5464
            ],
            [
              -71.84721,
              -1.56486
            ],
            [
              -71.83914,
              -1.55132
            ],
            [
              -71.8464,
              -1.59105
            ],
            [
              -71.83273,
              -1.5864
            ],
            [
              -71.83036,
              -1.60546
            ],
            [
              -71.81546,
              -1.59627
            ],
            [
              -71.82818,
              -1.62104
            ],
            [
              -71.80127,
              -1.61794
            ],
            [
              -71.79454,
              -1.67511
            ],
            [
              -71.76171,
              -1.68463
            ],
            [
              -71.77113,
              -1.69899
            ],
            [
              -71.73387,
              -1.68935
            ],
            [
              -71.72349,
              -1.72529
            ],
            [
              -71.70574,
              -1.71771
            ],
            [
              -71.70916,
              -1.74676
            ],
            [
              -71.69579,
              -1.76505
            ],
            [
              -71.67776,
              -1.75622
            ],
            [
              -71.67761,
              -1.77808
            ],
            [
              -71.65578,
              -1.77842
            ],
            [
              -71.68232,
              -1.79107
            ],
            [
              -71.60414,
              -1.88995
            ],
            [
              -71.58126,
              -1.87815
            ],
            [
              -71.59175,
              -1.87066
            ],
            [
              -71.57213,
              -1.85817
            ],
            [
              -71.57863,
              -1.83452
            ],
            [
              -71.54882,
              -1.85103
            ],
            [
              -71.52194,
              -1.82292
            ],
            [
              -71.5174,
              -1.83771
            ],
            [
              -71.49473,
              -1.83259
            ],
            [
              -71.49553,
              -1.80926
            ],
            [
              -71.48065,
              -1.81622
            ],
            [
              -71.48252,
              -1.79981
            ],
            [
              -71.4605,
              -1.79572
            ],
            [
              -71.48323,
              -1.77714
            ],
            [
              -71.44943,
              -1.75032
            ],
            [
              -71.44218,
              -1.76252
            ],
            [
              -71.44266,
              -1.7448
            ],
            [
              -71.43247,
              -1.7589
            ],
            [
              -71.42168,
              -1.7249
            ],
            [
              -71.43732,
              -1.69363
            ],
            [
              -71.40156,
              -1.6889
            ],
            [
              -71.4092,
              -1.64669
            ],
            [
              -71.37148,
              -1.64171
            ],
            [
              -71.35762,
              -1.54647
            ],
            [
              -71.31751,
              -1.56759
            ],
            [
              -71.3173,
              -1.53589
            ],
            [
              -71.34993,
              -1.52311
            ],
            [
              -71.34308,
              -1.51123
            ],
            [
              -71.31806,
              -1.51989
            ],
            [
              -71.3404,
              -1.4663
            ],
            [
              -71.27202,
              -1.4548
            ],
            [
              -71.26861,
              -1.49585
            ],
            [
              -71.24243,
              -1.4605
            ],
            [
              -71.20872,
              -1.45933
            ],
            [
              -71.21147,
              -1.42876
            ],
            [
              -71.23962,
              -1.42389
            ],
            [
              -71.20877,
              -1.39911
            ],
            [
              -71.23375,
              -1.397
            ],
            [
              -71.19466,
              -1.38327
            ],
            [
              -71.18061,
              -1.40769
            ],
            [
              -71.14758,
              -1.41503
            ],
            [
              -71.12016,
              -1.39453
            ],
            [
              -71.09512,
              -1.41276
            ],
            [
              -71.09807,
              -1.39466
            ],
            [
              -71.07758,
              -1.39049
            ],
            [
              -71.0643,
              -1.41264
            ],
            [
              -71.06545,
              -1.39523
            ],
            [
              -71.02975,
              -1.39395
            ],
            [
              -71.00844,
              -1.4168
            ],
            [
              -71.01557,
              -1.43842
            ],
            [
              -70.98881,
              -1.39857
            ],
            [
              -70.93442,
              -1.43734
            ],
            [
              -70.91438,
              -1.42773
            ],
            [
              -70.92156,
              -1.39787
            ],
            [
              -70.89299,
              -1.40455
            ],
            [
              -70.8927,
              -1.38751
            ],
            [
              -70.88655,
              -1.42121
            ],
            [
              -70.86389,
              -1.41585
            ],
            [
              -70.86073,
              -1.43173
            ],
            [
              -70.83984,
              -1.40891
            ],
            [
              -70.80635,
              -1.42546
            ],
            [
              -70.79889,
              -1.41178
            ],
            [
              -70.80041,
              -1.43582
            ],
            [
              -70.77355,
              -1.4343
            ],
            [
              -70.76891,
              -1.4687
            ],
            [
              -70.73227,
              -1.44922
            ],
            [
              -70.72814,
              -1.42879
            ],
            [
              -70.77928,
              -1.39724
            ],
            [
              -70.84229,
              -1.28328
            ],
            [
              -70.90382,
              -1.2513
            ],
            [
              -70.96103,
              -1.26602
            ],
            [
              -70.9953,
              -1.24999
            ],
            [
              -71.08206,
              -1.11159
            ],
            [
              -71.17861,
              -1.05192
            ],
            [
              -71.34464,
              -1.04596
            ],
            [
              -71.41358,
              -1.12394
            ],
            [
              -71.47346,
              -1.15407
            ],
            [
              -71.52176,
              -1.15254
            ],
            [
              -71.56025,
              -1.12937
            ],
            [
              -71.58049,
              -1.07809
            ],
            [
              -71.53997,
              -0.98643
            ],
            [
              -71.53858,
              -0.94883
            ],
            [
              -71.58172,
              -0.93768
            ],
            [
              -71.7436,
              -0.96715
            ],
            [
              -71.80427,
              -0.9173
            ],
            [
              -71.80432,
              -0.84333
            ],
            [
              -71.88103,
              -0.80217
            ],
            [
              -71.90655,
              -0.75962
            ],
            [
              -71.94604,
              -0.75633
            ],
            [
              -71.99618,
              -0.78338
            ],
            [
              -71.99609,
              -0.27638
            ]
          ]
        ]
      },
      "properties": {
        "code": "91669",
        "departmentCode": "91",
        "name": "PUERTO SANTANDER",
        "resultType": "observed",
        "source": "dane-divipola-mgn-2025",
        "year": 2025
      }
    },
    {
      "type": "Feature",
      "id": 2700,
      "geometry": {
        "type": "Polygon",
        "coordinates": [
          [
            [
              -69.53491,
              -2.00259
            ],
            [
              -70.49653,
              -2.00343
            ],
            [
              -70.49606,
              -2.47714
            ],
            [
              -70.47012,
              -2.45618
            ],
            [
              -70.44579,
              -2.51879
            ],
            [
              -70.425,
              -2.5316
            ],
            [
              -70.36664,
              -2.49477
            ],
            [
              -70.30096,
              -2.50527
            ],
            [
              -70.30511,
              -2.52799
            ],
            [
              -70.35972,
              -2.54514
            ],
            [
              -70.35839,
              -2.56709
            ],
            [
              -70.3258,
              -2.58263
            ],
            [
              -70.24457,
              -2.55825
            ],
            [
              -70.21944,
              -2.65629
            ],
            [
              -70.19487,
              -2.66344
            ],
            [
              -70.17828,
              -2.63325
            ],
            [
              -70.16556,
              -2.64273
            ],
            [
              -70.16787,
              -2.70297
            ],
            [
              -70.15596,
              -2.7169
            ],
            [
              -70.11328,
              -2.69916
            ],
            [
              -70.10132,
              -2.66216
            ],
            [
              -70.07751,
              -2.66236
            ],
            [
              -70.07146,
              -2.67709
            ],
            [
              -70.07451,
              -2.7295
            ],
            [
              -70.06036,
              -2.75973
            ],
            [
              -70.07316,
              -2.79018
            ],
            [
              -70.33571,
              -3.19691
            ],
            [
              -70.31889,
              -3.21003
            ],
            [
              -70.24938,
              -3.17827
            ],
            [
              -70.1977,
              -3.19781
            ],
            [
              -70.19124,
              -3.17509
            ],
            [
              -70.1696,
              -3.16859
            ],
            [
              -70.17026,
              -3.18078
            ],
            [
              -70.16341,
              -3.15908
            ],
            [
              -70.14695,
              -3.16355
            ],
            [
              -70.1486,
              -3.14048
            ],
            [
              -70.12293,
              -3.13016
            ],
            [
              -70.1229,
              -3.10776
            ],
            [
              -70.10099,
              -3.08913
            ],
            [
              -70.0635,
              -3.10393
            ],
            [
              -70.0581,
              -3.08709
            ],
            [
              -70.03915,
              -3.0897
            ],
            [
              -70.05754,
              -3.04658
            ],
            [
              -70.02608,
              -3.04466
            ],
            [
              -70.01807,
              -3.03035
            ],
            [
              -69.99483,
              -3.04514
            ],
            [
              -70.00334,
              -3.01671
            ],
            [
              -69.97981,
              -3.00299
            ],
            [
              -69.71422,
              -3.00261
            ],
            [
              -69.53491,
              -2.00259
            ]
          ]
        ]
      },
      "properties": {
        "code": "91798",
        "departmentCode": "91",
        "name": "TARAPACÁ",
        "resultType": "observed",
        "source": "dane-divipola-mgn-2025",
        "year": 2025
      }
    }
  ]
}
