{
  "type": "FeatureCollection",
  "metadata": {
    "source": "DANE DIVIPOLA MGN 2025",
    "downloadedAt": "2026-07-27T05:06:31Z",
    "crs": "EPSG:4326",
    "simplification": "ArcGIS maxAllowableOffset=0.01 grados y geometryPrecision=5; solo visualización web"
  },
  "features": [
    {
      "type": "Feature",
      "id": 2701,
      "geometry": {
        "type": "Polygon",
        "coordinates": [
          [
            [
              -67.67638,
              3.91228
            ],
            [
              -67.69239,
              3.93618
            ],
            [
              -67.7076,
              4.04503
            ],
            [
              -67.81317,
              3.98454
            ],
            [
              -67.87602,
              3.91915
            ],
            [
              -67.91357,
              3.90944
            ],
            [
              -67.93743,
              3.9631
            ],
            [
              -68.02477,
              3.97592
            ],
            [
              -68.03453,
              4.01136
            ],
            [
              -68.07898,
              3.93515
            ],
            [
              -68.07836,
              3.98054
            ],
            [
              -68.0983,
              3.97457
            ],
            [
              -68.11286,
              3.94341
            ],
            [
              -68.1328,
              3.94651
            ],
            [
              -68.11955,
              3.98209
            ],
            [
              -68.13053,
              4.00095
            ],
            [
              -68.17374,
              3.98603
            ],
            [
              -68.20502,
              3.99749
            ],
            [
              -68.20657,
              3.95678
            ],
            [
              -68.34183,
              3.99367
            ],
            [
              -68.35556,
              3.95475
            ],
            [
              -68.34672,
              3.92407
            ],
            [
              -68.38182,
              3.91237
            ],
            [
              -68.42038,
              3.9267
            ],
            [
              -68.43661,
              3.915
            ],
            [
              -68.39304,
              3.87286
            ],
            [
              -68.39328,
              3.85208
            ],
            [
              -68.40928,
              3.84886
            ],
            [
              -68.44676,
              3.88444
            ],
            [
              -68.44449,
              3.83835
            ],
            [
              -68.47624,
              3.85197
            ],
            [
              -68.51297,
              3.82551
            ],
            [
              -68.50819,
              3.77966
            ],
            [
              -68.56209,
              3.81994
            ],
            [
              -68.57272,
              3.80292
            ],
            [
              -68.55013,
              3.76412
            ],
            [
              -68.57602,
              3.79024
            ],
            [
              -68.63187,
              3.77282
            ],
            [
              -68.67402,
              3.81201
            ],
            [
              -68.67951,
              3.79491
            ],
            [
              -68.65006,
              3.77929
            ],
            [
              -68.64809,
              3.76302
            ],
            [
              -68.75255,
              3.78358
            ],
            [
              -68.79503,
              3.72215
            ],
            [
              -68.85098,
              3.74029
            ],
            [
              -68.82904,
              3.68139
            ],
            [
              -68.84027,
              3.62286
            ],
            [
              -68.81396,
              3.6359
            ],
            [
              -68.75109,
              3.60959
            ],
            [
              -68.70876,
              3.55287
            ],
            [
              -68.67474,
              3.53658
            ],
            [
              -68.55018,
              3.54767
            ],
            [
              -68.50551,
              3.53661
            ],
            [
              -68.48382,
              3.51032
            ],
            [
              -68.50908,
              3.44712
            ],
            [
              -68.55994,
              3.44265
            ],
            [
              -68.59509,
              3.4138
            ],
            [
              -68.62864,
              3.41682
            ],
            [
              -68.65592,
              3.38599
            ],
            [
              -68.81007,
              3.34277
            ],
            [
              -68.84667,
              3.29002
            ],
            [
              -68.87078,
              3.27352
            ],
            [
              -68.88284,
              3.28571
            ],
            [
              -68.90936,
              3.27499
            ],
            [
              -68.98568,
              3.20116
            ],
            [
              -69.02039,
              3.20497
            ],
            [
              -69.03872,
              3.1856
            ],
            [
              -69.12503,
              3.21004
            ],
            [
              -69.15803,
              3.1596
            ],
            [
              -69.20302,
              3.12795
            ],
            [
              -69.26829,
              3.1265
            ],
            [
              -69.27901,
              3.09523
            ],
            [
              -69.33227,
              3.05608
            ],
            [
              -69.34752,
              3.01331
            ],
            [
              -69.38017,
              3.03628
            ],
            [
              -69.40471,
              3.0275
            ],
            [
              -69.38776,
              2.99739
            ],
            [
              -69.41753,
              2.92373
            ],
            [
              -69.39793,
              2.90261
            ],
            [
              -69.41814,
              2.86795
            ],
            [
              -69.3566,
              2.80855
            ],
            [
              -69.3607,
              2.7785
            ],
            [
              -69.18766,
              2.36005
            ],
            [
              -69.16796,
              2.4012
            ],
            [
              -69.18083,
              2.4389
            ],
            [
              -69.16393,
              2.47001
            ],
            [
              -69.16895,
              2.49567
            ],
            [
              -69.13545,
              2.51657
            ],
            [
              -69.14128,
              2.54333
            ],
            [
              -69.11132,
              2.60391
            ],
            [
              -69.04302,
              2.5951
            ],
            [
              -69.01671,
              2.63213
            ],
            [
              -68.94806,
              2.64735
            ],
            [
              -68.91297,
              2.68641
            ],
            [
              -68.77668,
              2.74914
            ],
            [
              -68.75847,
              2.78367
            ],
            [
              -68.70349,
              2.79707
            ],
            [
              -68.6704,
              2.84088
            ],
            [
              -68.61099,
              2.85035
            ],
            [
              -68.58161,
              2.88533
            ],
            [
              -68.52157,
              2.90021
            ],
            [
              -68.45563,
              2.97706
            ],
            [
              -68.39964,
              2.9832
            ],
            [
              -68.35943,
              3.03532
            ],
            [
              -68.1738,
              2.98638
            ],
            [
              -68.16185,
              3.08865
            ],
            [
              -68.05759,
              3.0838
            ],
            [
              -68.01147,
              3.05628
            ],
            [
              -67.97566,
              3.09923
            ],
            [
              -67.92163,
              3.10418
            ],
            [
              -67.88556,
              3.13686
            ],
            [
              -67.84504,
              3.1424
            ],
            [
              -67.79998,
              3.1184
            ],
            [
              -67.77874,
              3.14735
            ],
            [
              -67.79593,
              3.18155
            ],
            [
              -67.78689,
              3.22574
            ],
            [
              -67.84085,
              3.25808
            ],
            [
              -67.8573,
              3.3716
            ],
            [
              -67.77591,
              3.44397
            ],
            [
              -67.76656,
              3.47213
            ],
            [
              -67.72318,
              3.48902
            ],
            [
              -67.57638,
              3.59988
            ],
            [
              -67.57179,
              3.61903
            ],
            [
              -67.559,
              3.6152
            ],
            [
              -67.55072,
              3.63606
            ],
            [
              -67.56336,
              3.65086
            ],
            [
              -67.53843,
              3.67428
            ],
            [
              -67.54449,
              3.69506
            ],
            [
              -67.56283,
              3.6968
            ],
            [
              -67.55748,
              3.71571
            ],
            [
              -67.5825,
              3.75276
            ],
            [
              -67.61014,
              3.75387
            ],
            [
              -67.63443,
              3.78555
            ],
            [
              -67.65016,
              3.86893
            ],
            [
              -67.67638,
              3.91228
            ]
          ]
        ]
      },
      "properties": {
        "code": "94001",
        "departmentCode": "94",
        "name": "INÍRIDA",
        "originalCode": "001",
        "originalName": "INÍRIDA",
        "MPIO_TIPO": "MUNICIPIO",
        "type": "MUNICIPIO",
        "unitType": "municipio",
        "MPIO_NAREA": 15891.23252904,
        "MPIO_NANO": 2024,
        "MPIO_CRSLCION": "Decreto 1593 de Agosto 5 de 1974",
        "areaName": 15891.23252904,
        "creationYear": 2024,
        "creationResolution": "Decreto 1593 de Agosto 5 de 1974",
        "resultType": "observed",
        "source": "dane-divipola-mgn-2025",
        "year": 2025
      }
    },
    {
      "type": "Feature",
      "id": 2702,
      "geometry": {
        "type": "Polygon",
        "coordinates": [
          [
            [
              -69.32058,
              3.06895
            ],
            [
              -69.27901,
              3.09523
            ],
            [
              -69.26557,
              3.12817
            ],
            [
              -69.21408,
              3.12362
            ],
            [
              -69.15809,
              3.15955
            ],
            [
              -69.12503,
              3.21004
            ],
            [
              -69.03872,
              3.1856
            ],
            [
              -69.02039,
              3.20497
            ],
            [
              -68.98568,
              3.20116
            ],
            [
              -68.90936,
              3.27499
            ],
            [
              -68.88284,
              3.28571
            ],
            [
              -68.87078,
              3.27352
            ],
            [
              -68.84667,
              3.29002
            ],
            [
              -68.81007,
              3.34277
            ],
            [
              -68.65592,
              3.38599
            ],
            [
              -68.62864,
              3.41682
            ],
            [
              -68.59509,
              3.4138
            ],
            [
              -68.55994,
              3.44265
            ],
            [
              -68.50908,
              3.44712
            ],
            [
              -68.48449,
              3.51238
            ],
            [
              -68.5159,
              3.54246
            ],
            [
              -68.55018,
              3.54767
            ],
            [
              -68.61708,
              3.53253
            ],
            [
              -68.68598,
              3.54066
            ],
            [
              -68.75098,
              3.60953
            ],
            [
              -68.81396,
              3.6359
            ],
            [
              -68.84027,
              3.62286
            ],
            [
              -68.8376,
              3.67062
            ],
            [
              -68.85434,
              3.7026
            ],
            [
              -68.92621,
              3.6872
            ],
            [
              -68.93664,
              3.74227
            ],
            [
              -68.94791,
              3.73307
            ],
            [
              -68.94232,
              3.68246
            ],
            [
              -68.99582,
              3.69185
            ],
            [
              -69.05594,
              3.63866
            ],
            [
              -69.07877,
              3.6559
            ],
            [
              -69.10044,
              3.63807
            ],
            [
              -69.12111,
              3.67604
            ],
            [
              -69.15253,
              3.64262
            ],
            [
              -69.18669,
              3.63392
            ],
            [
              -69.16809,
              3.6719
            ],
            [
              -69.20008,
              3.66949
            ],
            [
              -69.20804,
              3.70198
            ],
            [
              -69.23496,
              3.67401
            ],
            [
              -69.24704,
              3.71476
            ],
            [
              -69.27968,
              3.72629
            ],
            [
              -69.28709,
              3.71325
            ],
            [
              -69.268,
              3.68127
            ],
            [
              -69.29198,
              3.64479
            ],
            [
              -69.30566,
              3.65217
            ],
            [
              -69.28958,
              3.69805
            ],
            [
              -69.30351,
              3.71726
            ],
            [
              -69.36636,
              3.6655
            ],
            [
              -69.38787,
              3.68515
            ],
            [
              -69.40771,
              3.66
            ],
            [
              -69.45475,
              3.70899
            ],
            [
              -69.47845,
              3.69544
            ],
            [
              -69.49288,
              3.65077
            ],
            [
              -69.5043,
              3.67874
            ],
            [
              -69.58903,
              3.68333
            ],
            [
              -69.59495,
              3.67262
            ],
            [
              -69.57055,
              3.66941
            ],
            [
              -69.5926,
              3.56774
            ],
            [
              -69.60888,
              3.59546
            ],
            [
              -69.62904,
              3.56863
            ],
            [
              -69.66314,
              3.58538
            ],
            [
              -69.70064,
              3.53991
            ],
            [
              -69.70982,
              3.57673
            ],
            [
              -69.73992,
              3.59093
            ],
            [
              -69.74235,
              3.57601
            ],
            [
              -69.71373,
              3.54938
            ],
            [
              -69.73401,
              3.54292
            ],
            [
              -69.77734,
              3.56457
            ],
            [
              -69.80192,
              3.50786
            ],
            [
              -69.8154,
              3.51593
            ],
            [
              -69.81711,
              3.55207
            ],
            [
              -69.84389,
              3.54897
            ],
            [
              -69.81721,
              3.47705
            ],
            [
              -69.85159,
              3.49182
            ],
            [
              -69.87245,
              3.53585
            ],
            [
              -69.89356,
              3.53685
            ],
            [
              -69.89554,
              3.51722
            ],
            [
              -69.86168,
              3.47881
            ],
            [
              -69.87173,
              3.43935
            ],
            [
              -69.90253,
              3.4244
            ],
            [
              -69.91497,
              3.447
            ],
            [
              -69.96028,
              3.45692
            ],
            [
              -69.94355,
              3.39475
            ],
            [
              -70.00193,
              3.37272
            ],
            [
              -70.02581,
              3.41762
            ],
            [
              -70.07602,
              3.38737
            ],
            [
              -70.11026,
              3.38499
            ],
            [
              -70.12661,
              3.40081
            ],
            [
              -70.13338,
              3.36514
            ],
            [
              -70.17295,
              3.349
            ],
            [
              -70.10877,
              3.29371
            ],
            [
              -70.11565,
              3.27967
            ],
            [
              -70.13618,
              3.29378
            ],
            [
              -70.15785,
              3.28158
            ],
            [
              -70.15681,
              3.25789
            ],
            [
              -70.13182,
              3.24409
            ],
            [
              -70.12798,
              3.20226
            ],
            [
              -70.14811,
              3.19077
            ],
            [
              -70.15718,
              3.2294
            ],
            [
              -70.17436,
              3.23581
            ],
            [
              -70.16464,
              3.18112
            ],
            [
              -70.19225,
              3.17355
            ],
            [
              -70.21786,
              3.20598
            ],
            [
              -70.20653,
              3.17309
            ],
            [
              -70.2444,
              3.17919
            ],
            [
              -70.28794,
              3.12402
            ],
            [
              -70.27992,
              3.09447
            ],
            [
              -70.31995,
              3.08633
            ],
            [
              -70.31522,
              3.07084
            ],
            [
              -70.27274,
              3.06611
            ],
            [
              -70.25533,
              3.03967
            ],
            [
              -70.30331,
              3.03362
            ],
            [
              -70.27837,
              2.93652
            ],
            [
              -70.35405,
              2.91403
            ],
            [
              -70.3559,
              2.85372
            ],
            [
              -70.49387,
              2.81334
            ],
            [
              -70.49758,
              2.78851
            ],
            [
              -70.9413,
              2.60233
            ],
            [
              -70.91683,
              2.56001
            ],
            [
              -70.85286,
              2.57026
            ],
            [
              -70.82931,
              2.53273
            ],
            [
              -70.79299,
              2.52007
            ],
            [
              -70.7699,
              2.53939
            ],
            [
              -70.75019,
              2.53391
            ],
            [
              -70.7433,
              2.49934
            ],
            [
              -70.67972,
              2.44101
            ],
            [
              -70.68082,
              2.41898
            ],
            [
              -70.63502,
              2.34827
            ],
            [
              -70.58748,
              2.46585
            ],
            [
              -70.60455,
              2.54724
            ],
            [
              -70.59593,
              2.52599
            ],
            [
              -70.51075,
              2.49805
            ],
            [
              -70.49852,
              2.47232
            ],
            [
              -70.42249,
              2.46751
            ],
            [
              -70.43635,
              2.49084
            ],
            [
              -70.42746,
              2.67205
            ],
            [
              -70.38504,
              2.60712
            ],
            [
              -70.31098,
              2.56351
            ],
            [
              -70.23778,
              2.59547
            ],
            [
              -70.15756,
              2.56045
            ],
            [
              -70.12588,
              2.52288
            ],
            [
              -70.04128,
              2.54007
            ],
            [
              -69.99862,
              2.53305
            ],
            [
              -69.99841,
              2.6915
            ],
            [
              -69.95748,
              2.70707
            ],
            [
              -69.87401,
              2.69523
            ],
            [
              -69.82431,
              2.71783
            ],
            [
              -69.74053,
              2.72451
            ],
            [
              -69.77211,
              2.79934
            ],
            [
              -69.71354,
              2.86091
            ],
            [
              -69.65656,
              2.86988
            ],
            [
              -69.57697,
              2.85369
            ],
            [
              -69.53521,
              2.86203
            ],
            [
              -69.51795,
              2.88492
            ],
            [
              -69.46748,
              2.89085
            ],
            [
              -69.41814,
              2.86795
            ],
            [
              -69.39793,
              2.90261
            ],
            [
              -69.41753,
              2.92373
            ],
            [
              -69.38776,
              2.99739
            ],
            [
              -69.40476,
              3.02742
            ],
            [
              -69.38017,
              3.03628
            ],
            [
              -69.34797,
              3.01306
            ],
            [
              -69.32058,
              3.06895
            ]
          ]
        ]
      },
      "properties": {
        "code": "94343",
        "departmentCode": "94",
        "name": "BARRANCOMINAS",
        "originalCode": "343",
        "originalName": "BARRANCOMINAS",
        "MPIO_TIPO": "MUNICIPIO",
        "type": "MUNICIPIO",
        "unitType": "municipio",
        "MPIO_NAREA": 14342.99540854,
        "MPIO_NANO": 2024,
        "MPIO_CRSLCION": "Modificado por la Ordenanza No. 261 de 18 de Marzo de 2020",
        "areaName": 14342.99540854,
        "creationYear": 2024,
        "creationResolution": "Modificado por la Ordenanza No. 261 de 18 de Marzo de 2020",
        "resultType": "observed",
        "source": "dane-divipola-mgn-2025",
        "year": 2025
      }
    },
    {
      "type": "Feature",
      "id": 2703,
      "geometry": {
        "type": "Polygon",
        "coordinates": [
          [
            [
              -67.34976,
              2.50451
            ],
            [
              -67.46704,
              2.46097
            ],
            [
              -67.5311,
              2.46794
            ],
            [
              -67.54896,
              2.43454
            ],
            [
              -67.61303,
              2.47195
            ],
            [
              -67.66564,
              2.46111
            ],
            [
              -67.65332,
              2.41526
            ],
            [
              -67.67521,
              2.39383
            ],
            [
              -67.67447,
              2.3385
            ],
            [
              -67.69908,
              2.3063
            ],
            [
              -67.6324,
              2.26164
            ],
            [
              -67.61654,
              2.22609
            ],
            [
              -67.64305,
              2.18122
            ],
            [
              -67.67717,
              2.00907
            ],
            [
              -67.65835,
              1.99047
            ],
            [
              -67.62475,
              2.04038
            ],
            [
              -67.60166,
              2.04377
            ],
            [
              -67.57394,
              2.10351
            ],
            [
              -67.58656,
              2.12165
            ],
            [
              -67.57295,
              2.16313
            ],
            [
              -67.55091,
              2.14942
            ],
            [
              -67.48459,
              2.1589
            ],
            [
              -67.45038,
              2.16879
            ],
            [
              -67.44249,
              2.20118
            ],
            [
              -67.41646,
              2.19359
            ],
            [
              -67.41517,
              2.22968
            ],
            [
              -67.36857,
              2.21617
            ],
            [
              -67.36166,
              2.17097
            ],
            [
              -67.32726,
              2.15487
            ],
            [
              -67.35846,
              2.11576
            ],
            [
              -67.35851,
              2.09447
            ],
            [
              -67.34167,
              2.08492
            ],
            [
              -67.35836,
              2.04157
            ],
            [
              -67.34148,
              2.02667
            ],
            [
              -67.34728,
              1.98499
            ],
            [
              -67.30311,
              1.90063
            ],
            [
              -67.27547,
              1.92341
            ],
            [
              -67.22023,
              1.91791
            ],
            [
              -67.2085,
              1.85833
            ],
            [
              -67.15658,
              1.82783
            ],
            [
              -67.15955,
              1.79743
            ],
            [
              -67.13394,
              1.79551
            ],
            [
              -67.12756,
              1.77678
            ],
            [
              -67.14903,
              1.73153
            ],
            [
              -67.12892,
              1.68795
            ],
            [
              -67.14314,
              1.60423
            ],
            [
              -67.05891,
              1.65993
            ],
            [
              -66.98771,
              1.66914
            ],
            [
              -66.98545,
              1.68668
            ],
            [
              -67.03307,
              1.78641
            ],
            [
              -67.03539,
              1.84548
            ],
            [
              -67.06997,
              1.93076
            ],
            [
              -67.123,
              1.97689
            ],
            [
              -67.09704,
              2.05241
            ],
            [
              -67.10802,
              2.1193
            ],
            [
              -67.12173,
              2.13699
            ],
            [
              -67.16158,
              2.13284
            ],
            [
              -67.22197,
              2.25425
            ],
            [
              -67.21644,
              2.30531
            ],
            [
              -67.18721,
              2.34897
            ],
            [
              -67.22176,
              2.3986
            ],
            [
              -67.29614,
              2.44099
            ],
            [
              -67.34976,
              2.50451
            ]
          ]
        ]
      },
      "properties": {
        "code": "94883",
        "departmentCode": "94",
        "name": "SAN FELIPE",
        "originalCode": "883",
        "originalName": "SAN FELIPE",
        "MPIO_TIPO": "ÁREA NO MUNICIPALIZADA",
        "type": "ÁREA NO MUNICIPALIZADA",
        "unitType": "área no municipalizada",
        "MPIO_NAREA": 2909.7089526,
        "MPIO_NANO": 2024,
        "MPIO_CRSLCION": "Resolución 83",
        "areaName": 2909.7089526,
        "creationYear": 2024,
        "creationResolution": "Resolución 83",
        "resultType": "observed",
        "source": "dane-divipola-mgn-2025",
        "year": 2025
      }
    },
    {
      "type": "Feature",
      "id": 2704,
      "geometry": {
        "type": "Polygon",
        "coordinates": [
          [
            [
              -67.5385,
              3.17757
            ],
            [
              -67.59659,
              3.14491
            ],
            [
              -67.61503,
              3.15343
            ],
            [
              -67.7376,
              3.1142
            ],
            [
              -67.75526,
              3.13635
            ],
            [
              -67.77381,
              3.13049
            ],
            [
              -67.77144,
              3.1489
            ],
            [
              -67.80196,
              3.11731
            ],
            [
              -67.84453,
              3.14228
            ],
            [
              -67.88011,
              3.13834
            ],
            [
              -67.92163,
              3.10418
            ],
            [
              -67.97566,
              3.09923
            ],
            [
              -68.01132,
              3.0563
            ],
            [
              -68.05759,
              3.0838
            ],
            [
              -68.16169,
              3.0887
            ],
            [
              -68.1738,
              2.98638
            ],
            [
              -68.35933,
              3.03537
            ],
            [
              -68.39964,
              2.9832
            ],
            [
              -68.45563,
              2.97706
            ],
            [
              -68.52157,
              2.90021
            ],
            [
              -68.58161,
              2.88533
            ],
            [
              -68.61099,
              2.85035
            ],
            [
              -68.6704,
              2.84088
            ],
            [
              -68.70349,
              2.79707
            ],
            [
              -68.75847,
              2.78367
            ],
            [
              -68.77668,
              2.74914
            ],
            [
              -68.91297,
              2.68641
            ],
            [
              -68.94806,
              2.64735
            ],
            [
              -69.01671,
              2.63213
            ],
            [
              -69.04302,
              2.5951
            ],
            [
              -69.11132,
              2.60391
            ],
            [
              -69.14128,
              2.54333
            ],
            [
              -69.13545,
              2.51657
            ],
            [
              -69.16895,
              2.49567
            ],
            [
              -69.17876,
              2.35672
            ],
            [
              -69.06351,
              2.32572
            ],
            [
              -69.05229,
              2.35319
            ],
            [
              -69.00681,
              2.35577
            ],
            [
              -69.0092,
              2.38377
            ],
            [
              -68.99139,
              2.37832
            ],
            [
              -68.93795,
              2.41625
            ],
            [
              -68.8968,
              2.4036
            ],
            [
              -68.87906,
              2.4125
            ],
            [
              -68.88414,
              2.42482
            ],
            [
              -68.84203,
              2.42001
            ],
            [
              -68.81842,
              2.39768
            ],
            [
              -68.77624,
              2.43403
            ],
            [
              -68.76093,
              2.40428
            ],
            [
              -68.72163,
              2.42417
            ],
            [
              -68.74313,
              2.37104
            ],
            [
              -68.73566,
              2.33632
            ],
            [
              -68.782,
              2.27332
            ],
            [
              -68.83136,
              2.25991
            ],
            [
              -68.85032,
              2.1279
            ],
            [
              -68.81701,
              2.07492
            ],
            [
              -68.76752,
              2.12246
            ],
            [
              -68.71126,
              2.12196
            ],
            [
              -68.69442,
              2.09041
            ],
            [
              -68.62102,
              2.08646
            ],
            [
              -68.60704,
              2.06752
            ],
            [
              -68.42243,
              2.0774
            ],
            [
              -68.41439,
              2.09768
            ],
            [
              -68.39082,
              2.07882
            ],
            [
              -68.35166,
              2.07877
            ],
            [
              -68.32396,
              2.09531
            ],
            [
              -68.30931,
              2.18008
            ],
            [
              -68.286,
              2.18146
            ],
            [
              -68.24325,
              2.15359
            ],
            [
              -68.22492,
              2.10665
            ],
            [
              -68.25487,
              2.03989
            ],
            [
              -68.23672,
              1.98417
            ],
            [
              -68.21609,
              1.96576
            ],
            [
              -68.1938,
              2.03907
            ],
            [
              -68.18409,
              1.97978
            ],
            [
              -68.16763,
              1.9635
            ],
            [
              -68.13926,
              1.97073
            ],
            [
              -68.09419,
              1.89652
            ],
            [
              -68.06194,
              1.89322
            ],
            [
              -68.03098,
              1.81101
            ],
            [
              -67.99564,
              1.84576
            ],
            [
              -67.90305,
              1.80701
            ],
            [
              -67.9219,
              1.82038
            ],
            [
              -67.92247,
              1.85841
            ],
            [
              -67.90883,
              1.86216
            ],
            [
              -67.92171,
              1.89271
            ],
            [
              -67.87117,
              1.90077
            ],
            [
              -67.8693,
              1.92374
            ],
            [
              -67.83238,
              1.93942
            ],
            [
              -67.80872,
              1.98591
            ],
            [
              -67.78341,
              1.99989
            ],
            [
              -67.7755,
              2.03493
            ],
            [
              -67.74339,
              2.03446
            ],
            [
              -67.73069,
              2.01166
            ],
            [
              -67.69093,
              1.99975
            ],
            [
              -67.66705,
              2.01609
            ],
            [
              -67.64305,
              2.18122
            ],
            [
              -67.61653,
              2.22632
            ],
            [
              -67.6324,
              2.26164
            ],
            [
              -67.69908,
              2.3063
            ],
            [
              -67.67447,
              2.3385
            ],
            [
              -67.67521,
              2.39383
            ],
            [
              -67.65332,
              2.41526
            ],
            [
              -67.66564,
              2.46111
            ],
            [
              -67.61303,
              2.47195
            ],
            [
              -67.55067,
              2.43433
            ],
            [
              -67.5311,
              2.46794
            ],
            [
              -67.46704,
              2.46097
            ],
            [
              -67.38582,
              2.496
            ],
            [
              -67.33645,
              2.50027
            ],
            [
              -67.34463,
              2.52474
            ],
            [
              -67.38325,
              2.54397
            ],
            [
              -67.39209,
              2.5736
            ],
            [
              -67.46763,
              2.61943
            ],
            [
              -67.48674,
              2.66697
            ],
            [
              -67.52319,
              2.67338
            ],
            [
              -67.5631,
              2.65712
            ],
            [
              -67.56383,
              2.72606
            ],
            [
              -67.61704,
              2.8132
            ],
            [
              -67.65835,
              2.79656
            ],
            [
              -67.73557,
              2.81693
            ],
            [
              -67.73992,
              2.8378
            ],
            [
              -67.81089,
              2.83215
            ],
            [
              -67.83795,
              2.7933
            ],
            [
              -67.86411,
              2.78947
            ],
            [
              -67.86283,
              2.86487
            ],
            [
              -67.51641,
              3.17474
            ],
            [
              -67.5385,
              3.17757
            ]
          ]
        ]
      },
      "properties": {
        "code": "94884",
        "departmentCode": "94",
        "name": "PUERTO COLOMBIA",
        "originalCode": "884",
        "originalName": "PUERTO COLOMBIA",
        "MPIO_TIPO": "ÁREA NO MUNICIPALIZADA",
        "type": "ÁREA NO MUNICIPALIZADA",
        "unitType": "área no municipalizada",
        "MPIO_NAREA": 15620.4227989,
        "MPIO_NANO": 2024,
        "MPIO_CRSLCION": "Resolución 83",
        "areaName": 15620.4227989,
        "creationYear": 2024,
        "creationResolution": "Resolución 83",
        "resultType": "observed",
        "source": "dane-divipola-mgn-2025",
        "year": 2025
      }
    },
    {
      "type": "Feature",
      "id": 2705,
      "geometry": {
        "type": "Polygon",
        "coordinates": [
          [
            [
              -66.96243,
              1.66859
            ],
            [
              -66.98545,
              1.68668
            ],
            [
              -66.98771,
              1.66914
            ],
            [
              -67.05891,
              1.65993
            ],
            [
              -67.14314,
              1.60423
            ],
            [
              -67.10084,
              1.58173
            ],
            [
              -67.07485,
              1.37007
            ],
            [
              -67.11206,
              1.33499
            ],
            [
              -67.15141,
              1.34555
            ],
            [
              -67.15615,
              1.31717
            ],
            [
              -67.12665,
              1.27059
            ],
            [
              -67.10061,
              1.2597
            ],
            [
              -67.08212,
              1.2007
            ],
            [
              -67.08919,
              1.16563
            ],
            [
              -66.85055,
              1.2236
            ],
            [
              -66.88121,
              1.2866
            ],
            [
              -66.84846,
              1.31865
            ],
            [
              -66.852,
              1.35618
            ],
            [
              -66.87484,
              1.39809
            ],
            [
              -66.91119,
              1.42348
            ],
            [
              -66.92081,
              1.53105
            ],
            [
              -66.96287,
              1.58964
            ],
            [
              -66.96243,
              1.66859
            ]
          ]
        ]
      },
      "properties": {
        "code": "94885",
        "departmentCode": "94",
        "name": "LA GUADALUPE",
        "originalCode": "885",
        "originalName": "LA GUADALUPE",
        "MPIO_TIPO": "ÁREA NO MUNICIPALIZADA",
        "type": "ÁREA NO MUNICIPALIZADA",
        "unitType": "área no municipalizada",
        "MPIO_NAREA": 1171.89173176,
        "MPIO_NANO": 2024,
        "MPIO_CRSLCION": "Resolución 83",
        "areaName": 1171.89173176,
        "creationYear": 2024,
        "creationResolution": "Resolución 83",
        "resultType": "observed",
        "source": "dane-divipola-mgn-2025",
        "year": 2025
      }
    },
    {
      "type": "Feature",
      "id": 2706,
      "geometry": {
        "type": "Polygon",
        "coordinates": [
          [
            [
              -67.49529,
              3.75681
            ],
            [
              -67.51913,
              3.77524
            ],
            [
              -67.54047,
              3.75652
            ],
            [
              -67.5825,
              3.75276
            ],
            [
              -67.55748,
              3.71571
            ],
            [
              -67.56283,
              3.6968
            ],
            [
              -67.54449,
              3.69506
            ],
            [
              -67.53842,
              3.67473
            ],
            [
              -67.56336,
              3.65086
            ],
            [
              -67.55072,
              3.63606
            ],
            [
              -67.55876,
              3.61547
            ],
            [
              -67.57179,
              3.61903
            ],
            [
              -67.57638,
              3.59988
            ],
            [
              -67.72318,
              3.48902
            ],
            [
              -67.76656,
              3.47213
            ],
            [
              -67.77591,
              3.44397
            ],
            [
              -67.85737,
              3.37142
            ],
            [
              -67.84131,
              3.25906
            ],
            [
              -67.78806,
              3.2288
            ],
            [
              -67.7851,
              3.14925
            ],
            [
              -67.73895,
              3.1143
            ],
            [
              -67.61503,
              3.15343
            ],
            [
              -67.59659,
              3.14491
            ],
            [
              -67.57095,
              3.16596
            ],
            [
              -67.55955,
              3.15716
            ],
            [
              -67.54422,
              3.1794
            ],
            [
              -67.51641,
              3.17474
            ],
            [
              -67.43485,
              3.24847
            ],
            [
              -67.38118,
              3.24842
            ],
            [
              -67.3816,
              3.29258
            ],
            [
              -67.31146,
              3.37521
            ],
            [
              -67.33915,
              3.45102
            ],
            [
              -67.40147,
              3.48
            ],
            [
              -67.41204,
              3.53888
            ],
            [
              -67.44407,
              3.58524
            ],
            [
              -67.44796,
              3.67648
            ],
            [
              -67.47921,
              3.70475
            ],
            [
              -67.49529,
              3.75681
            ]
          ]
        ]
      },
      "properties": {
        "code": "94886",
        "departmentCode": "94",
        "name": "CACAHUAL",
        "originalCode": "886",
        "originalName": "CACAHUAL",
        "MPIO_TIPO": "ÁREA NO MUNICIPALIZADA",
        "type": "ÁREA NO MUNICIPALIZADA",
        "unitType": "área no municipalizada",
        "MPIO_NAREA": 2322.43228063,
        "MPIO_NANO": 2024,
        "MPIO_CRSLCION": "Resolución 83",
        "areaName": 2322.43228063,
        "creationYear": 2024,
        "creationResolution": "Resolución 83",
        "resultType": "observed",
        "source": "dane-divipola-mgn-2025",
        "year": 2025
      }
    },
    {
      "type": "Feature",
      "id": 2707,
      "geometry": {
        "type": "Polygon",
        "coordinates": [
          [
            [
              -68.77132,
              2.42182
            ],
            [
              -68.77492,
              2.43403
            ],
            [
              -68.79856,
              2.4255
            ],
            [
              -68.81842,
              2.39768
            ],
            [
              -68.84203,
              2.42001
            ],
            [
              -68.88414,
              2.42482
            ],
            [
              -68.87906,
              2.4125
            ],
            [
              -68.8968,
              2.4036
            ],
            [
              -68.93795,
              2.41625
            ],
            [
              -68.99139,
              2.37832
            ],
            [
              -69.0092,
              2.38377
            ],
            [
              -69.00681,
              2.35577
            ],
            [
              -69.05229,
              2.35319
            ],
            [
              -69.06351,
              2.32572
            ],
            [
              -69.16674,
              2.34512
            ],
            [
              -69.20886,
              2.37346
            ],
            [
              -69.21803,
              2.35396
            ],
            [
              -69.25815,
              2.35256
            ],
            [
              -69.29688,
              2.31918
            ],
            [
              -69.34864,
              2.30222
            ],
            [
              -69.38475,
              2.31283
            ],
            [
              -69.38831,
              2.33841
            ],
            [
              -69.4051,
              2.33442
            ],
            [
              -69.42159,
              2.35631
            ],
            [
              -69.49337,
              2.32389
            ],
            [
              -69.48868,
              2.28833
            ],
            [
              -69.51416,
              2.24268
            ],
            [
              -69.50968,
              2.21903
            ],
            [
              -69.53263,
              2.20913
            ],
            [
              -69.54002,
              2.17484
            ],
            [
              -69.59529,
              2.1219
            ],
            [
              -69.61187,
              2.08331
            ],
            [
              -69.64934,
              2.0641
            ],
            [
              -69.68276,
              1.9917
            ],
            [
              -69.79563,
              1.97264
            ],
            [
              -69.91337,
              1.99372
            ],
            [
              -69.9366,
              2.01372
            ],
            [
              -69.99271,
              2.0071
            ],
            [
              -70.062,
              1.98308
            ],
            [
              -70.08894,
              1.92276
            ],
            [
              -70.16332,
              1.92001
            ],
            [
              -70.1802,
              1.88167
            ],
            [
              -70.0465,
              1.7722
            ],
            [
              -69.97502,
              1.74323
            ],
            [
              -69.90277,
              1.74525
            ],
            [
              -69.85901,
              1.7093
            ],
            [
              -69.83957,
              1.71889
            ],
            [
              -69.82212,
              1.69908
            ],
            [
              -69.78273,
              1.69274
            ],
            [
              -69.72115,
              1.73516
            ],
            [
              -69.629,
              1.72338
            ],
            [
              -69.54724,
              1.77679
            ],
            [
              -69.39327,
              1.72675
            ],
            [
              -68.16329,
              1.72779
            ],
            [
              -68.16958,
              1.74331
            ],
            [
              -68.19303,
              1.73776
            ],
            [
              -68.17754,
              1.76571
            ],
            [
              -68.19215,
              1.77998
            ],
            [
              -68.23979,
              1.77113
            ],
            [
              -68.22664,
              1.82932
            ],
            [
              -68.2746,
              1.81912
            ],
            [
              -68.28519,
              1.82933
            ],
            [
              -68.21678,
              1.96507
            ],
            [
              -68.25512,
              2.02233
            ],
            [
              -68.22492,
              2.10665
            ],
            [
              -68.24325,
              2.15359
            ],
            [
              -68.27061,
              2.17682
            ],
            [
              -68.30931,
              2.18008
            ],
            [
              -68.32396,
              2.09531
            ],
            [
              -68.35166,
              2.07877
            ],
            [
              -68.39082,
              2.07882
            ],
            [
              -68.41439,
              2.09768
            ],
            [
              -68.42243,
              2.0774
            ],
            [
              -68.60704,
              2.06752
            ],
            [
              -68.62102,
              2.08646
            ],
            [
              -68.69442,
              2.09041
            ],
            [
              -68.722,
              2.1225
            ],
            [
              -68.78504,
              2.11528
            ],
            [
              -68.81167,
              2.07559
            ],
            [
              -68.82366,
              2.08041
            ],
            [
              -68.85032,
              2.1279
            ],
            [
              -68.83136,
              2.25991
            ],
            [
              -68.79073,
              2.26801
            ],
            [
              -68.76148,
              2.29894
            ],
            [
              -68.73566,
              2.33632
            ],
            [
              -68.74307,
              2.37138
            ],
            [
              -68.71662,
              2.41174
            ],
            [
              -68.72766,
              2.42452
            ],
            [
              -68.76093,
              2.40428
            ],
            [
              -68.77132,
              2.42182
            ]
          ]
        ]
      },
      "properties": {
        "code": "94887",
        "departmentCode": "94",
        "name": "PANA PANA",
        "originalCode": "887",
        "originalName": "PANA PANA",
        "MPIO_TIPO": "ÁREA NO MUNICIPALIZADA",
        "type": "ÁREA NO MUNICIPALIZADA",
        "unitType": "área no municipalizada",
        "MPIO_NAREA": 10180.94665364,
        "MPIO_NANO": 2024,
        "MPIO_CRSLCION": "Resolución 83 de 1988",
        "areaName": 10180.94665364,
        "creationYear": 2024,
        "creationResolution": "Resolución 83 de 1988",
        "resultType": "observed",
        "source": "dane-divipola-mgn-2025",
        "year": 2025
      }
    },
    {
      "type": "Feature",
      "id": 2708,
      "geometry": {
        "type": "Polygon",
        "coordinates": [
          [
            [
              -69.46493,
              2.88961
            ],
            [
              -69.5179,
              2.88493
            ],
            [
              -69.53521,
              2.86203
            ],
            [
              -69.57697,
              2.85369
            ],
            [
              -69.65656,
              2.86988
            ],
            [
              -69.71363,
              2.86088
            ],
            [
              -69.77211,
              2.79934
            ],
            [
              -69.74053,
              2.72451
            ],
            [
              -69.82431,
              2.71783
            ],
            [
              -69.87401,
              2.69523
            ],
            [
              -69.95748,
              2.70707
            ],
            [
              -69.99841,
              2.6915
            ],
            [
              -70.00484,
              2.53126
            ],
            [
              -70.04128,
              2.54007
            ],
            [
              -70.12588,
              2.52288
            ],
            [
              -70.15756,
              2.56045
            ],
            [
              -70.23778,
              2.59547
            ],
            [
              -70.31098,
              2.56351
            ],
            [
              -70.38504,
              2.60712
            ],
            [
              -70.42746,
              2.67205
            ],
            [
              -70.43635,
              2.49084
            ],
            [
              -70.42249,
              2.46751
            ],
            [
              -70.49852,
              2.47232
            ],
            [
              -70.51075,
              2.49805
            ],
            [
              -70.59593,
              2.52599
            ],
            [
              -70.60455,
              2.54724
            ],
            [
              -70.58748,
              2.46585
            ],
            [
              -70.61539,
              2.37852
            ],
            [
              -70.63625,
              2.35724
            ],
            [
              -70.6343,
              2.32143
            ],
            [
              -70.53073,
              2.26844
            ],
            [
              -70.51102,
              2.28279
            ],
            [
              -70.48858,
              2.25286
            ],
            [
              -70.51118,
              2.25947
            ],
            [
              -70.51433,
              2.24509
            ],
            [
              -70.49681,
              2.23374
            ],
            [
              -70.47312,
              2.24366
            ],
            [
              -70.46472,
              2.23342
            ],
            [
              -70.45817,
              2.25735
            ],
            [
              -70.42078,
              2.26863
            ],
            [
              -70.40793,
              2.25523
            ],
            [
              -70.39896,
              2.26778
            ],
            [
              -70.3659,
              2.23548
            ],
            [
              -70.34204,
              2.24785
            ],
            [
              -70.31412,
              2.20811
            ],
            [
              -70.29282,
              2.22853
            ],
            [
              -70.30549,
              2.25292
            ],
            [
              -70.27356,
              2.23741
            ],
            [
              -70.24349,
              2.26534
            ],
            [
              -70.2473,
              2.24327
            ],
            [
              -70.19443,
              2.22977
            ],
            [
              -70.18272,
              2.24011
            ],
            [
              -70.1914,
              2.25255
            ],
            [
              -70.17449,
              2.23743
            ],
            [
              -70.15677,
              2.2399
            ],
            [
              -70.15968,
              2.26506
            ],
            [
              -70.14171,
              2.25123
            ],
            [
              -70.14671,
              2.27771
            ],
            [
              -70.08515,
              2.26319
            ],
            [
              -70.06925,
              2.29399
            ],
            [
              -70.04521,
              2.29305
            ],
            [
              -70.05313,
              2.27805
            ],
            [
              -70.02638,
              2.2724
            ],
            [
              -70.02411,
              2.23535
            ],
            [
              -69.99601,
              2.22444
            ],
            [
              -69.99618,
              2.2048
            ],
            [
              -70.00623,
              2.20725
            ],
            [
              -70.00665,
              2.18209
            ],
            [
              -70.03624,
              2.18195
            ],
            [
              -70.03357,
              2.15852
            ],
            [
              -70.05526,
              2.1619
            ],
            [
              -70.05835,
              2.14572
            ],
            [
              -70.11902,
              2.11089
            ],
            [
              -70.10382,
              2.09446
            ],
            [
              -70.12076,
              2.04949
            ],
            [
              -70.1115,
              2.00297
            ],
            [
              -70.14069,
              1.97984
            ],
            [
              -70.16332,
              1.92001
            ],
            [
              -70.08894,
              1.92276
            ],
            [
              -70.062,
              1.98308
            ],
            [
              -69.99256,
              2.00712
            ],
            [
              -69.9366,
              2.01372
            ],
            [
              -69.91337,
              1.99372
            ],
            [
              -69.79563,
              1.97264
            ],
            [
              -69.68292,
              1.99161
            ],
            [
              -69.64934,
              2.0641
            ],
            [
              -69.61187,
              2.08331
            ],
            [
              -69.59529,
              2.1219
            ],
            [
              -69.54002,
              2.17484
            ],
            [
              -69.53263,
              2.20913
            ],
            [
              -69.50968,
              2.21903
            ],
            [
              -69.48957,
              2.32766
            ],
            [
              -69.462,
              2.32804
            ],
            [
              -69.42137,
              2.35639
            ],
            [
              -69.4051,
              2.33442
            ],
            [
              -69.38831,
              2.33841
            ],
            [
              -69.38475,
              2.31283
            ],
            [
              -69.34864,
              2.30222
            ],
            [
              -69.29688,
              2.31918
            ],
            [
              -69.25815,
              2.35256
            ],
            [
              -69.21803,
              2.35396
            ],
            [
              -69.20935,
              2.37341
            ],
            [
              -69.18751,
              2.36383
            ],
            [
              -69.3607,
              2.7785
            ],
            [
              -69.35666,
              2.80869
            ],
            [
              -69.42443,
              2.87637
            ],
            [
              -69.46493,
              2.88961
            ]
          ]
        ]
      },
      "properties": {
        "code": "94888",
        "departmentCode": "94",
        "name": "MORICHAL",
        "originalCode": "888",
        "originalName": "MORICHAL",
        "MPIO_TIPO": "ÁREA NO MUNICIPALIZADA",
        "type": "ÁREA NO MUNICIPALIZADA",
        "unitType": "área no municipalizada",
        "MPIO_NAREA": 8513.7919055,
        "MPIO_NANO": 2024,
        "MPIO_CRSLCION": "1988",
        "areaName": 8513.7919055,
        "creationYear": 2024,
        "creationResolution": "1988",
        "resultType": "observed",
        "source": "dane-divipola-mgn-2025",
        "year": 2025
      }
    }
  ]
}
