{
  "type": "FeatureCollection",
  "metadata": {
    "source": "DANE DIVIPOLA MGN 2025",
    "downloadedAt": "2026-07-27T05:06:31Z",
    "crs": "EPSG:4326",
    "simplification": "ArcGIS maxAllowableOffset=0.01 grados y geometryPrecision=5; solo visualización web"
  },
  "features": [
    {
      "type": "Feature",
      "id": 2709,
      "geometry": {
        "type": "Polygon",
        "coordinates": [
          [
            [
              -71.31266,
              2.92463
            ],
            [
              -71.33082,
              2.92131
            ],
            [
              -71.34771,
              2.85823
            ],
            [
              -71.36163,
              2.89053
            ],
            [
              -71.38267,
              2.88749
            ],
            [
              -71.39124,
              2.84391
            ],
            [
              -71.46338,
              2.89928
            ],
            [
              -71.4703,
              2.8531
            ],
            [
              -71.52067,
              2.879
            ],
            [
              -71.54509,
              2.85911
            ],
            [
              -71.58325,
              2.87229
            ],
            [
              -71.57517,
              2.84427
            ],
            [
              -71.61059,
              2.84632
            ],
            [
              -71.65221,
              2.82019
            ],
            [
              -71.6739,
              2.82578
            ],
            [
              -71.66201,
              2.87273
            ],
            [
              -71.6815,
              2.87169
            ],
            [
              -71.69707,
              2.83811
            ],
            [
              -71.76186,
              2.8973
            ],
            [
              -71.75801,
              2.85297
            ],
            [
              -71.78004,
              2.81783
            ],
            [
              -71.78844,
              2.8695
            ],
            [
              -71.82061,
              2.87912
            ],
            [
              -71.85086,
              2.8716
            ],
            [
              -71.82315,
              2.87002
            ],
            [
              -71.82791,
              2.83747
            ],
            [
              -71.95394,
              2.83174
            ],
            [
              -71.98192,
              2.80119
            ],
            [
              -72.00486,
              2.82935
            ],
            [
              -72.05162,
              2.81668
            ],
            [
              -72.08213,
              2.82585
            ],
            [
              -72.13485,
              2.88904
            ],
            [
              -72.14396,
              2.86474
            ],
            [
              -72.18282,
              2.87522
            ],
            [
              -72.20271,
              2.86405
            ],
            [
              -72.20581,
              2.81483
            ],
            [
              -72.18404,
              2.79033
            ],
            [
              -72.19286,
              2.77235
            ],
            [
              -72.21512,
              2.77566
            ],
            [
              -72.25949,
              2.8247
            ],
            [
              -72.27995,
              2.77578
            ],
            [
              -72.29497,
              2.77405
            ],
            [
              -72.31302,
              2.79912
            ],
            [
              -72.33551,
              2.79675
            ],
            [
              -72.40665,
              2.726
            ],
            [
              -72.43464,
              2.73999
            ],
            [
              -72.47059,
              2.73383
            ],
            [
              -72.47221,
              2.68935
            ],
            [
              -72.53631,
              2.70272
            ],
            [
              -72.53725,
              2.68282
            ],
            [
              -72.57142,
              2.67412
            ],
            [
              -72.55583,
              2.6499
            ],
            [
              -72.58672,
              2.63932
            ],
            [
              -72.58641,
              2.58367
            ],
            [
              -72.62087,
              2.62736
            ],
            [
              -72.65296,
              2.57154
            ],
            [
              -72.67942,
              2.62218
            ],
            [
              -72.70216,
              2.61782
            ],
            [
              -72.73967,
              2.56991
            ],
            [
              -72.81821,
              2.61397
            ],
            [
              -72.92032,
              2.56246
            ],
            [
              -72.92103,
              2.53438
            ],
            [
              -72.95834,
              2.50851
            ],
            [
              -72.95423,
              2.49486
            ],
            [
              -72.93273,
              2.49698
            ],
            [
              -72.9348,
              2.46414
            ],
            [
              -72.96255,
              2.48017
            ],
            [
              -72.96577,
              2.44844
            ],
            [
              -72.9861,
              2.4519
            ],
            [
              -73.03279,
              2.41257
            ],
            [
              -73.04523,
              2.43792
            ],
            [
              -73.11055,
              2.381
            ],
            [
              -73.12778,
              2.41098
            ],
            [
              -73.14127,
              2.39712
            ],
            [
              -73.12407,
              2.37882
            ],
            [
              -73.1635,
              2.36539
            ],
            [
              -73.16573,
              2.39941
            ],
            [
              -73.2016,
              2.38247
            ],
            [
              -73.21769,
              2.38636
            ],
            [
              -73.21652,
              2.40547
            ],
            [
              -73.22595,
              2.38891
            ],
            [
              -73.26787,
              2.38087
            ],
            [
              -73.24115,
              2.37134
            ],
            [
              -73.24247,
              2.34733
            ],
            [
              -73.26743,
              2.35877
            ],
            [
              -73.30065,
              2.33599
            ],
            [
              -73.33041,
              2.36036
            ],
            [
              -73.33317,
              2.33335
            ],
            [
              -73.35671,
              2.3241
            ],
            [
              -73.34515,
              2.35376
            ],
            [
              -73.36014,
              2.36831
            ],
            [
              -73.38638,
              2.32396
            ],
            [
              -73.38926,
              2.34993
            ],
            [
              -73.41162,
              2.35694
            ],
            [
              -73.43796,
              2.32764
            ],
            [
              -73.44178,
              2.38616
            ],
            [
              -73.45568,
              2.38238
            ],
            [
              -73.4503,
              2.33973
            ],
            [
              -73.47404,
              2.36176
            ],
            [
              -73.50586,
              2.35644
            ],
            [
              -73.51228,
              2.33294
            ],
            [
              -73.52617,
              2.38648
            ],
            [
              -73.57331,
              2.35484
            ],
            [
              -73.58904,
              2.39007
            ],
            [
              -73.63236,
              2.36244
            ],
            [
              -73.61385,
              2.34114
            ],
            [
              -73.63504,
              2.3257
            ],
            [
              -73.63341,
              2.28826
            ],
            [
              -73.65693,
              2.29447
            ],
            [
              -73.65683,
              2.06363
            ],
            [
              -73.56586,
              2.06486
            ],
            [
              -73.55909,
              2.04471
            ],
            [
              -73.52286,
              2.04041
            ],
            [
              -73.50583,
              2.01221
            ],
            [
              -73.50394,
              2.03609
            ],
            [
              -73.44276,
              2.07021
            ],
            [
              -73.32107,
              2.05974
            ],
            [
              -73.28655,
              2.02333
            ],
            [
              -73.2324,
              2.04938
            ],
            [
              -73.18462,
              2.04831
            ],
            [
              -73.16317,
              2.07705
            ],
            [
              -73.14968,
              2.06934
            ],
            [
              -73.1527,
              2.04368
            ],
            [
              -73.11083,
              2.02244
            ],
            [
              -73.01551,
              2.09047
            ],
            [
              -73.02276,
              2.11611
            ],
            [
              -72.94782,
              2.25186
            ],
            [
              -72.89892,
              2.25994
            ],
            [
              -72.8787,
              2.28642
            ],
            [
              -72.81251,
              2.26987
            ],
            [
              -72.7441,
              2.43148
            ],
            [
              -72.63117,
              2.42502
            ],
            [
              -72.56554,
              2.40272
            ],
            [
              -72.56063,
              2.41525
            ],
            [
              -72.53394,
              2.41104
            ],
            [
              -72.47265,
              2.3728
            ],
            [
              -72.20844,
              2.36822
            ],
            [
              -72.20459,
              2.35086
            ],
            [
              -72.18258,
              2.35565
            ],
            [
              -72.16217,
              2.33873
            ],
            [
              -72.10226,
              2.3454
            ],
            [
              -72.07678,
              2.33685
            ],
            [
              -72.05474,
              2.28299
            ],
            [
              -72.04164,
              2.28816
            ],
            [
              -72.05369,
              2.29707
            ],
            [
              -72.02512,
              2.30359
            ],
            [
              -72.01676,
              2.28203
            ],
            [
              -71.97977,
              2.27121
            ],
            [
              -71.93982,
              2.21525
            ],
            [
              -71.90408,
              2.20258
            ],
            [
              -71.8798,
              2.22018
            ],
            [
              -71.86157,
              2.19603
            ],
            [
              -71.87657,
              2.23007
            ],
            [
              -71.85923,
              2.24263
            ],
            [
              -71.8351,
              2.22921
            ],
            [
              -71.82634,
              2.24212
            ],
            [
              -71.85081,
              2.27959
            ],
            [
              -71.81833,
              2.25696
            ],
            [
              -71.79083,
              2.28033
            ],
            [
              -71.79997,
              2.30518
            ],
            [
              -71.78889,
              2.31203
            ],
            [
              -71.77877,
              2.27295
            ],
            [
              -71.74032,
              2.25957
            ],
            [
              -71.72164,
              2.23489
            ],
            [
              -71.65818,
              2.23868
            ],
            [
              -71.63863,
              2.18363
            ],
            [
              -71.60979,
              2.19582
            ],
            [
              -71.61372,
              2.16586
            ],
            [
              -71.60141,
              2.15938
            ],
            [
              -71.61477,
              2.15301
            ],
            [
              -71.59774,
              2.14165
            ],
            [
              -71.58984,
              2.15199
            ],
            [
              -71.55182,
              2.11799
            ],
            [
              -71.54217,
              2.13664
            ],
            [
              -71.56442,
              2.15657
            ],
            [
              -71.54085,
              2.1431
            ],
            [
              -71.53084,
              2.15443
            ],
            [
              -71.54618,
              2.22387
            ],
            [
              -71.41809,
              2.22396
            ],
            [
              -71.39612,
              2.27205
            ],
            [
              -71.35021,
              2.29466
            ],
            [
              -71.34147,
              2.26846
            ],
            [
              -71.32359,
              2.31719
            ],
            [
              -71.28696,
              2.3181
            ],
            [
              -71.24947,
              2.34435
            ],
            [
              -71.23209,
              2.32447
            ],
            [
              -71.26275,
              2.28006
            ],
            [
              -71.233,
              2.24384
            ],
            [
              -71.25347,
              2.22541
            ],
            [
              -71.23154,
              2.20407
            ],
            [
              -71.23236,
              2.17609
            ],
            [
              -71.21889,
              2.21477
            ],
            [
              -71.17294,
              2.19065
            ],
            [
              -71.19428,
              2.19061
            ],
            [
              -71.19387,
              2.1775
            ],
            [
              -71.16793,
              2.1755
            ],
            [
              -71.16707,
              2.23169
            ],
            [
              -71.13622,
              2.20935
            ],
            [
              -71.098,
              2.22009
            ],
            [
              -71.08717,
              2.20175
            ],
            [
              -71.08294,
              2.21649
            ],
            [
              -71.07848,
              2.16244
            ],
            [
              -71.04611,
              2.19519
            ],
            [
              -71.02161,
              2.16996
            ],
            [
              -71.01149,
              2.18568
            ],
            [
              -71.04305,
              2.21547
            ],
            [
              -71.00949,
              2.23794
            ],
            [
              -71.01514,
              2.21688
            ],
            [
              -70.94572,
              2.21488
            ],
            [
              -70.93188,
              2.18745
            ],
            [
              -70.90353,
              2.19204
            ],
            [
              -70.90077,
              2.17114
            ],
            [
              -70.89377,
              2.18765
            ],
            [
              -70.87414,
              2.15055
            ],
            [
              -70.87248,
              2.16934
            ],
            [
              -70.84623,
              2.17584
            ],
            [
              -70.84834,
              2.20262
            ],
            [
              -70.82137,
              2.20962
            ],
            [
              -70.8273,
              2.18405
            ],
            [
              -70.80514,
              2.18804
            ],
            [
              -70.80764,
              2.20399
            ],
            [
              -70.78095,
              2.1897
            ],
            [
              -70.76393,
              2.20498
            ],
            [
              -70.73974,
              2.1948
            ],
            [
              -70.72196,
              2.21499
            ],
            [
              -70.73045,
              2.23274
            ],
            [
              -70.7118,
              2.21404
            ],
            [
              -70.68908,
              2.23499
            ],
            [
              -70.69768,
              2.24655
            ],
            [
              -70.67119,
              2.25854
            ],
            [
              -70.64283,
              2.24225
            ],
            [
              -70.66761,
              2.23918
            ],
            [
              -70.65347,
              2.22728
            ],
            [
              -70.59755,
              2.24602
            ],
            [
              -70.60117,
              2.26869
            ],
            [
              -70.58649,
              2.27617
            ],
            [
              -70.54936,
              2.24357
            ],
            [
              -70.54742,
              2.28638
            ],
            [
              -70.63016,
              2.31314
            ],
            [
              -70.67972,
              2.44101
            ],
            [
              -70.73319,
              2.48501
            ],
            [
              -70.75019,
              2.53391
            ],
            [
              -70.7699,
              2.53939
            ],
            [
              -70.79299,
              2.52007
            ],
            [
              -70.82931,
              2.53273
            ],
            [
              -70.85286,
              2.57026
            ],
            [
              -70.91683,
              2.56001
            ],
            [
              -70.94249,
              2.60666
            ],
            [
              -70.50115,
              2.78799
            ],
            [
              -70.58733,
              2.84051
            ],
            [
              -70.62033,
              2.79255
            ],
            [
              -70.63541,
              2.84877
            ],
            [
              -70.66005,
              2.85741
            ],
            [
              -70.64041,
              2.80264
            ],
            [
              -70.68172,
              2.77778
            ],
            [
              -70.70917,
              2.73711
            ],
            [
              -70.72478,
              2.79516
            ],
            [
              -70.75442,
              2.77022
            ],
            [
              -70.81134,
              2.76001
            ],
            [
              -70.79639,
              2.79445
            ],
            [
              -70.82157,
              2.81307
            ],
            [
              -70.87143,
              2.77781
            ],
            [
              -70.85417,
              2.82316
            ],
            [
              -70.87611,
              2.84738
            ],
            [
              -70.87104,
              2.79932
            ],
            [
              -70.88367,
              2.79258
            ],
            [
              -70.91134,
              2.84988
            ],
            [
              -70.93805,
              2.85731
            ],
            [
              -70.92515,
              2.81541
            ],
            [
              -70.94655,
              2.78557
            ],
            [
              -70.962,
              2.80049
            ],
            [
              -70.94793,
              2.81796
            ],
            [
              -70.95457,
              2.84214
            ],
            [
              -70.98849,
              2.82913
            ],
            [
              -71.01059,
              2.85681
            ],
            [
              -71.05806,
              2.85283
            ],
            [
              -71.07584,
              2.88219
            ],
            [
              -71.11583,
              2.87515
            ],
            [
              -71.1372,
              2.90395
            ],
            [
              -71.15145,
              2.87216
            ],
            [
              -71.18351,
              2.90484
            ],
            [
              -71.22179,
              2.86559
            ],
            [
              -71.24717,
              2.86275
            ],
            [
              -71.25964,
              2.88618
            ],
            [
              -71.28368,
              2.86782
            ],
            [
              -71.29956,
              2.87558
            ],
            [
              -71.31266,
              2.92463
            ]
          ]
        ]
      },
      "properties": {
        "code": "95001",
        "departmentCode": "95",
        "name": "SAN JOSÉ DEL GUAVIARE",
        "originalCode": "001",
        "originalName": "SAN JOSÉ DEL GUAVIARE",
        "MPIO_TIPO": "MUNICIPIO",
        "type": "MUNICIPIO",
        "unitType": "municipio",
        "MPIO_NAREA": 16712.39397507,
        "MPIO_NANO": 2024,
        "MPIO_CRSLCION": "Decreto Nal 1165 del 7 de Junio de 1976",
        "areaName": 16712.39397507,
        "creationYear": 2024,
        "creationResolution": "Decreto Nal 1165 del 7 de Junio de 1976",
        "resultType": "observed",
        "source": "dane-divipola-mgn-2025",
        "year": 2025
      }
    },
    {
      "type": "Feature",
      "id": 2710,
      "geometry": {
        "type": "Polygon",
        "coordinates": [
          [
            [
              -72.75461,
              2.07947
            ],
            [
              -72.80426,
              2.17829
            ],
            [
              -72.8596,
              2.19157
            ],
            [
              -72.89554,
              2.168
            ],
            [
              -72.98019,
              2.17284
            ],
            [
              -73.02276,
              2.11611
            ],
            [
              -73.01663,
              2.08918
            ],
            [
              -73.11083,
              2.02244
            ],
            [
              -73.1527,
              2.04368
            ],
            [
              -73.14968,
              2.06934
            ],
            [
              -73.16317,
              2.07705
            ],
            [
              -73.18462,
              2.04831
            ],
            [
              -73.2324,
              2.04938
            ],
            [
              -73.28655,
              2.02333
            ],
            [
              -73.32107,
              2.05974
            ],
            [
              -73.44276,
              2.07021
            ],
            [
              -73.50394,
              2.03609
            ],
            [
              -73.50583,
              2.01221
            ],
            [
              -73.52286,
              2.04041
            ],
            [
              -73.55909,
              2.04471
            ],
            [
              -73.56586,
              2.06486
            ],
            [
              -73.65683,
              2.06363
            ],
            [
              -73.65835,
              1.57635
            ],
            [
              -73.54726,
              1.43802
            ],
            [
              -73.53512,
              1.38991
            ],
            [
              -73.48297,
              1.37031
            ],
            [
              -73.45613,
              1.29463
            ],
            [
              -73.42825,
              1.29594
            ],
            [
              -73.43187,
              1.25892
            ],
            [
              -73.40874,
              1.24144
            ],
            [
              -73.42417,
              1.22354
            ],
            [
              -73.40727,
              1.20575
            ],
            [
              -73.42107,
              1.19091
            ],
            [
              -73.39299,
              1.17194
            ],
            [
              -73.39302,
              1.14735
            ],
            [
              -73.34357,
              1.1234
            ],
            [
              -73.34054,
              1.09918
            ],
            [
              -73.28201,
              1.0668
            ],
            [
              -73.27885,
              1.04729
            ],
            [
              -73.25156,
              1.04876
            ],
            [
              -73.2349,
              1.0087
            ],
            [
              -73.17857,
              1.00016
            ],
            [
              -73.17292,
              0.98151
            ],
            [
              -73.1895,
              0.96699
            ],
            [
              -73.16425,
              0.94037
            ],
            [
              -73.14695,
              0.94333
            ],
            [
              -73.14452,
              0.91993
            ],
            [
              -73.10928,
              0.924
            ],
            [
              -73.07753,
              0.89445
            ],
            [
              -73.0516,
              0.91186
            ],
            [
              -73.03827,
              0.90242
            ],
            [
              -73.02658,
              0.9215
            ],
            [
              -73.00973,
              0.91054
            ],
            [
              -73.00621,
              0.93329
            ],
            [
              -72.98787,
              0.9281
            ],
            [
              -72.99665,
              0.95171
            ],
            [
              -72.94031,
              0.97999
            ],
            [
              -72.9325,
              1.01515
            ],
            [
              -72.86719,
              1.02446
            ],
            [
              -72.86515,
              1.04171
            ],
            [
              -72.87934,
              1.04617
            ],
            [
              -72.85802,
              1.04224
            ],
            [
              -72.86083,
              1.07192
            ],
            [
              -72.88335,
              1.07003
            ],
            [
              -72.86912,
              1.08654
            ],
            [
              -72.8837,
              1.09862
            ],
            [
              -72.85005,
              1.10467
            ],
            [
              -72.87207,
              1.13541
            ],
            [
              -72.8498,
              1.1431
            ],
            [
              -72.85925,
              1.16478
            ],
            [
              -72.82689,
              1.1489
            ],
            [
              -72.82391,
              1.17823
            ],
            [
              -72.77283,
              1.18252
            ],
            [
              -72.7788,
              1.15034
            ],
            [
              -72.76447,
              1.1326
            ],
            [
              -72.72329,
              1.14893
            ],
            [
              -72.72807,
              1.18283
            ],
            [
              -72.5766,
              1.48633
            ],
            [
              -72.5635,
              1.46367
            ],
            [
              -72.54576,
              1.46847
            ],
            [
              -72.51765,
              1.44062
            ],
            [
              -72.47532,
              1.43994
            ],
            [
              -72.45911,
              1.42507
            ],
            [
              -72.43984,
              1.44371
            ],
            [
              -72.39019,
              1.44553
            ],
            [
              -72.39379,
              1.4667
            ],
            [
              -72.37691,
              1.46222
            ],
            [
              -72.3871,
              1.47097
            ],
            [
              -72.37691,
              1.4685
            ],
            [
              -72.3677,
              1.50801
            ],
            [
              -72.33519,
              1.50479
            ],
            [
              -72.33679,
              1.52794
            ],
            [
              -72.30455,
              1.52514
            ],
            [
              -72.29165,
              1.54097
            ],
            [
              -72.31373,
              1.56002
            ],
            [
              -72.31182,
              1.5964
            ],
            [
              -72.36327,
              1.59015
            ],
            [
              -72.36845,
              1.61404
            ],
            [
              -72.40693,
              1.61719
            ],
            [
              -72.41245,
              1.64557
            ],
            [
              -72.39954,
              1.65413
            ],
            [
              -72.41171,
              1.6628
            ],
            [
              -72.3905,
              1.69639
            ],
            [
              -72.40698,
              1.74119
            ],
            [
              -72.36275,
              1.78634
            ],
            [
              -72.43098,
              1.84252
            ],
            [
              -72.44225,
              1.88917
            ],
            [
              -72.42618,
              1.90938
            ],
            [
              -72.44727,
              1.92244
            ],
            [
              -72.45704,
              1.95583
            ],
            [
              -72.51782,
              2.01885
            ],
            [
              -72.55486,
              2.0179
            ],
            [
              -72.55314,
              2.04587
            ],
            [
              -72.59142,
              2.06678
            ],
            [
              -72.6136,
              2.12354
            ],
            [
              -72.64551,
              2.11219
            ],
            [
              -72.67319,
              2.12945
            ],
            [
              -72.70486,
              2.10076
            ],
            [
              -72.71854,
              2.06436
            ],
            [
              -72.70998,
              2.02331
            ],
            [
              -72.72173,
              2.01704
            ],
            [
              -72.72757,
              2.05078
            ],
            [
              -72.75461,
              2.07947
            ]
          ]
        ]
      },
      "properties": {
        "code": "95015",
        "departmentCode": "95",
        "name": "CALAMAR",
        "originalCode": "015",
        "originalName": "CALAMAR",
        "MPIO_TIPO": "MUNICIPIO",
        "type": "MUNICIPIO",
        "unitType": "municipio",
        "MPIO_NAREA": 13510.32024683,
        "MPIO_NANO": 2024,
        "MPIO_CRSLCION": "Ordenanza 001 del 7 de Agosto de 1992",
        "areaName": 13510.32024683,
        "creationYear": 2024,
        "creationResolution": "Ordenanza 001 del 7 de Agosto de 1992",
        "resultType": "observed",
        "source": "dane-divipola-mgn-2025",
        "year": 2025
      }
    },
    {
      "type": "Feature",
      "id": 2711,
      "geometry": {
        "type": "Polygon",
        "coordinates": [
          [
            [
              -70.54369,
              2.27979
            ],
            [
              -70.55099,
              2.2425
            ],
            [
              -70.58337,
              2.27631
            ],
            [
              -70.60117,
              2.26869
            ],
            [
              -70.59684,
              2.24666
            ],
            [
              -70.63451,
              2.22903
            ],
            [
              -70.66342,
              2.23283
            ],
            [
              -70.64269,
              2.24171
            ],
            [
              -70.66958,
              2.25859
            ],
            [
              -70.69029,
              2.25221
            ],
            [
              -70.7118,
              2.21404
            ],
            [
              -70.73045,
              2.23274
            ],
            [
              -70.72196,
              2.21499
            ],
            [
              -70.73974,
              2.1948
            ],
            [
              -70.76393,
              2.20498
            ],
            [
              -70.78095,
              2.1897
            ],
            [
              -70.80764,
              2.20399
            ],
            [
              -70.80514,
              2.18804
            ],
            [
              -70.8273,
              2.18405
            ],
            [
              -70.82075,
              2.20731
            ],
            [
              -70.832,
              2.20931
            ],
            [
              -70.8502,
              2.20132
            ],
            [
              -70.84623,
              2.17584
            ],
            [
              -70.87248,
              2.16934
            ],
            [
              -70.87414,
              2.15055
            ],
            [
              -70.89377,
              2.18765
            ],
            [
              -70.90077,
              2.17114
            ],
            [
              -70.90353,
              2.19204
            ],
            [
              -70.93188,
              2.18745
            ],
            [
              -70.94572,
              2.21488
            ],
            [
              -71.01514,
              2.21688
            ],
            [
              -71.00949,
              2.23794
            ],
            [
              -71.04305,
              2.21547
            ],
            [
              -71.01149,
              2.18568
            ],
            [
              -71.02161,
              2.16996
            ],
            [
              -71.04611,
              2.19519
            ],
            [
              -71.07848,
              2.16244
            ],
            [
              -71.08294,
              2.21649
            ],
            [
              -71.08717,
              2.20175
            ],
            [
              -71.098,
              2.22009
            ],
            [
              -71.13622,
              2.20935
            ],
            [
              -71.16707,
              2.23169
            ],
            [
              -71.16793,
              2.1755
            ],
            [
              -71.19387,
              2.1775
            ],
            [
              -71.19428,
              2.19061
            ],
            [
              -71.17294,
              2.19065
            ],
            [
              -71.21889,
              2.21477
            ],
            [
              -71.23236,
              2.17609
            ],
            [
              -71.23154,
              2.20407
            ],
            [
              -71.25347,
              2.22541
            ],
            [
              -71.233,
              2.24384
            ],
            [
              -71.26275,
              2.28006
            ],
            [
              -71.23209,
              2.32447
            ],
            [
              -71.24947,
              2.34435
            ],
            [
              -71.28696,
              2.3181
            ],
            [
              -71.32359,
              2.31719
            ],
            [
              -71.34147,
              2.26846
            ],
            [
              -71.35021,
              2.29466
            ],
            [
              -71.39612,
              2.27205
            ],
            [
              -71.41809,
              2.22396
            ],
            [
              -71.54618,
              2.22387
            ],
            [
              -71.53084,
              2.15443
            ],
            [
              -71.54085,
              2.1431
            ],
            [
              -71.56442,
              2.15657
            ],
            [
              -71.54217,
              2.13664
            ],
            [
              -71.55182,
              2.11799
            ],
            [
              -71.58984,
              2.15199
            ],
            [
              -71.59774,
              2.14165
            ],
            [
              -71.61477,
              2.15301
            ],
            [
              -71.60141,
              2.15938
            ],
            [
              -71.61372,
              2.16586
            ],
            [
              -71.60979,
              2.19582
            ],
            [
              -71.63863,
              2.18363
            ],
            [
              -71.65818,
              2.23868
            ],
            [
              -71.72164,
              2.23489
            ],
            [
              -71.74032,
              2.25957
            ],
            [
              -71.77877,
              2.27295
            ],
            [
              -71.78889,
              2.31203
            ],
            [
              -71.79997,
              2.30518
            ],
            [
              -71.79083,
              2.28033
            ],
            [
              -71.81833,
              2.25696
            ],
            [
              -71.85081,
              2.27959
            ],
            [
              -71.82634,
              2.24212
            ],
            [
              -71.8351,
              2.22921
            ],
            [
              -71.85923,
              2.24263
            ],
            [
              -71.87657,
              2.23007
            ],
            [
              -71.86157,
              2.19603
            ],
            [
              -71.8798,
              2.22018
            ],
            [
              -71.90408,
              2.20258
            ],
            [
              -71.93982,
              2.21525
            ],
            [
              -71.97977,
              2.27121
            ],
            [
              -72.01676,
              2.28203
            ],
            [
              -72.02512,
              2.30359
            ],
            [
              -72.05369,
              2.29707
            ],
            [
              -72.04164,
              2.28816
            ],
            [
              -72.05474,
              2.28299
            ],
            [
              -72.07678,
              2.33685
            ],
            [
              -72.10226,
              2.3454
            ],
            [
              -72.16217,
              2.33873
            ],
            [
              -72.18258,
              2.35565
            ],
            [
              -72.20459,
              2.35086
            ],
            [
              -72.20844,
              2.36822
            ],
            [
              -72.47265,
              2.3728
            ],
            [
              -72.53394,
              2.41104
            ],
            [
              -72.56063,
              2.41525
            ],
            [
              -72.56554,
              2.40272
            ],
            [
              -72.63117,
              2.42502
            ],
            [
              -72.7441,
              2.43148
            ],
            [
              -72.81692,
              2.26509
            ],
            [
              -72.8787,
              2.28642
            ],
            [
              -72.89892,
              2.25994
            ],
            [
              -72.94304,
              2.25553
            ],
            [
              -72.99316,
              2.1676
            ],
            [
              -72.98987,
              2.15637
            ],
            [
              -72.98019,
              2.17284
            ],
            [
              -72.89554,
              2.168
            ],
            [
              -72.85994,
              2.19156
            ],
            [
              -72.80466,
              2.17859
            ],
            [
              -72.7656,
              2.09043
            ],
            [
              -72.72757,
              2.05078
            ],
            [
              -72.72173,
              2.01704
            ],
            [
              -72.70998,
              2.02331
            ],
            [
              -72.71854,
              2.06436
            ],
            [
              -72.70486,
              2.10076
            ],
            [
              -72.67319,
              2.12945
            ],
            [
              -72.64551,
              2.11219
            ],
            [
              -72.61321,
              2.12336
            ],
            [
              -72.59142,
              2.06678
            ],
            [
              -72.55314,
              2.04587
            ],
            [
              -72.55486,
              2.0179
            ],
            [
              -72.51782,
              2.01885
            ],
            [
              -72.4289,
              1.91471
            ],
            [
              -72.43686,
              1.85471
            ],
            [
              -72.08413,
              1.97693
            ],
            [
              -72.05263,
              1.96992
            ],
            [
              -72.01298,
              1.99923
            ],
            [
              -71.95415,
              1.98588
            ],
            [
              -71.95396,
              1.96473
            ],
            [
              -71.91279,
              1.96281
            ],
            [
              -71.88062,
              1.89313
            ],
            [
              -71.85593,
              1.87735
            ],
            [
              -71.77883,
              1.87071
            ],
            [
              -71.74015,
              1.84111
            ],
            [
              -71.71281,
              1.85873
            ],
            [
              -71.7031,
              1.82895
            ],
            [
              -71.6645,
              1.81073
            ],
            [
              -71.36782,
              1.73894
            ],
            [
              -71.25889,
              1.66792
            ],
            [
              -71.12583,
              1.78306
            ],
            [
              -71.09259,
              1.78108
            ],
            [
              -71.09337,
              1.80206
            ],
            [
              -71.06471,
              1.79832
            ],
            [
              -71.04172,
              1.8175
            ],
            [
              -71.00034,
              1.81504
            ],
            [
              -70.95654,
              1.84621
            ],
            [
              -70.90243,
              1.88848
            ],
            [
              -70.89445,
              1.9277
            ],
            [
              -70.87736,
              1.93307
            ],
            [
              -70.86613,
              1.90875
            ],
            [
              -70.84698,
              1.92056
            ],
            [
              -70.80103,
              1.90557
            ],
            [
              -70.77045,
              1.92763
            ],
            [
              -70.76106,
              1.90999
            ],
            [
              -70.73315,
              1.92391
            ],
            [
              -70.69107,
              1.89766
            ],
            [
              -70.66259,
              1.9139
            ],
            [
              -70.63653,
              1.90322
            ],
            [
              -70.62092,
              1.92998
            ],
            [
              -70.57914,
              1.92855
            ],
            [
              -70.53089,
              1.95711
            ],
            [
              -70.51398,
              1.95696
            ],
            [
              -70.51112,
              1.9404
            ],
            [
              -70.48663,
              1.94576
            ],
            [
              -70.4853,
              1.96309
            ],
            [
              -70.46444,
              1.96299
            ],
            [
              -70.46565,
              1.98289
            ],
            [
              -70.43471,
              1.99975
            ],
            [
              -70.38652,
              1.98521
            ],
            [
              -70.36811,
              2.00355
            ],
            [
              -70.35112,
              1.98303
            ],
            [
              -70.31764,
              2.01283
            ],
            [
              -70.26069,
              2.01412
            ],
            [
              -70.25054,
              2.0294
            ],
            [
              -70.18102,
              2.02476
            ],
            [
              -70.15149,
              2.07163
            ],
            [
              -70.13947,
              2.06225
            ],
            [
              -70.10884,
              2.08025
            ],
            [
              -70.11934,
              2.11029
            ],
            [
              -70.09222,
              2.122
            ],
            [
              -70.10046,
              2.12971
            ],
            [
              -70.05835,
              2.14572
            ],
            [
              -70.05526,
              2.1619
            ],
            [
              -70.03357,
              2.15852
            ],
            [
              -70.03624,
              2.18195
            ],
            [
              -70.00665,
              2.18209
            ],
            [
              -69.99527,
              2.20799
            ],
            [
              -69.99601,
              2.22444
            ],
            [
              -70.02411,
              2.23535
            ],
            [
              -70.02638,
              2.2724
            ],
            [
              -70.05313,
              2.27805
            ],
            [
              -70.04704,
              2.29416
            ],
            [
              -70.06925,
              2.29399
            ],
            [
              -70.08515,
              2.26319
            ],
            [
              -70.14671,
              2.27771
            ],
            [
              -70.14171,
              2.25123
            ],
            [
              -70.15968,
              2.26506
            ],
            [
              -70.15677,
              2.2399
            ],
            [
              -70.17449,
              2.23743
            ],
            [
              -70.1914,
              2.25255
            ],
            [
              -70.18272,
              2.24011
            ],
            [
              -70.19443,
              2.22977
            ],
            [
              -70.2473,
              2.24327
            ],
            [
              -70.24349,
              2.26534
            ],
            [
              -70.27356,
              2.23741
            ],
            [
              -70.30549,
              2.25292
            ],
            [
              -70.29282,
              2.22853
            ],
            [
              -70.31412,
              2.20811
            ],
            [
              -70.34204,
              2.24785
            ],
            [
              -70.3659,
              2.23548
            ],
            [
              -70.3976,
              2.26753
            ],
            [
              -70.40793,
              2.25523
            ],
            [
              -70.42078,
              2.26863
            ],
            [
              -70.45817,
              2.25735
            ],
            [
              -70.46372,
              2.2338
            ],
            [
              -70.49284,
              2.23336
            ],
            [
              -70.51433,
              2.24509
            ],
            [
              -70.51118,
              2.25947
            ],
            [
              -70.48858,
              2.25286
            ],
            [
              -70.50913,
              2.28135
            ],
            [
              -70.52582,
              2.26829
            ],
            [
              -70.54369,
              2.27979
            ]
          ]
        ]
      },
      "properties": {
        "code": "95025",
        "departmentCode": "95",
        "name": "EL RETORNO",
        "originalCode": "025",
        "originalName": "EL RETORNO",
        "MPIO_TIPO": "MUNICIPIO",
        "type": "MUNICIPIO",
        "unitType": "municipio",
        "MPIO_NAREA": 12405.90549982,
        "MPIO_NANO": 2024,
        "MPIO_CRSLCION": "Ordenanza 001 del 7 de Agosto de 1992",
        "areaName": 12405.90549982,
        "creationYear": 2024,
        "creationResolution": "Ordenanza 001 del 7 de Agosto de 1992",
        "resultType": "observed",
        "source": "dane-divipola-mgn-2025",
        "year": 2025
      }
    },
    {
      "type": "Feature",
      "id": 2712,
      "geometry": {
        "type": "Polygon",
        "coordinates": [
          [
            [
              -71.39217,
              1.73547
            ],
            [
              -71.54673,
              1.79166
            ],
            [
              -71.6645,
              1.81073
            ],
            [
              -71.7031,
              1.82895
            ],
            [
              -71.71281,
              1.85873
            ],
            [
              -71.74015,
              1.84111
            ],
            [
              -71.77883,
              1.87071
            ],
            [
              -71.85593,
              1.87735
            ],
            [
              -71.88062,
              1.89313
            ],
            [
              -71.91279,
              1.96281
            ],
            [
              -71.95396,
              1.96473
            ],
            [
              -71.95415,
              1.98588
            ],
            [
              -72.01298,
              1.99923
            ],
            [
              -72.05263,
              1.96992
            ],
            [
              -72.08413,
              1.97693
            ],
            [
              -72.43594,
              1.85478
            ],
            [
              -72.36275,
              1.78634
            ],
            [
              -72.40698,
              1.74119
            ],
            [
              -72.3905,
              1.69639
            ],
            [
              -72.41171,
              1.6628
            ],
            [
              -72.39954,
              1.65413
            ],
            [
              -72.41245,
              1.64557
            ],
            [
              -72.40693,
              1.61719
            ],
            [
              -72.36845,
              1.61404
            ],
            [
              -72.36327,
              1.59015
            ],
            [
              -72.31111,
              1.59587
            ],
            [
              -72.31373,
              1.56002
            ],
            [
              -72.29516,
              1.53128
            ],
            [
              -72.33679,
              1.52794
            ],
            [
              -72.33519,
              1.50479
            ],
            [
              -72.3677,
              1.50801
            ],
            [
              -72.37691,
              1.4685
            ],
            [
              -72.3871,
              1.47097
            ],
            [
              -72.37691,
              1.46222
            ],
            [
              -72.39379,
              1.4667
            ],
            [
              -72.39019,
              1.44553
            ],
            [
              -72.43984,
              1.44371
            ],
            [
              -72.45911,
              1.42507
            ],
            [
              -72.47532,
              1.43994
            ],
            [
              -72.51765,
              1.44062
            ],
            [
              -72.54576,
              1.46847
            ],
            [
              -72.5635,
              1.46367
            ],
            [
              -72.5766,
              1.48633
            ],
            [
              -72.72624,
              1.18582
            ],
            [
              -72.6622,
              1.15079
            ],
            [
              -72.64737,
              1.1808
            ],
            [
              -72.62257,
              1.13625
            ],
            [
              -72.51092,
              1.06801
            ],
            [
              -72.45612,
              1.08028
            ],
            [
              -72.39946,
              1.00393
            ],
            [
              -72.41048,
              0.98682
            ],
            [
              -72.40047,
              0.96736
            ],
            [
              -72.37702,
              0.96021
            ],
            [
              -72.3916,
              0.91909
            ],
            [
              -72.35441,
              0.93507
            ],
            [
              -72.33992,
              0.92666
            ],
            [
              -72.34693,
              0.90292
            ],
            [
              -72.33235,
              0.87938
            ],
            [
              -72.34357,
              0.86863
            ],
            [
              -72.3288,
              0.84078
            ],
            [
              -72.31666,
              0.85302
            ],
            [
              -72.3231,
              0.8761
            ],
            [
              -72.28853,
              0.87321
            ],
            [
              -72.30142,
              0.84237
            ],
            [
              -72.28675,
              0.81873
            ],
            [
              -72.31011,
              0.80929
            ],
            [
              -72.26965,
              0.76311
            ],
            [
              -72.27034,
              0.7941
            ],
            [
              -72.2487,
              0.78854
            ],
            [
              -72.22185,
              0.74728
            ],
            [
              -72.2289,
              0.71434
            ],
            [
              -72.20307,
              0.70026
            ],
            [
              -72.19079,
              0.72699
            ],
            [
              -72.16649,
              0.71228
            ],
            [
              -72.1649,
              0.73333
            ],
            [
              -72.14174,
              0.7178
            ],
            [
              -72.1267,
              0.74012
            ],
            [
              -72.10982,
              0.70492
            ],
            [
              -72.07036,
              0.69271
            ],
            [
              -72.07069,
              0.66841
            ],
            [
              -72.08618,
              0.65962
            ],
            [
              -72.04856,
              0.6562
            ],
            [
              -71.7741,
              0.90606
            ],
            [
              -71.76571,
              0.96162
            ],
            [
              -71.74029,
              0.98482
            ],
            [
              -71.71023,
              0.99048
            ],
            [
              -71.68838,
              0.97033
            ],
            [
              -71.66556,
              0.97292
            ],
            [
              -71.6158,
              1.03708
            ],
            [
              -71.58525,
              1.04459
            ],
            [
              -71.57268,
              1.09115
            ],
            [
              -71.58254,
              1.12687
            ],
            [
              -71.53999,
              1.11456
            ],
            [
              -71.55623,
              1.1555
            ],
            [
              -71.53163,
              1.16026
            ],
            [
              -71.53552,
              1.12409
            ],
            [
              -71.50265,
              1.10328
            ],
            [
              -71.48505,
              1.10882
            ],
            [
              -71.53468,
              1.20602
            ],
            [
              -71.55302,
              1.20742
            ],
            [
              -71.53891,
              1.23019
            ],
            [
              -71.5525,
              1.27704
            ],
            [
              -71.5264,
              1.27803
            ],
            [
              -71.53061,
              1.29584
            ],
            [
              -71.47864,
              1.40484
            ],
            [
              -71.47942,
              1.44616
            ],
            [
              -71.45532,
              1.46477
            ],
            [
              -71.43994,
              1.508
            ],
            [
              -71.43948,
              1.545
            ],
            [
              -71.39018,
              1.5982
            ],
            [
              -71.40343,
              1.71897
            ],
            [
              -71.39217,
              1.73547
            ]
          ]
        ]
      },
      "properties": {
        "code": "95200",
        "departmentCode": "95",
        "name": "MIRAFLORES",
        "originalCode": "200",
        "originalName": "MIRAFLORES",
        "MPIO_TIPO": "MUNICIPIO",
        "type": "MUNICIPIO",
        "unitType": "municipio",
        "MPIO_NAREA": 12774.74386678,
        "MPIO_NANO": 2024,
        "MPIO_CRSLCION": "Ordenanza 001 del 7 de Agosto de 1992",
        "areaName": 12774.74386678,
        "creationYear": 2024,
        "creationResolution": "Ordenanza 001 del 7 de Agosto de 1992",
        "resultType": "observed",
        "source": "dane-divipola-mgn-2025",
        "year": 2025
      }
    }
  ]
}
