{
  "type": "FeatureCollection",
  "metadata": {
    "source": "DANE DIVIPOLA MGN 2025",
    "downloadedAt": "2026-07-25T07:50:10Z",
    "crs": "EPSG:4326",
    "simplification": "ArcGIS maxAllowableOffset=0.01 grados y geometryPrecision=5; solo visualización web"
  },
  "features": [
    {
      "type": "Feature",
      "id": 2713,
      "geometry": {
        "type": "Polygon",
        "coordinates": [
          [
            [
              -70.41904,
              1.77173
            ],
            [
              -70.45393,
              1.79016
            ],
            [
              -70.99386,
              1.15338
            ],
            [
              -71.00834,
              0.88549
            ],
            [
              -71.11861,
              0.78931
            ],
            [
              -71.03637,
              0.57249
            ],
            [
              -71.01298,
              0.59679
            ],
            [
              -70.99915,
              0.56672
            ],
            [
              -70.97312,
              0.57234
            ],
            [
              -70.98351,
              0.53542
            ],
            [
              -70.95101,
              0.45349
            ],
            [
              -70.92401,
              0.47487
            ],
            [
              -70.91605,
              0.52578
            ],
            [
              -70.87536,
              0.5404
            ],
            [
              -70.8636,
              0.49827
            ],
            [
              -70.87762,
              0.486
            ],
            [
              -70.85733,
              0.48389
            ],
            [
              -70.82851,
              0.40185
            ],
            [
              -70.64805,
              0.604
            ],
            [
              -70.62565,
              0.52169
            ],
            [
              -70.60136,
              0.49947
            ],
            [
              -70.62719,
              0.43174
            ],
            [
              -70.61584,
              0.37808
            ],
            [
              -70.57131,
              0.34832
            ],
            [
              -70.36538,
              0.34722
            ],
            [
              -70.32828,
              0.25146
            ],
            [
              -70.27869,
              0.24842
            ],
            [
              -70.21102,
              0.15782
            ],
            [
              -70.18367,
              0.15327
            ],
            [
              -70.12875,
              0.18328
            ],
            [
              -70.08965,
              0.23222
            ],
            [
              -70.05568,
              0.23996
            ],
            [
              -70.04709,
              0.2594
            ],
            [
              -70.0386,
              0.56635
            ],
            [
              -70.14965,
              0.86777
            ],
            [
              -70.11639,
              0.8269
            ],
            [
              -70.05385,
              0.86668
            ],
            [
              -69.97577,
              0.84734
            ],
            [
              -69.98318,
              0.89714
            ],
            [
              -69.97472,
              0.91833
            ],
            [
              -69.96011,
              0.91212
            ],
            [
              -69.95675,
              0.96128
            ],
            [
              -69.92158,
              1.00151
            ],
            [
              -69.89576,
              0.98838
            ],
            [
              -69.88144,
              1.01989
            ],
            [
              -69.81515,
              1.06472
            ],
            [
              -69.84659,
              1.07783
            ],
            [
              -69.84572,
              1.71392
            ],
            [
              -69.87357,
              1.71685
            ],
            [
              -69.88348,
              1.69189
            ],
            [
              -69.94889,
              1.66421
            ],
            [
              -70.03189,
              1.66542
            ],
            [
              -70.08063,
              1.64797
            ],
            [
              -70.25789,
              1.7249
            ],
            [
              -70.28073,
              1.75299
            ],
            [
              -70.36642,
              1.75331
            ],
            [
              -70.41904,
              1.77173
            ]
          ]
        ]
      },
      "properties": {
        "code": "97001",
        "departmentCode": "97",
        "name": "MITÚ",
        "resultType": "observed",
        "source": "dane-divipola-mgn-2025",
        "year": 2025
      }
    },
    {
      "type": "Feature",
      "id": 2714,
      "geometry": {
        "type": "Polygon",
        "coordinates": [
          [
            [
              -71.25359,
              1.67068
            ],
            [
              -71.31388,
              1.71391
            ],
            [
              -71.33197,
              1.70585
            ],
            [
              -71.36782,
              1.73894
            ],
            [
              -71.39818,
              1.73371
            ],
            [
              -71.39018,
              1.5982
            ],
            [
              -71.43948,
              1.545
            ],
            [
              -71.43994,
              1.508
            ],
            [
              -71.45532,
              1.46477
            ],
            [
              -71.47942,
              1.44616
            ],
            [
              -71.47864,
              1.40484
            ],
            [
              -71.53061,
              1.29584
            ],
            [
              -71.5264,
              1.27803
            ],
            [
              -71.55252,
              1.2769
            ],
            [
              -71.53891,
              1.23019
            ],
            [
              -71.55302,
              1.20742
            ],
            [
              -71.53468,
              1.20602
            ],
            [
              -71.48408,
              1.11048
            ],
            [
              -71.52239,
              1.113
            ],
            [
              -71.53649,
              1.12652
            ],
            [
              -71.53163,
              1.16026
            ],
            [
              -71.55623,
              1.1555
            ],
            [
              -71.53999,
              1.11456
            ],
            [
              -71.58254,
              1.12687
            ],
            [
              -71.57268,
              1.09115
            ],
            [
              -71.58515,
              1.04469
            ],
            [
              -71.6158,
              1.03708
            ],
            [
              -71.66556,
              0.97292
            ],
            [
              -71.68838,
              0.97033
            ],
            [
              -71.71023,
              0.99048
            ],
            [
              -71.74029,
              0.98482
            ],
            [
              -71.76571,
              0.96162
            ],
            [
              -71.7741,
              0.90606
            ],
            [
              -71.80335,
              0.88805
            ],
            [
              -71.4804,
              0.59621
            ],
            [
              -71.42036,
              0.64124
            ],
            [
              -71.38989,
              0.6426
            ],
            [
              -71.33055,
              0.5799
            ],
            [
              -71.24758,
              0.614
            ],
            [
              -71.17615,
              0.59822
            ],
            [
              -71.15212,
              0.57317
            ],
            [
              -71.14557,
              0.58485
            ],
            [
              -71.1234,
              0.55785
            ],
            [
              -71.1096,
              0.56939
            ],
            [
              -71.06415,
              0.55985
            ],
            [
              -71.03386,
              0.56725
            ],
            [
              -71.11861,
              0.78931
            ],
            [
              -71.00834,
              0.88549
            ],
            [
              -70.99386,
              1.15338
            ],
            [
              -71.25923,
              1.6163
            ],
            [
              -71.25359,
              1.67068
            ]
          ]
        ]
      },
      "properties": {
        "code": "97161",
        "departmentCode": "97",
        "name": "CARURÚ",
        "resultType": "observed",
        "source": "dane-divipola-mgn-2025",
        "year": 2025
      }
    },
    {
      "type": "Feature",
      "id": 2715,
      "geometry": {
        "type": "Polygon",
        "coordinates": [
          [
            [
              -71.03637,
              0.57249
            ],
            [
              -71.1234,
              0.55785
            ],
            [
              -71.14557,
              0.58485
            ],
            [
              -71.15212,
              0.57317
            ],
            [
              -71.17615,
              0.59822
            ],
            [
              -71.24758,
              0.614
            ],
            [
              -71.32945,
              0.57966
            ],
            [
              -71.38995,
              0.6426
            ],
            [
              -71.42036,
              0.64124
            ],
            [
              -71.4804,
              0.59621
            ],
            [
              -71.80335,
              0.88805
            ],
            [
              -72.03319,
              0.66428
            ],
            [
              -71.99931,
              0.65877
            ],
            [
              -71.99496,
              0.63308
            ],
            [
              -71.98147,
              0.63201
            ],
            [
              -72.01184,
              0.59771
            ],
            [
              -71.99068,
              0.589
            ],
            [
              -71.98976,
              0.56302
            ],
            [
              -71.9531,
              0.54001
            ],
            [
              -71.94139,
              0.57105
            ],
            [
              -71.92929,
              0.55343
            ],
            [
              -71.91313,
              0.51454
            ],
            [
              -71.92901,
              0.48662
            ],
            [
              -71.90146,
              0.47198
            ],
            [
              -71.91937,
              0.451
            ],
            [
              -71.88984,
              0.44755
            ],
            [
              -71.8871,
              0.46938
            ],
            [
              -71.85899,
              0.457
            ],
            [
              -71.8469,
              0.41358
            ],
            [
              -71.82342,
              0.40574
            ],
            [
              -71.85313,
              0.35236
            ],
            [
              -71.82346,
              0.33936
            ],
            [
              -71.80187,
              0.35529
            ],
            [
              -71.81482,
              0.37357
            ],
            [
              -71.76696,
              0.3696
            ],
            [
              -71.78907,
              0.33568
            ],
            [
              -71.75369,
              0.33242
            ],
            [
              -71.73724,
              0.2857
            ],
            [
              -71.70501,
              0.31842
            ],
            [
              -71.70086,
              0.29956
            ],
            [
              -71.7263,
              0.28098
            ],
            [
              -71.69793,
              0.23746
            ],
            [
              -71.64391,
              0.20958
            ],
            [
              -71.62411,
              0.21587
            ],
            [
              -71.61712,
              0.19294
            ],
            [
              -71.63615,
              0.18297
            ],
            [
              -71.60578,
              0.1833
            ],
            [
              -71.56077,
              0.21625
            ],
            [
              -71.58995,
              0.16626
            ],
            [
              -71.53146,
              0.16524
            ],
            [
              -71.545,
              0.13101
            ],
            [
              -71.52971,
              0.1199
            ],
            [
              -71.49521,
              0.13479
            ],
            [
              -71.47351,
              0.18499
            ],
            [
              -71.45559,
              0.17407
            ],
            [
              -71.47035,
              0.15264
            ],
            [
              -71.44959,
              0.13903
            ],
            [
              -71.40883,
              0.15069
            ],
            [
              -71.3996,
              0.18586
            ],
            [
              -71.37312,
              0.17212
            ],
            [
              -71.36543,
              0.14456
            ],
            [
              -71.34185,
              0.13829
            ],
            [
              -71.33525,
              0.155
            ],
            [
              -71.32096,
              0.13634
            ],
            [
              -71.32851,
              0.11289
            ],
            [
              -71.2903,
              0.09591
            ],
            [
              -71.29266,
              0.06835
            ],
            [
              -71.23492,
              0.0664
            ],
            [
              -71.22575,
              0.0542
            ],
            [
              -71.18431,
              0.09705
            ],
            [
              -71.14543,
              0.06293
            ],
            [
              -71.13398,
              0.00417
            ],
            [
              -71.10433,
              0.026
            ],
            [
              -71.09503,
              -0.00816
            ],
            [
              -71.03951,
              -0.00452
            ],
            [
              -71.05306,
              -0.0277
            ],
            [
              -71.03109,
              -0.04744
            ],
            [
              -71.01209,
              -0.04151
            ],
            [
              -71.01573,
              -0.01247
            ],
            [
              -70.97058,
              -0.00789
            ],
            [
              -70.96128,
              -0.03983
            ],
            [
              -70.92725,
              -0.05176
            ],
            [
              -70.92496,
              -0.09165
            ],
            [
              -70.89388,
              -0.10782
            ],
            [
              -70.90157,
              -0.13251
            ],
            [
              -70.92519,
              -0.12529
            ],
            [
              -70.94655,
              -0.15408
            ],
            [
              -70.91508,
              -0.20179
            ],
            [
              -70.88309,
              -0.21394
            ],
            [
              -70.87818,
              -0.27996
            ],
            [
              -70.8277,
              -0.36466
            ],
            [
              -70.76212,
              -0.33108
            ],
            [
              -70.75948,
              -0.31908
            ],
            [
              -70.78008,
              -0.31231
            ],
            [
              -70.73451,
              -0.28702
            ],
            [
              -70.67799,
              -0.35212
            ],
            [
              -70.63038,
              -0.31991
            ],
            [
              -70.57951,
              -0.39199
            ],
            [
              -70.56065,
              -0.36586
            ],
            [
              -70.53122,
              -0.37467
            ],
            [
              -70.5193,
              -0.35765
            ],
            [
              -70.45259,
              -0.43969
            ],
            [
              -70.45835,
              -0.49508
            ],
            [
              -70.4034,
              -0.46285
            ],
            [
              -70.37728,
              -0.49812
            ],
            [
              -70.32601,
              -0.49368
            ],
            [
              -70.32217,
              -0.46849
            ],
            [
              -70.35116,
              -0.47254
            ],
            [
              -70.36507,
              -0.45396
            ],
            [
              -70.30976,
              -0.4415
            ],
            [
              -70.28833,
              -0.41293
            ],
            [
              -70.23948,
              -0.42874
            ],
            [
              -70.22568,
              -0.39329
            ],
            [
              -70.20281,
              -0.39425
            ],
            [
              -70.19451,
              -0.36778
            ],
            [
              -70.22039,
              -0.35877
            ],
            [
              -70.23516,
              -0.38098
            ],
            [
              -70.26138,
              -0.361
            ],
            [
              -70.23564,
              -0.34516
            ],
            [
              -70.24223,
              -0.31647
            ],
            [
              -70.2154,
              -0.31447
            ],
            [
              -70.21117,
              -0.33951
            ],
            [
              -70.13497,
              -0.30114
            ],
            [
              -70.13995,
              -0.25665
            ],
            [
              -70.18475,
              -0.2347
            ],
            [
              -70.10809,
              -0.20013
            ],
            [
              -70.09802,
              -0.15065
            ],
            [
              -70.04668,
              -0.11618
            ],
            [
              -70.04709,
              0.2594
            ],
            [
              -70.13133,
              0.18143
            ],
            [
              -70.20693,
              0.15525
            ],
            [
              -70.26785,
              0.24067
            ],
            [
              -70.3316,
              0.25535
            ],
            [
              -70.36538,
              0.34722
            ],
            [
              -70.57131,
              0.34832
            ],
            [
              -70.61584,
              0.37808
            ],
            [
              -70.62719,
              0.43174
            ],
            [
              -70.60136,
              0.49947
            ],
            [
              -70.62565,
              0.52169
            ],
            [
              -70.64805,
              0.604
            ],
            [
              -70.82851,
              0.40185
            ],
            [
              -70.85733,
              0.48389
            ],
            [
              -70.87762,
              0.486
            ],
            [
              -70.8636,
              0.49827
            ],
            [
              -70.87536,
              0.5404
            ],
            [
              -70.91605,
              0.52578
            ],
            [
              -70.92401,
              0.47487
            ],
            [
              -70.95101,
              0.45349
            ],
            [
              -70.98351,
              0.53542
            ],
            [
              -70.97334,
              0.57271
            ],
            [
              -70.99915,
              0.56672
            ],
            [
              -71.01323,
              0.59679
            ],
            [
              -71.03637,
              0.57249
            ]
          ]
        ]
      },
      "properties": {
        "code": "97511",
        "departmentCode": "97",
        "name": "PACOA",
        "resultType": "observed",
        "source": "dane-divipola-mgn-2025",
        "year": 2025
      }
    },
    {
      "type": "Feature",
      "id": 2716,
      "geometry": {
        "type": "Polygon",
        "coordinates": [
          [
            [
              -70.05217,
              -0.14663
            ],
            [
              -70.04668,
              -0.11618
            ],
            [
              -70.09802,
              -0.15065
            ],
            [
              -70.10809,
              -0.20013
            ],
            [
              -70.18273,
              -0.2307
            ],
            [
              -70.13971,
              -0.25697
            ],
            [
              -70.13497,
              -0.30114
            ],
            [
              -70.21144,
              -0.33955
            ],
            [
              -70.2154,
              -0.31447
            ],
            [
              -70.24059,
              -0.31365
            ],
            [
              -70.23564,
              -0.34516
            ],
            [
              -70.26157,
              -0.35996
            ],
            [
              -70.2521,
              -0.37618
            ],
            [
              -70.23462,
              -0.38073
            ],
            [
              -70.22039,
              -0.35877
            ],
            [
              -70.19278,
              -0.37037
            ],
            [
              -70.25506,
              -0.43344
            ],
            [
              -70.24389,
              -0.44605
            ],
            [
              -70.2116,
              -0.44012
            ],
            [
              -70.20008,
              -0.4691
            ],
            [
              -70.24451,
              -0.46985
            ],
            [
              -70.32484,
              -0.55977
            ],
            [
              -70.30975,
              -0.59029
            ],
            [
              -70.29994,
              -0.55929
            ],
            [
              -70.28224,
              -0.55818
            ],
            [
              -70.25613,
              -0.60286
            ],
            [
              -70.26191,
              -0.71155
            ],
            [
              -70.2488,
              -0.7394
            ],
            [
              -70.29023,
              -0.75247
            ],
            [
              -70.29713,
              -0.79132
            ],
            [
              -70.22125,
              -0.88635
            ],
            [
              -70.26059,
              -0.93804
            ],
            [
              -70.29589,
              -0.93649
            ],
            [
              -70.30357,
              -0.97596
            ],
            [
              -70.24519,
              -1.02178
            ],
            [
              -70.21992,
              -0.98535
            ],
            [
              -70.19747,
              -0.98507
            ],
            [
              -70.22713,
              -1.05121
            ],
            [
              -70.17792,
              -1.07455
            ],
            [
              -70.17501,
              -1.1063
            ],
            [
              -70.1493,
              -1.11701
            ],
            [
              -70.12631,
              -1.10919
            ],
            [
              -70.07898,
              -1.03737
            ],
            [
              -70.08742,
              -1.01257
            ],
            [
              -70.12561,
              -1.02126
            ],
            [
              -70.13788,
              -1.01038
            ],
            [
              -70.10658,
              -0.95679
            ],
            [
              -70.07366,
              -0.94802
            ],
            [
              -70.03931,
              -0.98085
            ],
            [
              -70.02309,
              -0.97153
            ],
            [
              -70.02033,
              -0.93756
            ],
            [
              -70.00104,
              -0.94552
            ],
            [
              -69.99683,
              -0.97649
            ],
            [
              -69.93773,
              -0.94708
            ],
            [
              -69.90181,
              -0.97468
            ],
            [
              -69.95402,
              -0.99511
            ],
            [
              -69.94119,
              -1.03311
            ],
            [
              -69.97095,
              -1.06871
            ],
            [
              -69.96089,
              -1.0933
            ],
            [
              -69.8764,
              -1.07856
            ],
            [
              -69.83033,
              -1.02778
            ],
            [
              -69.78088,
              -1.08942
            ],
            [
              -69.74537,
              -1.0975
            ],
            [
              -69.73484,
              -1.08134
            ],
            [
              -69.75758,
              -1.07348
            ],
            [
              -69.77475,
              -1.04096
            ],
            [
              -69.74952,
              -1.02762
            ],
            [
              -69.70471,
              -1.04778
            ],
            [
              -69.64967,
              -1.11579
            ],
            [
              -69.6523,
              -1.13369
            ],
            [
              -69.66155,
              -1.11648
            ],
            [
              -69.68091,
              -1.12133
            ],
            [
              -69.68039,
              -1.20071
            ],
            [
              -69.66609,
              -1.22537
            ],
            [
              -69.63824,
              -1.21439
            ],
            [
              -69.63307,
              -1.16642
            ],
            [
              -69.59254,
              -1.14584
            ],
            [
              -69.56473,
              -1.19326
            ],
            [
              -69.48149,
              -1.21375
            ],
            [
              -69.46555,
              -1.17457
            ],
            [
              -69.48925,
              -1.15111
            ],
            [
              -69.46093,
              -1.13835
            ],
            [
              -69.46264,
              -1.07759
            ],
            [
              -69.41987,
              -1.06893
            ],
            [
              -69.43056,
              -1.06077
            ],
            [
              -69.4186,
              -1.04364
            ],
            [
              -69.44508,
              -1.02301
            ],
            [
              -69.41818,
              -0.99903
            ],
            [
              -69.45909,
              -0.9938
            ],
            [
              -69.47131,
              -0.95766
            ],
            [
              -69.52826,
              -0.92446
            ],
            [
              -69.52567,
              -0.8688
            ],
            [
              -69.57332,
              -0.83866
            ],
            [
              -69.5645,
              -0.80671
            ],
            [
              -69.58339,
              -0.80053
            ],
            [
              -69.58618,
              -0.78136
            ],
            [
              -69.60156,
              -0.78425
            ],
            [
              -69.60624,
              -0.75501
            ],
            [
              -69.6256,
              -0.74565
            ],
            [
              -69.56199,
              -0.63672
            ],
            [
              -69.60348,
              -0.59566
            ],
            [
              -69.59154,
              -0.56096
            ],
            [
              -69.61441,
              -0.53437
            ],
            [
              -69.60849,
              -0.50059
            ],
            [
              -69.72688,
              -0.446
            ],
            [
              -69.77439,
              -0.39129
            ],
            [
              -69.82912,
              -0.37547
            ],
            [
              -69.84484,
              -0.33757
            ],
            [
              -69.88963,
              -0.34182
            ],
            [
              -69.92073,
              -0.32562
            ],
            [
              -70.00006,
              -0.2229
            ],
            [
              -70.0533,
              -0.18924
            ],
            [
              -70.06525,
              -0.16438
            ],
            [
              -70.05217,
              -0.14663
            ]
          ]
        ]
      },
      "properties": {
        "code": "97666",
        "departmentCode": "97",
        "name": "TARAIRA",
        "resultType": "observed",
        "source": "dane-divipola-mgn-2025",
        "year": 2025
      }
    },
    {
      "type": "Feature",
      "id": 2717,
      "geometry": {
        "type": "Polygon",
        "coordinates": [
          [
            [
              -70.11033,
              2.0801
            ],
            [
              -70.13947,
              2.06225
            ],
            [
              -70.15149,
              2.07163
            ],
            [
              -70.18102,
              2.02476
            ],
            [
              -70.25054,
              2.0294
            ],
            [
              -70.26069,
              2.01412
            ],
            [
              -70.31764,
              2.01283
            ],
            [
              -70.35112,
              1.98303
            ],
            [
              -70.36811,
              2.00355
            ],
            [
              -70.38652,
              1.98521
            ],
            [
              -70.43471,
              1.99975
            ],
            [
              -70.46565,
              1.98289
            ],
            [
              -70.46444,
              1.96299
            ],
            [
              -70.4853,
              1.96309
            ],
            [
              -70.48663,
              1.94576
            ],
            [
              -70.51112,
              1.9404
            ],
            [
              -70.51398,
              1.95696
            ],
            [
              -70.53089,
              1.95711
            ],
            [
              -70.57914,
              1.92855
            ],
            [
              -70.62092,
              1.92998
            ],
            [
              -70.63614,
              1.90329
            ],
            [
              -70.66259,
              1.9139
            ],
            [
              -70.69107,
              1.89766
            ],
            [
              -70.73315,
              1.92391
            ],
            [
              -70.76106,
              1.90999
            ],
            [
              -70.77045,
              1.92763
            ],
            [
              -70.80103,
              1.90557
            ],
            [
              -70.84698,
              1.92056
            ],
            [
              -70.86613,
              1.90875
            ],
            [
              -70.87964,
              1.93316
            ],
            [
              -70.89467,
              1.92753
            ],
            [
              -70.90261,
              1.88828
            ],
            [
              -71.00012,
              1.81519
            ],
            [
              -71.09337,
              1.80206
            ],
            [
              -71.09259,
              1.78108
            ],
            [
              -71.12583,
              1.78306
            ],
            [
              -71.25311,
              1.67139
            ],
            [
              -71.25923,
              1.6163
            ],
            [
              -70.99386,
              1.15338
            ],
            [
              -70.45393,
              1.79016
            ],
            [
              -70.38808,
              1.75788
            ],
            [
              -70.28064,
              1.75295
            ],
            [
              -70.25789,
              1.7249
            ],
            [
              -70.08075,
              1.64798
            ],
            [
              -70.03189,
              1.66542
            ],
            [
              -69.96074,
              1.66132
            ],
            [
              -69.88337,
              1.69199
            ],
            [
              -69.8769,
              1.73147
            ],
            [
              -69.91675,
              1.74881
            ],
            [
              -69.97502,
              1.74323
            ],
            [
              -70.0465,
              1.7722
            ],
            [
              -70.14908,
              1.86761
            ],
            [
              -70.17556,
              1.87009
            ],
            [
              -70.16566,
              1.93367
            ],
            [
              -70.11155,
              2.0028
            ],
            [
              -70.12176,
              2.03219
            ],
            [
              -70.11033,
              2.0801
            ]
          ]
        ]
      },
      "properties": {
        "code": "97777",
        "departmentCode": "97",
        "name": "PAPUNAHUA",
        "resultType": "observed",
        "source": "dane-divipola-mgn-2025",
        "year": 2025
      }
    },
    {
      "type": "Feature",
      "id": 2718,
      "geometry": {
        "type": "Polygon",
        "coordinates": [
          [
            [
              -69.7021,
              1.10907
            ],
            [
              -69.75381,
              1.11069
            ],
            [
              -69.88124,
              1.02006
            ],
            [
              -69.89597,
              0.98823
            ],
            [
              -69.92225,
              1.00111
            ],
            [
              -69.95675,
              0.96128
            ],
            [
              -69.96023,
              0.9119
            ],
            [
              -69.98076,
              0.91082
            ],
            [
              -69.97596,
              0.84723
            ],
            [
              -70.05385,
              0.86668
            ],
            [
              -70.11639,
              0.8269
            ],
            [
              -70.14965,
              0.86777
            ],
            [
              -70.02135,
              0.54516
            ],
            [
              -69.99668,
              0.54928
            ],
            [
              -70.00044,
              0.57357
            ],
            [
              -69.97867,
              0.57804
            ],
            [
              -69.93562,
              0.5531
            ],
            [
              -69.91646,
              0.5902
            ],
            [
              -69.88722,
              0.57705
            ],
            [
              -69.82331,
              0.5914
            ],
            [
              -69.80284,
              0.57187
            ],
            [
              -69.74873,
              0.61984
            ],
            [
              -69.72406,
              0.61507
            ],
            [
              -69.71583,
              0.64108
            ],
            [
              -69.67202,
              0.66778
            ],
            [
              -69.64937,
              0.66367
            ],
            [
              -69.60668,
              0.61326
            ],
            [
              -69.60628,
              0.63462
            ],
            [
              -69.5875,
              0.63993
            ],
            [
              -69.59291,
              0.65655
            ],
            [
              -69.56263,
              0.6842
            ],
            [
              -69.53575,
              0.67948
            ],
            [
              -69.53251,
              0.7024
            ],
            [
              -69.48078,
              0.73558
            ],
            [
              -69.43386,
              0.71264
            ],
            [
              -69.43558,
              0.69858
            ],
            [
              -69.35315,
              0.61431
            ],
            [
              -69.33652,
              0.64328
            ],
            [
              -69.31954,
              0.62633
            ],
            [
              -69.29099,
              0.65036
            ],
            [
              -69.29605,
              0.60472
            ],
            [
              -69.27239,
              0.60187
            ],
            [
              -69.20012,
              0.60667
            ],
            [
              -69.20426,
              0.63258
            ],
            [
              -69.18329,
              0.65427
            ],
            [
              -69.11828,
              0.63557
            ],
            [
              -69.14563,
              0.69853
            ],
            [
              -69.1878,
              0.73298
            ],
            [
              -69.17572,
              0.76002
            ],
            [
              -69.14759,
              0.76869
            ],
            [
              -69.16738,
              0.84375
            ],
            [
              -69.14167,
              0.84871
            ],
            [
              -69.13659,
              0.87684
            ],
            [
              -69.19102,
              0.91594
            ],
            [
              -69.18801,
              0.93356
            ],
            [
              -69.16572,
              0.9418
            ],
            [
              -69.2177,
              0.97437
            ],
            [
              -69.19807,
              1.0006
            ],
            [
              -69.24419,
              1.0562
            ],
            [
              -69.28724,
              1.0536
            ],
            [
              -69.32066,
              1.088
            ],
            [
              -69.37565,
              1.08912
            ],
            [
              -69.41397,
              1.04127
            ],
            [
              -69.43756,
              1.0741
            ],
            [
              -69.56108,
              1.07192
            ],
            [
              -69.61161,
              1.09846
            ],
            [
              -69.67939,
              1.07018
            ],
            [
              -69.70361,
              1.07638
            ],
            [
              -69.7021,
              1.10907
            ]
          ]
        ]
      },
      "properties": {
        "code": "97889",
        "departmentCode": "97",
        "name": "YAVARATÉ",
        "resultType": "observed",
        "source": "dane-divipola-mgn-2025",
        "year": 2025
      }
    }
  ]
}
