{
  "type": "FeatureCollection",
  "metadata": {
    "source": "DANE DIVIPOLA MGN 2025",
    "downloadedAt": "2026-07-25T07:50:10Z",
    "crs": "EPSG:4326",
    "simplification": "ArcGIS maxAllowableOffset=0.01 grados y geometryPrecision=5; solo visualización web"
  },
  "features": [
    {
      "type": "Feature",
      "id": 2719,
      "geometry": {
        "type": "Polygon",
        "coordinates": [
          [
            [
              -67.80972,
              6.32432
            ],
            [
              -67.84567,
              6.31204
            ],
            [
              -67.92981,
              6.23635
            ],
            [
              -68.02727,
              6.19615
            ],
            [
              -68.07769,
              6.2271
            ],
            [
              -68.14185,
              6.22867
            ],
            [
              -68.25739,
              6.19703
            ],
            [
              -68.30697,
              6.16299
            ],
            [
              -68.37357,
              6.18588
            ],
            [
              -68.44857,
              6.18773
            ],
            [
              -68.51008,
              6.17907
            ],
            [
              -68.542,
              6.14898
            ],
            [
              -68.58847,
              6.16633
            ],
            [
              -68.64403,
              6.12915
            ],
            [
              -68.68689,
              6.13195
            ],
            [
              -68.70645,
              6.15207
            ],
            [
              -68.79271,
              6.14741
            ],
            [
              -68.81353,
              6.17289
            ],
            [
              -68.808,
              5.40446
            ],
            [
              -68.78919,
              5.42002
            ],
            [
              -68.74979,
              5.39293
            ],
            [
              -68.70881,
              5.4516
            ],
            [
              -68.69097,
              5.43642
            ],
            [
              -68.693,
              5.45712
            ],
            [
              -68.67333,
              5.47155
            ],
            [
              -68.68088,
              5.48549
            ],
            [
              -68.63895,
              5.45025
            ],
            [
              -68.6297,
              5.51064
            ],
            [
              -68.58526,
              5.51181
            ],
            [
              -68.5566,
              5.53874
            ],
            [
              -68.53735,
              5.50407
            ],
            [
              -68.51916,
              5.50725
            ],
            [
              -68.51974,
              5.54932
            ],
            [
              -68.47251,
              5.56389
            ],
            [
              -68.46384,
              5.52534
            ],
            [
              -68.42881,
              5.53921
            ],
            [
              -68.41504,
              5.52135
            ],
            [
              -68.38695,
              5.5444
            ],
            [
              -68.37568,
              5.51269
            ],
            [
              -68.32775,
              5.50285
            ],
            [
              -68.33019,
              5.47315
            ],
            [
              -68.30565,
              5.46936
            ],
            [
              -68.28528,
              5.42828
            ],
            [
              -68.26536,
              5.42807
            ],
            [
              -68.27219,
              5.46726
            ],
            [
              -68.256,
              5.46712
            ],
            [
              -68.1878,
              5.38848
            ],
            [
              -68.1747,
              5.40014
            ],
            [
              -68.20339,
              5.43249
            ],
            [
              -68.14683,
              5.43049
            ],
            [
              -68.12858,
              5.4046
            ],
            [
              -68.1052,
              5.41142
            ],
            [
              -68.12127,
              5.43654
            ],
            [
              -68.09609,
              5.43337
            ],
            [
              -68.08903,
              5.37707
            ],
            [
              -68.05755,
              5.36031
            ],
            [
              -68.06342,
              5.39349
            ],
            [
              -68.02104,
              5.35591
            ],
            [
              -67.98674,
              5.36352
            ],
            [
              -67.95384,
              5.30237
            ],
            [
              -67.90942,
              5.36384
            ],
            [
              -67.85227,
              5.37823
            ],
            [
              -67.84896,
              5.34902
            ],
            [
              -67.81378,
              5.34231
            ],
            [
              -67.63422,
              5.46579
            ],
            [
              -67.59912,
              5.54028
            ],
            [
              -67.62018,
              5.56625
            ],
            [
              -67.63812,
              5.6704
            ],
            [
              -67.59736,
              5.82775
            ],
            [
              -67.53033,
              5.90609
            ],
            [
              -67.41449,
              5.98575
            ],
            [
              -67.41032,
              6.00564
            ],
            [
              -67.49356,
              6.12805
            ],
            [
              -67.48624,
              6.16308
            ],
            [
              -67.45651,
              6.19369
            ],
            [
              -67.53522,
              6.26054
            ],
            [
              -67.58689,
              6.26261
            ],
            [
              -67.62526,
              6.29135
            ],
            [
              -67.76177,
              6.29137
            ],
            [
              -67.80972,
              6.32432
            ]
          ]
        ]
      },
      "properties": {
        "code": "99001",
        "departmentCode": "99",
        "name": "PUERTO CARREÑO",
        "resultType": "observed",
        "source": "dane-divipola-mgn-2025",
        "year": 2025
      }
    },
    {
      "type": "Feature",
      "id": 2720,
      "geometry": {
        "type": "Polygon",
        "coordinates": [
          [
            [
              -68.81353,
              6.17289
            ],
            [
              -68.88357,
              6.16747
            ],
            [
              -68.97331,
              6.19619
            ],
            [
              -69.0139,
              6.19287
            ],
            [
              -69.04725,
              6.22158
            ],
            [
              -69.12373,
              6.19091
            ],
            [
              -69.1503,
              6.15088
            ],
            [
              -69.1777,
              6.14727
            ],
            [
              -69.23861,
              6.07953
            ],
            [
              -69.30727,
              6.08895
            ],
            [
              -69.34466,
              6.14438
            ],
            [
              -69.40427,
              6.12558
            ],
            [
              -69.45226,
              6.08347
            ],
            [
              -69.54155,
              6.04365
            ],
            [
              -69.68258,
              6.03842
            ],
            [
              -69.78432,
              6.05855
            ],
            [
              -69.83591,
              6.04126
            ],
            [
              -69.85435,
              5.98447
            ],
            [
              -69.88279,
              5.96979
            ],
            [
              -69.93253,
              5.87645
            ],
            [
              -69.96769,
              5.85942
            ],
            [
              -69.97882,
              5.80734
            ],
            [
              -70.04378,
              5.74622
            ],
            [
              -70.05676,
              5.70364
            ],
            [
              -70.14016,
              5.60992
            ],
            [
              -70.19467,
              5.60316
            ],
            [
              -70.26383,
              5.56357
            ],
            [
              -70.36052,
              5.58702
            ],
            [
              -70.6504,
              5.37906
            ],
            [
              -70.64831,
              5.35196
            ],
            [
              -70.61319,
              5.32358
            ],
            [
              -70.61456,
              5.30075
            ],
            [
              -70.5935,
              5.31028
            ],
            [
              -70.562,
              5.26628
            ],
            [
              -70.56632,
              5.251
            ],
            [
              -70.59206,
              5.27267
            ],
            [
              -70.60197,
              5.25175
            ],
            [
              -70.57535,
              5.24592
            ],
            [
              -70.55949,
              5.18868
            ],
            [
              -70.51107,
              5.16418
            ],
            [
              -70.47983,
              5.17158
            ],
            [
              -70.51588,
              5.13601
            ],
            [
              -70.5342,
              5.13217
            ],
            [
              -70.54429,
              5.15546
            ],
            [
              -70.55083,
              5.10914
            ],
            [
              -70.51878,
              5.11631
            ],
            [
              -70.49381,
              5.08416
            ],
            [
              -70.47451,
              5.09401
            ],
            [
              -70.45019,
              5.04667
            ],
            [
              -70.37224,
              5.07356
            ],
            [
              -70.30364,
              4.97305
            ],
            [
              -70.24276,
              4.95958
            ],
            [
              -70.20978,
              4.92993
            ],
            [
              -70.197,
              4.88402
            ],
            [
              -70.18127,
              4.90459
            ],
            [
              -70.17617,
              4.88756
            ],
            [
              -70.16129,
              4.90346
            ],
            [
              -70.15886,
              4.88459
            ],
            [
              -70.12959,
              4.90192
            ],
            [
              -70.122,
              4.88799
            ],
            [
              -70.09773,
              4.89158
            ],
            [
              -70.0981,
              4.91607
            ],
            [
              -70.08529,
              4.89655
            ],
            [
              -70.08481,
              4.91962
            ],
            [
              -70.06271,
              4.91656
            ],
            [
              -70.06213,
              4.93146
            ],
            [
              -70.03468,
              4.91466
            ],
            [
              -70.0387,
              4.94172
            ],
            [
              -70.01719,
              4.92285
            ],
            [
              -70.00692,
              4.93673
            ],
            [
              -69.99534,
              4.92668
            ],
            [
              -69.99173,
              4.94282
            ],
            [
              -69.98216,
              4.92286
            ],
            [
              -69.9821,
              4.94137
            ],
            [
              -69.96396,
              4.94227
            ],
            [
              -69.9727,
              4.95081
            ],
            [
              -69.92836,
              4.94648
            ],
            [
              -69.89181,
              4.98527
            ],
            [
              -69.86843,
              4.94687
            ],
            [
              -69.85876,
              4.96923
            ],
            [
              -69.83986,
              4.94893
            ],
            [
              -69.82538,
              4.96305
            ],
            [
              -69.79998,
              4.88539
            ],
            [
              -69.75948,
              4.89312
            ],
            [
              -69.74448,
              4.87788
            ],
            [
              -69.73183,
              4.89637
            ],
            [
              -69.70611,
              4.88207
            ],
            [
              -69.70904,
              4.90375
            ],
            [
              -69.68766,
              4.87607
            ],
            [
              -69.68958,
              4.90091
            ],
            [
              -69.66478,
              4.88932
            ],
            [
              -69.66485,
              4.91481
            ],
            [
              -69.68012,
              4.9147
            ],
            [
              -69.67399,
              4.92658
            ],
            [
              -69.64957,
              4.91974
            ],
            [
              -69.64822,
              4.95287
            ],
            [
              -69.6164,
              4.90656
            ],
            [
              -69.61279,
              4.92037
            ],
            [
              -69.58519,
              4.91449
            ],
            [
              -69.58653,
              4.92765
            ],
            [
              -69.56489,
              4.9148
            ],
            [
              -69.56619,
              4.93189
            ],
            [
              -69.53306,
              4.95103
            ],
            [
              -69.51697,
              4.94165
            ],
            [
              -69.53032,
              4.97602
            ],
            [
              -69.48613,
              4.97935
            ],
            [
              -69.49495,
              5.00687
            ],
            [
              -69.47256,
              5.00476
            ],
            [
              -69.46289,
              5.03292
            ],
            [
              -69.45412,
              5.01784
            ],
            [
              -69.42263,
              5.04315
            ],
            [
              -69.40892,
              5.10205
            ],
            [
              -69.42055,
              5.10877
            ],
            [
              -69.40949,
              5.14412
            ],
            [
              -69.42456,
              5.14421
            ],
            [
              -69.42368,
              5.18437
            ],
            [
              -69.39876,
              5.18996
            ],
            [
              -69.38728,
              5.17161
            ],
            [
              -69.33443,
              5.18921
            ],
            [
              -69.33795,
              5.17338
            ],
            [
              -69.31537,
              5.18043
            ],
            [
              -69.30768,
              5.1625
            ],
            [
              -69.26885,
              5.19151
            ],
            [
              -69.20499,
              5.19281
            ],
            [
              -69.19622,
              5.17742
            ],
            [
              -69.18323,
              5.19675
            ],
            [
              -69.14444,
              5.17293
            ],
            [
              -69.15145,
              5.21585
            ],
            [
              -69.11149,
              5.23072
            ],
            [
              -69.14177,
              5.24586
            ],
            [
              -69.09363,
              5.24821
            ],
            [
              -69.09324,
              5.27433
            ],
            [
              -69.04942,
              5.28192
            ],
            [
              -69.06234,
              5.30033
            ],
            [
              -69.09085,
              5.29866
            ],
            [
              -69.08587,
              5.31349
            ],
            [
              -69.02146,
              5.32651
            ],
            [
              -69.00496,
              5.30305
            ],
            [
              -68.98503,
              5.33029
            ],
            [
              -68.95135,
              5.33319
            ],
            [
              -68.94663,
              5.35148
            ],
            [
              -68.92347,
              5.33374
            ],
            [
              -68.87315,
              5.38654
            ],
            [
              -68.88739,
              5.39434
            ],
            [
              -68.84691,
              5.38372
            ],
            [
              -68.84686,
              5.41733
            ],
            [
              -68.81653,
              5.41894
            ],
            [
              -68.81353,
              6.17289
            ]
          ]
        ]
      },
      "properties": {
        "code": "99524",
        "departmentCode": "99",
        "name": "LA PRIMAVERA",
        "resultType": "observed",
        "source": "dane-divipola-mgn-2025",
        "year": 2025
      }
    },
    {
      "type": "Feature",
      "id": 2721,
      "geometry": {
        "type": "Polygon",
        "coordinates": [
          [
            [
              -70.65378,
              5.37298
            ],
            [
              -70.68186,
              5.35727
            ],
            [
              -70.67411,
              5.31547
            ],
            [
              -70.69539,
              5.2818
            ],
            [
              -70.86204,
              5.14421
            ],
            [
              -70.94265,
              5.12525
            ],
            [
              -70.97446,
              5.08009
            ],
            [
              -70.96775,
              5.05828
            ],
            [
              -70.98679,
              5.04367
            ],
            [
              -71.00189,
              4.98073
            ],
            [
              -71.05651,
              4.90641
            ],
            [
              -71.07793,
              4.8991
            ],
            [
              -71.07614,
              4.72546
            ],
            [
              -71.01185,
              4.74867
            ],
            [
              -70.97459,
              4.73445
            ],
            [
              -70.97254,
              4.7775
            ],
            [
              -70.89966,
              4.81751
            ],
            [
              -70.82891,
              4.81074
            ],
            [
              -70.8011,
              4.78391
            ],
            [
              -70.7639,
              4.81622
            ],
            [
              -70.70412,
              4.81555
            ],
            [
              -70.6851,
              4.77454
            ],
            [
              -70.61612,
              4.76816
            ],
            [
              -70.50073,
              4.71472
            ],
            [
              -70.49042,
              4.72871
            ],
            [
              -70.47407,
              4.70901
            ],
            [
              -70.43701,
              4.72486
            ],
            [
              -70.44479,
              4.74507
            ],
            [
              -70.43105,
              4.74128
            ],
            [
              -70.41707,
              4.76753
            ],
            [
              -70.34589,
              4.74995
            ],
            [
              -70.32492,
              4.76632
            ],
            [
              -70.32486,
              4.78732
            ],
            [
              -70.30233,
              4.78806
            ],
            [
              -70.25663,
              4.83401
            ],
            [
              -70.23234,
              4.82859
            ],
            [
              -70.21235,
              4.84966
            ],
            [
              -70.197,
              4.88402
            ],
            [
              -70.20978,
              4.92993
            ],
            [
              -70.24276,
              4.95958
            ],
            [
              -70.30364,
              4.97305
            ],
            [
              -70.37224,
              5.07356
            ],
            [
              -70.45019,
              5.04667
            ],
            [
              -70.47451,
              5.09401
            ],
            [
              -70.49381,
              5.08416
            ],
            [
              -70.51878,
              5.11631
            ],
            [
              -70.55083,
              5.10914
            ],
            [
              -70.54429,
              5.15546
            ],
            [
              -70.5342,
              5.13217
            ],
            [
              -70.51588,
              5.13601
            ],
            [
              -70.47983,
              5.17158
            ],
            [
              -70.51107,
              5.16418
            ],
            [
              -70.55949,
              5.18868
            ],
            [
              -70.57535,
              5.24592
            ],
            [
              -70.60197,
              5.25175
            ],
            [
              -70.59206,
              5.27267
            ],
            [
              -70.56632,
              5.251
            ],
            [
              -70.562,
              5.26628
            ],
            [
              -70.5935,
              5.31028
            ],
            [
              -70.61456,
              5.30075
            ],
            [
              -70.61918,
              5.33574
            ],
            [
              -70.63622,
              5.33476
            ],
            [
              -70.64172,
              5.37356
            ],
            [
              -70.65378,
              5.37298
            ]
          ]
        ]
      },
      "properties": {
        "code": "99624",
        "departmentCode": "99",
        "name": "SANTA ROSALÍA",
        "resultType": "observed",
        "source": "dane-divipola-mgn-2025",
        "year": 2025
      }
    },
    {
      "type": "Feature",
      "id": 2722,
      "geometry": {
        "type": "Polygon",
        "coordinates": [
          [
            [
              -68.47074,
              5.55047
            ],
            [
              -68.47251,
              5.56389
            ],
            [
              -68.51726,
              5.55181
            ],
            [
              -68.52169,
              5.50641
            ],
            [
              -68.53735,
              5.50407
            ],
            [
              -68.5566,
              5.53874
            ],
            [
              -68.58526,
              5.51181
            ],
            [
              -68.6297,
              5.51064
            ],
            [
              -68.63895,
              5.45025
            ],
            [
              -68.68088,
              5.48549
            ],
            [
              -68.67333,
              5.47155
            ],
            [
              -68.693,
              5.45712
            ],
            [
              -68.69097,
              5.43642
            ],
            [
              -68.70881,
              5.4516
            ],
            [
              -68.74979,
              5.39293
            ],
            [
              -68.78663,
              5.41947
            ],
            [
              -68.80226,
              5.40187
            ],
            [
              -68.8137,
              5.41831
            ],
            [
              -68.84671,
              5.41738
            ],
            [
              -68.84662,
              5.38401
            ],
            [
              -68.88739,
              5.39434
            ],
            [
              -68.87315,
              5.38654
            ],
            [
              -68.92347,
              5.33374
            ],
            [
              -68.94763,
              5.35119
            ],
            [
              -68.95121,
              5.33332
            ],
            [
              -68.98503,
              5.33029
            ],
            [
              -69.00508,
              5.30303
            ],
            [
              -69.02146,
              5.32651
            ],
            [
              -69.08528,
              5.31387
            ],
            [
              -69.09085,
              5.29866
            ],
            [
              -69.06234,
              5.30033
            ],
            [
              -69.04942,
              5.28192
            ],
            [
              -69.09324,
              5.27433
            ],
            [
              -69.09363,
              5.24821
            ],
            [
              -69.14177,
              5.24586
            ],
            [
              -69.11149,
              5.23072
            ],
            [
              -69.15145,
              5.21585
            ],
            [
              -69.14444,
              5.17293
            ],
            [
              -69.18323,
              5.19675
            ],
            [
              -69.19622,
              5.17742
            ],
            [
              -69.20499,
              5.19281
            ],
            [
              -69.26885,
              5.19151
            ],
            [
              -69.30768,
              5.1625
            ],
            [
              -69.31537,
              5.18043
            ],
            [
              -69.33795,
              5.17338
            ],
            [
              -69.33443,
              5.18921
            ],
            [
              -69.38728,
              5.17161
            ],
            [
              -69.39876,
              5.18996
            ],
            [
              -69.42368,
              5.18437
            ],
            [
              -69.42456,
              5.14421
            ],
            [
              -69.40949,
              5.14412
            ],
            [
              -69.42055,
              5.10877
            ],
            [
              -69.40893,
              5.10126
            ],
            [
              -69.43241,
              5.02787
            ],
            [
              -69.45638,
              5.01799
            ],
            [
              -69.46152,
              5.03343
            ],
            [
              -69.46437,
              5.00908
            ],
            [
              -69.49495,
              5.00687
            ],
            [
              -69.4859,
              4.97954
            ],
            [
              -69.53007,
              4.97629
            ],
            [
              -69.51486,
              4.94364
            ],
            [
              -69.53306,
              4.95103
            ],
            [
              -69.56619,
              4.93189
            ],
            [
              -69.56493,
              4.91478
            ],
            [
              -69.58653,
              4.92765
            ],
            [
              -69.58519,
              4.91449
            ],
            [
              -69.61279,
              4.92037
            ],
            [
              -69.61658,
              4.90662
            ],
            [
              -69.64858,
              4.95271
            ],
            [
              -69.64957,
              4.91974
            ],
            [
              -69.67399,
              4.92658
            ],
            [
              -69.68012,
              4.9147
            ],
            [
              -69.66485,
              4.91481
            ],
            [
              -69.66431,
              4.88976
            ],
            [
              -69.69075,
              4.89979
            ],
            [
              -69.68512,
              4.87585
            ],
            [
              -69.70835,
              4.90379
            ],
            [
              -69.70748,
              4.88165
            ],
            [
              -69.73155,
              4.89639
            ],
            [
              -69.73482,
              4.87723
            ],
            [
              -69.75948,
              4.89312
            ],
            [
              -69.79984,
              4.8853
            ],
            [
              -69.82538,
              4.96305
            ],
            [
              -69.83986,
              4.94893
            ],
            [
              -69.85876,
              4.96923
            ],
            [
              -69.86843,
              4.94687
            ],
            [
              -69.86996,
              4.96774
            ],
            [
              -69.88747,
              4.96176
            ],
            [
              -69.88476,
              4.98478
            ],
            [
              -69.89858,
              4.9846
            ],
            [
              -69.92826,
              4.94652
            ],
            [
              -69.9727,
              4.95081
            ],
            [
              -69.96396,
              4.94227
            ],
            [
              -69.9821,
              4.94137
            ],
            [
              -69.98216,
              4.92286
            ],
            [
              -69.99173,
              4.94282
            ],
            [
              -69.99534,
              4.92668
            ],
            [
              -70.00692,
              4.93673
            ],
            [
              -70.01719,
              4.92285
            ],
            [
              -70.03791,
              4.94185
            ],
            [
              -70.03468,
              4.91466
            ],
            [
              -70.06213,
              4.93146
            ],
            [
              -70.06271,
              4.91656
            ],
            [
              -70.08481,
              4.91962
            ],
            [
              -70.08529,
              4.89655
            ],
            [
              -70.0981,
              4.91607
            ],
            [
              -70.0989,
              4.89122
            ],
            [
              -70.12261,
              4.8882
            ],
            [
              -70.12959,
              4.90192
            ],
            [
              -70.15886,
              4.88459
            ],
            [
              -70.16129,
              4.90346
            ],
            [
              -70.17617,
              4.88756
            ],
            [
              -70.18315,
              4.90418
            ],
            [
              -70.23208,
              4.82876
            ],
            [
              -70.25663,
              4.83401
            ],
            [
              -70.28087,
              4.80111
            ],
            [
              -70.32486,
              4.78732
            ],
            [
              -70.32492,
              4.76632
            ],
            [
              -70.34589,
              4.74995
            ],
            [
              -70.41707,
              4.76753
            ],
            [
              -70.43105,
              4.74128
            ],
            [
              -70.44479,
              4.74507
            ],
            [
              -70.43701,
              4.72486
            ],
            [
              -70.47407,
              4.70901
            ],
            [
              -70.49042,
              4.72871
            ],
            [
              -70.50073,
              4.71472
            ],
            [
              -70.61612,
              4.76816
            ],
            [
              -70.6851,
              4.77454
            ],
            [
              -70.70412,
              4.81555
            ],
            [
              -70.7639,
              4.81622
            ],
            [
              -70.8011,
              4.78391
            ],
            [
              -70.82891,
              4.81074
            ],
            [
              -70.89966,
              4.81751
            ],
            [
              -70.97254,
              4.7775
            ],
            [
              -70.97459,
              4.73445
            ],
            [
              -71.01185,
              4.74867
            ],
            [
              -71.07762,
              4.72658
            ],
            [
              -71.07753,
              2.88223
            ],
            [
              -71.06377,
              2.85754
            ],
            [
              -71.02912,
              2.84632
            ],
            [
              -71.01059,
              2.85681
            ],
            [
              -70.98756,
              2.82893
            ],
            [
              -70.95457,
              2.84214
            ],
            [
              -70.94793,
              2.81796
            ],
            [
              -70.962,
              2.80049
            ],
            [
              -70.9457,
              2.78546
            ],
            [
              -70.92515,
              2.81541
            ],
            [
              -70.93805,
              2.85731
            ],
            [
              -70.91134,
              2.84988
            ],
            [
              -70.88367,
              2.79258
            ],
            [
              -70.87146,
              2.79629
            ],
            [
              -70.87531,
              2.84711
            ],
            [
              -70.85417,
              2.82316
            ],
            [
              -70.87143,
              2.77781
            ],
            [
              -70.82157,
              2.81307
            ],
            [
              -70.79639,
              2.79445
            ],
            [
              -70.81134,
              2.76001
            ],
            [
              -70.75442,
              2.77022
            ],
            [
              -70.72478,
              2.79516
            ],
            [
              -70.70917,
              2.73711
            ],
            [
              -70.68172,
              2.77778
            ],
            [
              -70.64041,
              2.80264
            ],
            [
              -70.66005,
              2.85741
            ],
            [
              -70.63541,
              2.84877
            ],
            [
              -70.62033,
              2.79255
            ],
            [
              -70.58733,
              2.84051
            ],
            [
              -70.5047,
              2.78785
            ],
            [
              -70.49387,
              2.81334
            ],
            [
              -70.35872,
              2.85187
            ],
            [
              -70.35405,
              2.91403
            ],
            [
              -70.27837,
              2.93652
            ],
            [
              -70.30331,
              3.03362
            ],
            [
              -70.25533,
              3.03967
            ],
            [
              -70.27274,
              3.06611
            ],
            [
              -70.31522,
              3.07084
            ],
            [
              -70.31995,
              3.08633
            ],
            [
              -70.27992,
              3.09447
            ],
            [
              -70.28794,
              3.12402
            ],
            [
              -70.2444,
              3.17919
            ],
            [
              -70.20653,
              3.17309
            ],
            [
              -70.21786,
              3.20598
            ],
            [
              -70.19225,
              3.17355
            ],
            [
              -70.16464,
              3.18112
            ],
            [
              -70.17436,
              3.23581
            ],
            [
              -70.15718,
              3.2294
            ],
            [
              -70.14811,
              3.19077
            ],
            [
              -70.12798,
              3.20226
            ],
            [
              -70.13182,
              3.24409
            ],
            [
              -70.15681,
              3.25789
            ],
            [
              -70.15785,
              3.28158
            ],
            [
              -70.13618,
              3.29378
            ],
            [
              -70.11565,
              3.27967
            ],
            [
              -70.10877,
              3.29371
            ],
            [
              -70.17295,
              3.349
            ],
            [
              -70.13338,
              3.36514
            ],
            [
              -70.12661,
              3.40081
            ],
            [
              -70.11026,
              3.38499
            ],
            [
              -70.07602,
              3.38737
            ],
            [
              -70.02581,
              3.41762
            ],
            [
              -70.00193,
              3.37272
            ],
            [
              -69.94355,
              3.39475
            ],
            [
              -69.96028,
              3.45692
            ],
            [
              -69.91497,
              3.447
            ],
            [
              -69.90253,
              3.4244
            ],
            [
              -69.87173,
              3.43935
            ],
            [
              -69.86168,
              3.47881
            ],
            [
              -69.89554,
              3.51722
            ],
            [
              -69.89356,
              3.53685
            ],
            [
              -69.87245,
              3.53585
            ],
            [
              -69.85159,
              3.49182
            ],
            [
              -69.81721,
              3.47705
            ],
            [
              -69.84389,
              3.54897
            ],
            [
              -69.81711,
              3.55207
            ],
            [
              -69.8154,
              3.51593
            ],
            [
              -69.80192,
              3.50786
            ],
            [
              -69.77734,
              3.56457
            ],
            [
              -69.73401,
              3.54292
            ],
            [
              -69.71373,
              3.54938
            ],
            [
              -69.74235,
              3.57601
            ],
            [
              -69.73992,
              3.59093
            ],
            [
              -69.70982,
              3.57673
            ],
            [
              -69.70064,
              3.53991
            ],
            [
              -69.66314,
              3.58538
            ],
            [
              -69.62904,
              3.56863
            ],
            [
              -69.60888,
              3.59546
            ],
            [
              -69.5926,
              3.56774
            ],
            [
              -69.57055,
              3.66941
            ],
            [
              -69.59549,
              3.67303
            ],
            [
              -69.58867,
              3.68347
            ],
            [
              -69.5043,
              3.67874
            ],
            [
              -69.49288,
              3.65077
            ],
            [
              -69.47845,
              3.69544
            ],
            [
              -69.45475,
              3.70899
            ],
            [
              -69.40771,
              3.66
            ],
            [
              -69.38787,
              3.68515
            ],
            [
              -69.36636,
              3.6655
            ],
            [
              -69.30351,
              3.71726
            ],
            [
              -69.28958,
              3.69805
            ],
            [
              -69.30566,
              3.65217
            ],
            [
              -69.29198,
              3.64479
            ],
            [
              -69.268,
              3.68127
            ],
            [
              -69.28709,
              3.71325
            ],
            [
              -69.27968,
              3.72629
            ],
            [
              -69.24704,
              3.71476
            ],
            [
              -69.23496,
              3.67401
            ],
            [
              -69.20804,
              3.70198
            ],
            [
              -69.20008,
              3.66949
            ],
            [
              -69.16809,
              3.6719
            ],
            [
              -69.18669,
              3.63392
            ],
            [
              -69.15253,
              3.64262
            ],
            [
              -69.12111,
              3.67604
            ],
            [
              -69.10044,
              3.63807
            ],
            [
              -69.07877,
              3.6559
            ],
            [
              -69.05594,
              3.63866
            ],
            [
              -68.99582,
              3.69185
            ],
            [
              -68.94232,
              3.68246
            ],
            [
              -68.93762,
              3.74236
            ],
            [
              -68.92584,
              3.68693
            ],
            [
              -68.86422,
              3.70633
            ],
            [
              -68.83499,
              3.6701
            ],
            [
              -68.85212,
              3.7387
            ],
            [
              -68.79481,
              3.72225
            ],
            [
              -68.7543,
              3.78312
            ],
            [
              -68.65084,
              3.76171
            ],
            [
              -68.64643,
              3.77507
            ],
            [
              -68.6805,
              3.797
            ],
            [
              -68.67204,
              3.812
            ],
            [
              -68.63468,
              3.77365
            ],
            [
              -68.57602,
              3.79024
            ],
            [
              -68.55062,
              3.76398
            ],
            [
              -68.5693,
              3.81797
            ],
            [
              -68.50989,
              3.77911
            ],
            [
              -68.51297,
              3.82551
            ],
            [
              -68.47624,
              3.85197
            ],
            [
              -68.44449,
              3.83835
            ],
            [
              -68.44676,
              3.88444
            ],
            [
              -68.39471,
              3.85077
            ],
            [
              -68.39304,
              3.87286
            ],
            [
              -68.43661,
              3.915
            ],
            [
              -68.42038,
              3.9267
            ],
            [
              -68.38182,
              3.91237
            ],
            [
              -68.34672,
              3.92407
            ],
            [
              -68.34457,
              3.99319
            ],
            [
              -68.31389,
              3.97779
            ],
            [
              -68.23666,
              3.97516
            ],
            [
              -68.20657,
              3.95678
            ],
            [
              -68.20502,
              3.99749
            ],
            [
              -68.17374,
              3.98603
            ],
            [
              -68.13053,
              4.00095
            ],
            [
              -68.11955,
              3.98209
            ],
            [
              -68.1328,
              3.94651
            ],
            [
              -68.11286,
              3.94341
            ],
            [
              -68.0983,
              3.97457
            ],
            [
              -68.07836,
              3.98054
            ],
            [
              -68.07898,
              3.93515
            ],
            [
              -68.03453,
              4.01136
            ],
            [
              -68.02477,
              3.97592
            ],
            [
              -67.93743,
              3.9631
            ],
            [
              -67.91357,
              3.90944
            ],
            [
              -67.87602,
              3.91915
            ],
            [
              -67.81317,
              3.98454
            ],
            [
              -67.7076,
              4.04503
            ],
            [
              -67.73557,
              4.12812
            ],
            [
              -67.76844,
              4.1623
            ],
            [
              -67.79839,
              4.23662
            ],
            [
              -67.80401,
              4.32728
            ],
            [
              -67.76161,
              4.34934
            ],
            [
              -67.78146,
              4.39242
            ],
            [
              -67.77318,
              4.419
            ],
            [
              -67.79782,
              4.43706
            ],
            [
              -67.79922,
              4.47977
            ],
            [
              -67.85723,
              4.52469
            ],
            [
              -67.8393,
              4.55748
            ],
            [
              -67.84494,
              4.64509
            ],
            [
              -67.81784,
              4.70723
            ],
            [
              -67.83873,
              4.94348
            ],
            [
              -67.80593,
              5.05401
            ],
            [
              -67.85428,
              5.13522
            ],
            [
              -67.82445,
              5.19614
            ],
            [
              -67.82387,
              5.25104
            ],
            [
              -67.85135,
              5.28084
            ],
            [
              -67.84768,
              5.30787
            ],
            [
              -67.814,
              5.34258
            ],
            [
              -67.84896,
              5.34902
            ],
            [
              -67.85227,
              5.37823
            ],
            [
              -67.8875,
              5.372
            ],
            [
              -67.93177,
              5.34205
            ],
            [
              -67.95508,
              5.30237
            ],
            [
              -67.98674,
              5.36352
            ],
            [
              -68.02104,
              5.35591
            ],
            [
              -68.06342,
              5.39349
            ],
            [
              -68.05755,
              5.36031
            ],
            [
              -68.08903,
              5.37707
            ],
            [
              -68.09609,
              5.43337
            ],
            [
              -68.12127,
              5.43654
            ],
            [
              -68.1052,
              5.41142
            ],
            [
              -68.12858,
              5.4046
            ],
            [
              -68.14683,
              5.43049
            ],
            [
              -68.20339,
              5.43249
            ],
            [
              -68.1747,
              5.40014
            ],
            [
              -68.1878,
              5.38848
            ],
            [
              -68.26306,
              5.47116
            ],
            [
              -68.26536,
              5.42807
            ],
            [
              -68.29579,
              5.43543
            ],
            [
              -68.30565,
              5.46936
            ],
            [
              -68.33019,
              5.47315
            ],
            [
              -68.32775,
              5.50285
            ],
            [
              -68.37568,
              5.51269
            ],
            [
              -68.3853,
              5.54403
            ],
            [
              -68.41504,
              5.52135
            ],
            [
              -68.42881,
              5.53921
            ],
            [
              -68.45798,
              5.52367
            ],
            [
              -68.47074,
              5.55047
            ]
          ]
        ]
      },
      "properties": {
        "code": "99773",
        "departmentCode": "99",
        "name": "CUMARIBO",
        "resultType": "observed",
        "source": "dane-divipola-mgn-2025",
        "year": 2025
      }
    }
  ]
}
